{
  "type": "FeatureCollection",
  "name": "Monticello",
  "crs": {
    "type": "name",
    "properties": {
      "name": "urn:ogc:def:crs:OGC:1.3:CRS84"
    }
  },
  "features": [
    {
      "type": "Feature",
      "properties": {
        "largest_city": "Monticello",
        "all_cities": "Altheimer, Arkansas City, Banks, Bearden, Camden, Crossett, DeWitt, Dermott, Dumas, East Camden, El Dorado, Eudora, Fordyce, Fourche, Franklin, Gould, Grady, Hamburg, Hampton, Harrell, Houston, Humphrey, Kingsland, Lake Village, Leslie, McGehee, Mitchellville, Monticello, Montrose, Norphlet, Reed, Rison, Sheridan, Smackover, St. Joe, Star City, Stuttgart, Sulphur Springs, Thornton, Tillar, Tucker, Wabbaseka, Warren, White Hall, Wilmar, Wilmot",
        "total_area_ft2": 19968150.89196226
      },
      "geometry": {
        "type": "MultiPolygon",
        "coordinates": [
          [
            [
              [
                -91.4484594,
                33.7058894
              ],
              [
                -91.4485575,
                33.7059632
              ],
              [
                -91.448777,
                33.706814
              ],
              [
                -91.4481792,
                33.706942199999986
              ],
              [
                -91.4477309,
                33.7068606
              ],
              [
                -91.44749739999999,
                33.706546
              ],
              [
                -91.4473807,
                33.706072
              ],
              [
                -91.44838939999998,
                33.705873899999986
              ],
              [
                -91.4484594,
                33.7058894
              ]
            ]
          ],
          [
            [
              [
                -91.4487303,
                33.7070549
              ],
              [
                -91.448819,
                33.707086
              ],
              [
                -91.4491319,
                33.7076182
              ],
              [
                -91.448805,
                33.70771139999999
              ],
              [
                -91.4485248,
                33.70770369999997
              ],
              [
                -91.44829129999998,
                33.7075638
              ],
              [
                -91.4481419,
                33.70739669999998
              ],
              [
                -91.4480952,
                33.7072957
              ],
              [
                -91.4487303,
                33.7070549
              ]
            ]
          ],
          [
            [
              [
                -91.4506413,
                33.710709
              ],
              [
                -91.4501049,
                33.710914299999985
              ],
              [
                -91.44976690000001,
                33.710900899999984
              ],
              [
                -91.4495148,
                33.71084289999999
              ],
              [
                -91.4494236,
                33.710651
              ],
              [
                -91.4503141,
                33.71027170000002
              ],
              [
                -91.4506413,
                33.710709
              ]
            ]
          ],
          [
            [
              [
                -91.4746913,
                33.8760721
              ],
              [
                -91.47459209999998,
                33.8770174
              ],
              [
                -91.4744969,
                33.8770185
              ],
              [
                -91.4742595,
                33.8769985
              ],
              [
                -91.47392019999998,
                33.87690050000001
              ],
              [
                -91.4736654,
                33.8766956
              ],
              [
                -91.4735514,
                33.8764384
              ],
              [
                -91.4735071,
                33.8761979
              ],
              [
                -91.47348969999999,
                33.8759641
              ],
              [
                -91.47461619999999,
                33.876005299999974
              ],
              [
                -91.4746913,
                33.8760721
              ]
            ]
          ],
          [
            [
              [
                -91.4728743,
                33.8762606
              ],
              [
                -91.4728068,
                33.8772471
              ],
              [
                -91.4722261,
                33.87721969999998
              ],
              [
                -91.47229369999998,
                33.87623319999999
              ],
              [
                -91.4728743,
                33.8762606
              ]
            ]
          ],
          [
            [
              [
                -91.47379609999999,
                33.8773998
              ],
              [
                -91.473709,
                33.87758909999997
              ],
              [
                -91.4735118,
                33.87774839999999
              ],
              [
                -91.47329319999999,
                33.8778241
              ],
              [
                -91.47303710000001,
                33.8778363
              ],
              [
                -91.4730679,
                33.8772495
              ],
              [
                -91.4731269,
                33.87721610000002
              ],
              [
                -91.47380420000002,
                33.8772384
              ],
              [
                -91.47379609999999,
                33.8773998
              ]
            ]
          ],
          [
            [
              [
                -91.8086076,
                33.59393619999998
              ],
              [
                -91.8088536,
                33.593848199999975
              ],
              [
                -91.80915039999998,
                33.59385839999998
              ],
              [
                -91.809191,
                33.5942139
              ],
              [
                -91.80917679999999,
                33.5944154
              ],
              [
                -91.80913609999999,
                33.594442499999985
              ],
              [
                -91.8089898,
                33.59444929999997
              ],
              [
                -91.80845519999998,
                33.59439
              ],
              [
                -91.8084694,
                33.59413769999998
              ],
              [
                -91.8086076,
                33.59393619999998
              ]
            ]
          ],
          [
            [
              [
                -91.807516,
                33.5945509
              ],
              [
                -91.80746519999998,
                33.5946017
              ],
              [
                -91.8067761,
                33.59458140000002
              ],
              [
                -91.80677,
                33.5944899
              ],
              [
                -91.80679439999999,
                33.5943579
              ],
              [
                -91.80686149999998,
                33.5942376
              ],
              [
                -91.8069509,
                33.5941293
              ],
              [
                -91.807142,
                33.5940345
              ],
              [
                -91.80724369999999,
                33.5940057
              ],
              [
                -91.8073758,
                33.593965
              ],
              [
                -91.80754039999998,
                33.593987
              ],
              [
                -91.807516,
                33.5945509
              ]
            ]
          ],
          [
            [
              [
                -91.8126457,
                33.61140879999998
              ],
              [
                -91.8126462,
                33.6116254
              ],
              [
                -91.8125248,
                33.6116256
              ],
              [
                -91.81252419999998,
                33.611409
              ],
              [
                -91.8126457,
                33.61140879999998
              ]
            ]
          ],
          [
            [
              [
                -91.8128041,
                33.6116268
              ],
              [
                -91.81268269999998,
                33.611627
              ],
              [
                -91.81268209999999,
                33.6114104
              ],
              [
                -91.81280359999998,
                33.61141019999997
              ],
              [
                -91.8128041,
                33.6116268
              ]
            ]
          ],
          [
            [
              [
                -91.8129595,
                33.6116278
              ],
              [
                -91.812838,
                33.611628
              ],
              [
                -91.8128375,
                33.61141139999997
              ],
              [
                -91.812959,
                33.61141120000001
              ],
              [
                -91.8129595,
                33.6116278
              ]
            ]
          ],
          [
            [
              [
                -91.8123014,
                33.61337759999998
              ],
              [
                -91.81213419999999,
                33.6133106
              ],
              [
                -91.81208159999998,
                33.61326159999999
              ],
              [
                -91.8120074,
                33.61313280000001
              ],
              [
                -91.8119516,
                33.6129833
              ],
              [
                -91.8119331,
                33.6126972
              ],
              [
                -91.811995,
                33.6125013
              ],
              [
                -91.8127625,
                33.61239049999999
              ],
              [
                -91.8130503,
                33.6123982
              ],
              [
                -91.81311839999998,
                33.61245489999999
              ],
              [
                -91.8131431,
                33.612694599999976
              ],
              [
                -91.8130998,
                33.61338279999998
              ],
              [
                -91.81295739999999,
                33.613406
              ],
              [
                -91.81281819999998,
                33.613424
              ],
              [
                -91.8126356,
                33.6134292
              ],
              [
                -91.8123014,
                33.61337759999998
              ]
            ]
          ],
          [
            [
              [
                -91.8092473,
                33.613268900000016
              ],
              [
                -91.8091937,
                33.6131717
              ],
              [
                -91.80916689999998,
                33.613093499999984
              ],
              [
                -91.8091561,
                33.61299969999996
              ],
              [
                -91.80916279999998,
                33.6129193
              ],
              [
                -91.8098294,
                33.61291589999998
              ],
              [
                -91.80989909999998,
                33.6129695
              ],
              [
                -91.80988429999998,
                33.613519
              ],
              [
                -91.80982,
                33.61353580000002
              ],
              [
                -91.809714,
                33.6135302
              ],
              [
                -91.8096295,
                33.61351349999999
              ],
              [
                -91.80951550000002,
                33.613477699999976
              ],
              [
                -91.8093962,
                33.6134174
              ],
              [
                -91.80931710000002,
                33.613348199999955
              ],
              [
                -91.8092473,
                33.613268900000016
              ]
            ]
          ],
          [
            [
              [
                -91.79785,
                33.6166717
              ],
              [
                -91.79784725163987,
                33.616648363286075
              ],
              [
                -91.79778509999998,
                33.6166244
              ],
              [
                -91.797594,
                33.61651939999999
              ],
              [
                -91.79740289999998,
                33.61641449999998
              ],
              [
                -91.7986673,
                33.6157374
              ],
              [
                -91.8000374,
                33.6151517
              ],
              [
                -91.8003098,
                33.6163772
              ],
              [
                -91.8004642,
                33.61745049999998
              ],
              [
                -91.8002894,
                33.617487699999984
              ],
              [
                -91.7999683,
                33.617487699999984
              ],
              [
                -91.79882990000002,
                33.6174877
              ],
              [
                -91.79856159999999,
                33.61771789999999
              ],
              [
                -91.7986104,
                33.6169426
              ],
              [
                -91.7979890462559,
                33.61670303366258
              ],
              [
                -91.79785,
                33.6166717
              ]
            ]
          ],
          [
            [
              [
                -91.7990199,
                33.6175389
              ],
              [
                -91.79918679999999,
                33.61748880000001
              ],
              [
                -91.7994918,
                33.61750639999998
              ],
              [
                -91.8002321,
                33.6175491
              ],
              [
                -91.8001786,
                33.6195556
              ],
              [
                -91.79870019999998,
                33.61953969999998
              ],
              [
                -91.79877029999999,
                33.6178278
              ],
              [
                -91.7988095,
                33.6176682
              ],
              [
                -91.798946,
                33.617561
              ],
              [
                -91.7990199,
                33.6175389
              ]
            ]
          ],
          [
            [
              [
                -91.8001572,
                33.621016699999956
              ],
              [
                -91.798363,
                33.6209385
              ],
              [
                -91.79838929999998,
                33.6195619
              ],
              [
                -91.8001786,
                33.6195556
              ],
              [
                -91.800168,
                33.6202805
              ],
              [
                -91.8001572,
                33.621016699999956
              ]
            ]
          ],
          [
            [
              [
                -91.798055,
                33.620330399999986
              ],
              [
                -91.7981759,
                33.62032929999999
              ],
              [
                -91.7981787,
                33.62054409999997
              ],
              [
                -91.7980577,
                33.62054510000002
              ],
              [
                -91.798055,
                33.620330399999986
              ]
            ]
          ],
          [
            [
              [
                -91.7978962,
                33.6203332
              ],
              [
                -91.7980171,
                33.6203321
              ],
              [
                -91.7980198,
                33.620546799999985
              ],
              [
                -91.79789879999998,
                33.6205479
              ],
              [
                -91.7978962,
                33.6203332
              ]
            ]
          ],
          [
            [
              [
                -91.5561775,
                33.9863962
              ],
              [
                -91.55618149999998,
                33.9866018
              ],
              [
                -91.5560509,
                33.98660359999995
              ],
              [
                -91.556047,
                33.98639789999997
              ],
              [
                -91.5561775,
                33.9863962
              ]
            ]
          ],
          [
            [
              [
                -91.6951871,
                34.07792
              ],
              [
                -91.69600309999998,
                34.0783489
              ],
              [
                -91.6957985,
                34.07861589999999
              ],
              [
                -91.6960342,
                34.0787398
              ],
              [
                -91.6957245,
                34.0791439
              ],
              [
                -91.69467489999998,
                34.0785922
              ],
              [
                -91.69488139999999,
                34.0783227
              ],
              [
                -91.69511529999998,
                34.0780136
              ],
              [
                -91.6951871,
                34.07792
              ]
            ]
          ],
          [
            [
              [
                -91.7054998,
                34.422019
              ],
              [
                -91.7054928,
                34.421462099999985
              ],
              [
                -91.70602990000002,
                34.4214576
              ],
              [
                -91.7060368,
                34.4220145
              ],
              [
                -91.7054998,
                34.422019
              ]
            ]
          ],
          [
            [
              [
                -91.5567772,
                34.47405460000002
              ],
              [
                -91.5573671,
                34.4740603
              ],
              [
                -91.5573524,
                34.47508939999999
              ],
              [
                -91.5567625,
                34.4750837
              ],
              [
                -91.5567772,
                34.47405460000002
              ]
            ]
          ],
          [
            [
              [
                -92.06739119999999,
                33.627838
              ],
              [
                -92.0672536,
                33.62783909999999
              ],
              [
                -92.0672536,
                33.62762079999995
              ],
              [
                -92.06739179999998,
                33.62762079999999
              ],
              [
                -92.06739119999999,
                33.627838
              ]
            ]
          ],
          [
            [
              [
                -92.0670952,
                33.62762079999999
              ],
              [
                -92.0672334,
                33.62762080000001
              ],
              [
                -92.0672328,
                33.627838
              ],
              [
                -92.0670952,
                33.6278391
              ],
              [
                -92.0670952,
                33.62762079999999
              ]
            ]
          ],
          [
            [
              [
                -92.0653653,
                33.6298013
              ],
              [
                -92.0659069,
                33.62980649999996
              ],
              [
                -92.06589279999999,
                33.6308135
              ],
              [
                -92.0653514,
                33.6308083
              ],
              [
                -92.0653653,
                33.6298013
              ]
            ]
          ],
          [
            [
              [
                -92.067361,
                33.6302763
              ],
              [
                -92.0674736,
                33.6309284
              ],
              [
                -92.0673932,
                33.63098639999998
              ],
              [
                -92.06649729999998,
                33.6311785
              ],
              [
                -92.06647589999999,
                33.63087920000001
              ],
              [
                -92.06649729999998,
                33.6303924
              ],
              [
                -92.066710048737,
                33.63021524157432
              ],
              [
                -92.066710048737,
                33.630215241568955
              ],
              [
                -92.06671189999999,
                33.63021369999998
              ],
              [
                -92.06707020000002,
                33.630154499999975
              ],
              [
                -92.0672591,
                33.63015569999998
              ],
              [
                -92.067361,
                33.6302763
              ]
            ]
          ],
          [
            [
              [
                -91.81838679999998,
                33.6406804
              ],
              [
                -91.8174739,
                33.64068250000001
              ],
              [
                -91.81752520000002,
                33.6393758
              ],
              [
                -91.81836,
                33.6393941
              ],
              [
                -91.81838679999998,
                33.6406804
              ]
            ]
          ],
          [
            [
              [
                -91.83990430000001,
                33.9389689
              ],
              [
                -91.83988109999999,
                33.93999139999995
              ],
              [
                -91.8392888,
                33.939982100000016
              ],
              [
                -91.8393122,
                33.938959499999974
              ],
              [
                -91.83990430000001,
                33.9389689
              ]
            ]
          ],
          [
            [
              [
                -91.8434361,
                33.93995670000001
              ],
              [
                -91.8434325,
                33.940196
              ],
              [
                -91.8432699,
                33.9401944
              ],
              [
                -91.8432734,
                33.93995510000002
              ],
              [
                -91.8434361,
                33.93995670000001
              ]
            ]
          ],
          [
            [
              [
                -91.8517422,
                33.9417976
              ],
              [
                -91.85168319999998,
                33.94192
              ],
              [
                -91.85094559999999,
                33.9421714
              ],
              [
                -91.8501087,
                33.9423962
              ],
              [
                -91.8496635,
                33.9424629
              ],
              [
                -91.84956959999998,
                33.9418021
              ],
              [
                -91.8506291,
                33.941782
              ],
              [
                -91.8517422,
                33.9417976
              ]
            ]
          ],
          [
            [
              [
                -92.4317022,
                33.8088753
              ],
              [
                -92.431699,
                33.80906369999998
              ],
              [
                -92.43156779999998,
                33.8090622
              ],
              [
                -92.431571,
                33.80887380000002
              ],
              [
                -92.4317022,
                33.8088753
              ]
            ]
          ],
          [
            [
              [
                -92.4108487,
                33.81018159999998
              ],
              [
                -92.4110243,
                33.810424799999986
              ],
              [
                -92.4108807,
                33.81049639999995
              ],
              [
                -92.41070509999999,
                33.8102532
              ],
              [
                -92.4108487,
                33.81018159999998
              ]
            ]
          ],
          [
            [
              [
                -92.4439435,
                33.81198579999997
              ],
              [
                -92.4439723,
                33.8120279
              ],
              [
                -92.4439756,
                33.81256279999999
              ],
              [
                -92.4439047,
                33.8125923
              ],
              [
                -92.44386240000001,
                33.8126218
              ],
              [
                -92.4437915,
                33.8126246
              ],
              [
                -92.44366469999999,
                33.812567
              ],
              [
                -92.44365629999999,
                33.81200260000002
              ],
              [
                -92.4437611,
                33.8119577
              ],
              [
                -92.4438405,
                33.8119549
              ],
              [
                -92.4439435,
                33.81198579999997
              ]
            ]
          ],
          [
            [
              [
                -92.40120289999999,
                33.814979699999974
              ],
              [
                -92.40181069999998,
                33.81591159999997
              ],
              [
                -92.40132739999999,
                33.8161292
              ],
              [
                -92.4007197,
                33.8151973
              ],
              [
                -92.40120289999999,
                33.814979699999974
              ]
            ]
          ],
          [
            [
              [
                -91.8458845,
                33.9419153
              ],
              [
                -91.845884724981,
                33.941932075146944
              ],
              [
                -91.84588472498035,
                33.941932075146944
              ],
              [
                -91.8458877,
                33.9421539
              ],
              [
                -91.8458904,
                33.94235779999999
              ],
              [
                -91.8458793,
                33.942396600000016
              ],
              [
                -91.8458569,
                33.94241929999998
              ],
              [
                -91.8458244,
                33.9424261
              ],
              [
                -91.8454331,
                33.9424244
              ],
              [
                -91.8454056,
                33.9424219
              ],
              [
                -91.84538829999998,
                33.942410099999975
              ],
              [
                -91.8453802,
                33.942393199999984
              ],
              [
                -91.8453802,
                33.9421526
              ],
              [
                -91.8453802,
                33.94193207514694
              ],
              [
                -91.8453802,
                33.9419131
              ],
              [
                -91.8453802,
                33.94190579999998
              ],
              [
                -91.84538729999998,
                33.94189069999999
              ],
              [
                -91.8454066,
                33.94187970000002
              ],
              [
                -91.8458538,
                33.94188049999998
              ],
              [
                -91.8458843,
                33.9419067
              ],
              [
                -91.8458845,
                33.9419153
              ]
            ]
          ],
          [
            [
              [
                -91.8365138,
                33.9429044
              ],
              [
                -91.8367048,
                33.942841
              ],
              [
                -91.83681169999998,
                33.942822
              ],
              [
                -91.83698739999998,
                33.94283470000001
              ],
              [
                -91.8371555,
                33.9428917
              ],
              [
                -91.8372624,
                33.942986800000014
              ],
              [
                -91.8373464,
                33.94306920000001
              ],
              [
                -91.836827,
                33.9434811
              ],
              [
                -91.836277,
                33.943075499999985
              ],
              [
                -91.8365138,
                33.9429044
              ]
            ]
          ],
          [
            [
              [
                -91.8355208,
                33.944146399999966
              ],
              [
                -91.8352687,
                33.943873899999986
              ],
              [
                -91.8351923,
                33.9436585
              ],
              [
                -91.8352458,
                33.9433543
              ],
              [
                -91.8354062,
                33.9431642
              ],
              [
                -91.8356659,
                33.94297409999999
              ],
              [
                -91.8357882,
                33.9429107
              ],
              [
                -91.83664369999998,
                33.94362679999997
              ],
              [
                -91.8358111,
                33.9443365
              ],
              [
                -91.8355208,
                33.944146399999966
              ]
            ]
          ],
          [
            [
              [
                -91.8398775,
                33.94582019999998
              ],
              [
                -91.8392459,
                33.94600509999999
              ],
              [
                -91.8392211,
                33.9453424
              ],
              [
                -91.83977210000002,
                33.94568160000002
              ],
              [
                -91.8398775,
                33.94582019999998
              ]
            ]
          ],
          [
            [
              [
                -91.8542917,
                33.9490634
              ],
              [
                -91.8541162,
                33.9489435
              ],
              [
                -91.85399229999999,
                33.94879789999999
              ],
              [
                -91.8539511,
                33.948626699999984
              ],
              [
                -91.8539304,
                33.9484983
              ],
              [
                -91.8547355,
                33.94853249999998
              ],
              [
                -91.8547561,
                33.949149
              ],
              [
                -91.8545084,
                33.9491404
              ],
              [
                -91.8542917,
                33.9490634
              ]
            ]
          ],
          [
            [
              [
                -91.85502450000001,
                33.9493288
              ],
              [
                -91.8549935,
                33.9484726
              ],
              [
                -91.8559018,
                33.94845549999997
              ],
              [
                -91.8558811,
                33.9492945
              ],
              [
                -91.85502450000001,
                33.9493288
              ]
            ]
          ],
          [
            [
              [
                -91.8544981,
                33.9496028
              ],
              [
                -91.8547974,
                33.94933729999998
              ],
              [
                -91.8549316,
                33.94933730000001
              ],
              [
                -91.85522060000001,
                33.94960279999999
              ],
              [
                -91.855169,
                33.9496712
              ],
              [
                -91.8550761,
                33.9497397
              ],
              [
                -91.8549419,
                33.9497826
              ],
              [
                -91.854818,
                33.949808200000014
              ],
              [
                -91.8547045,
                33.949774
              ],
              [
                -91.854591,
                33.9496969
              ],
              [
                -91.8544981,
                33.9496028
              ]
            ]
          ],
          [
            [
              [
                -91.83225729999998,
                33.952236
              ],
              [
                -91.8322681,
                33.95396249999995
              ],
              [
                -91.82980579999999,
                33.95396689999998
              ],
              [
                -91.82979509999998,
                33.952236
              ],
              [
                -91.83225729999998,
                33.952236
              ]
            ]
          ],
          [
            [
              [
                -92.3891762,
                33.83481949999997
              ],
              [
                -92.389259,
                33.8347409
              ],
              [
                -92.38941229999999,
                33.8348524
              ],
              [
                -92.38932949999999,
                33.834931
              ],
              [
                -92.3891762,
                33.83481949999997
              ]
            ]
          ],
          [
            [
              [
                -92.2974962,
                33.85904419999997
              ],
              [
                -92.2981055,
                33.8592716
              ],
              [
                -92.2981304,
                33.859293299999976
              ],
              [
                -92.29812779999999,
                33.859328099999985
              ],
              [
                -92.2979168,
                33.8596807
              ],
              [
                -92.2972865,
                33.8594642
              ],
              [
                -92.2974962,
                33.85904419999997
              ]
            ]
          ],
          [
            [
              [
                -92.1884679,
                33.9530686
              ],
              [
                -92.18845669999999,
                33.9541036
              ],
              [
                -92.1878162,
                33.9540988
              ],
              [
                -92.1878272,
                33.95306379999998
              ],
              [
                -92.1884679,
                33.9530686
              ]
            ]
          ],
          [
            [
              [
                -92.1217851,
                34.1812555
              ],
              [
                -92.12109979999998,
                34.18124019999998
              ],
              [
                -92.12102539999998,
                34.1829313
              ],
              [
                -92.1204729,
                34.18299249999998
              ],
              [
                -92.12051209999998,
                34.1826465
              ],
              [
                -92.1205274,
                34.182254
              ],
              [
                -92.1205532,
                34.1816157
              ],
              [
                -92.1201359,
                34.18141830000001
              ],
              [
                -92.1201603,
                34.18048309999998
              ],
              [
                -92.1212062,
                34.180511
              ],
              [
                -92.1218189,
                34.1805314
              ],
              [
                -92.1218015,
                34.18088719999998
              ],
              [
                -92.1217851,
                34.1812555
              ]
            ]
          ],
          [
            [
              [
                -91.84257669999997,
                33.959117
              ],
              [
                -91.8425196,
                33.959104699999976
              ],
              [
                -91.84253569999997,
                33.958995599999966
              ],
              [
                -91.8425863,
                33.95898179999999
              ],
              [
                -91.84260449999996,
                33.9588696
              ],
              [
                -91.8427451,
                33.9588768
              ],
              [
                -91.8427448,
                33.95893929999998
              ],
              [
                -91.8428121,
                33.95896529999998
              ],
              [
                -91.84278079999999,
                33.95909709999998
              ],
              [
                -91.842847,
                33.95910409999998
              ],
              [
                -91.84283060000001,
                33.959226899999976
              ],
              [
                -91.8425503,
                33.95920670000001
              ],
              [
                -91.84257669999997,
                33.959117
              ]
            ]
          ],
          [
            [
              [
                -91.840658,
                34.3206451
              ],
              [
                -91.8406532,
                34.32092259999997
              ],
              [
                -91.8402461,
                34.32091779999998
              ],
              [
                -91.84025089999999,
                34.320640200000014
              ],
              [
                -91.840658,
                34.3206451
              ]
            ]
          ],
          [
            [
              [
                -91.8357773,
                34.322145
              ],
              [
                -91.8334146,
                34.322064300000015
              ],
              [
                -91.83349889999998,
                34.3203824
              ],
              [
                -91.8358616,
                34.320463199999985
              ],
              [
                -91.8357773,
                34.322145
              ]
            ]
          ],
          [
            [
              [
                -91.8400366,
                34.321283
              ],
              [
                -91.8399588,
                34.3214669
              ],
              [
                -91.8397388,
                34.32167069999997
              ],
              [
                -91.8395699,
                34.3217438
              ],
              [
                -91.83940359999998,
                34.32178149999998
              ],
              [
                -91.83921039999998,
                34.321788099999985
              ],
              [
                -91.83910580000001,
                34.3212188
              ],
              [
                -91.8391112,
                34.321077
              ],
              [
                -91.83923989999998,
                34.32098840000001
              ],
              [
                -91.8394465,
                34.321006099999984
              ],
              [
                -91.8400661,
                34.32106369999999
              ],
              [
                -91.8400366,
                34.321283
              ]
            ]
          ],
          [
            [
              [
                -92.088532,
                34.2650192
              ],
              [
                -92.0886937,
                34.2650765
              ],
              [
                -92.08854659999999,
                34.2653599
              ],
              [
                -92.0883849,
                34.2653025
              ],
              [
                -92.088532,
                34.2650192
              ]
            ]
          ],
          [
            [
              [
                -92.0855903,
                34.27287339999998
              ],
              [
                -92.0861877,
                34.2728874
              ],
              [
                -92.086167,
                34.273491
              ],
              [
                -92.0855697,
                34.273477
              ],
              [
                -92.0855903,
                34.27287339999998
              ]
            ]
          ],
          [
            [
              [
                -92.093243,
                34.28174729999998
              ],
              [
                -92.0938906,
                34.28177359999999
              ],
              [
                -92.0939225,
                34.28220060000002
              ],
              [
                -92.0932288,
                34.2821801
              ],
              [
                -92.093243,
                34.28174729999998
              ]
            ]
          ],
          [
            [
              [
                -92.10924959999998,
                34.28173189999998
              ],
              [
                -92.10975179999998,
                34.2817243
              ],
              [
                -92.1097118,
                34.2826102
              ],
              [
                -92.1086642,
                34.28256689999998
              ],
              [
                -92.1088059,
                34.282017
              ],
              [
                -92.10924959999998,
                34.28173189999998
              ]
            ]
          ],
          [
            [
              [
                -92.1093112,
                34.28341209999998
              ],
              [
                -92.10910789999998,
                34.2833281
              ],
              [
                -92.1089908,
                34.2830735
              ],
              [
                -92.10900929999998,
                34.2828368
              ],
              [
                -92.1096594,
                34.282867299999985
              ],
              [
                -92.1096994,
                34.2829106
              ],
              [
                -92.10969019999999,
                34.2834503
              ],
              [
                -92.1093112,
                34.28341209999998
              ]
            ]
          ],
          [
            [
              [
                -92.41373239999999,
                34.298354
              ],
              [
                -92.413905,
                34.298371
              ],
              [
                -92.41424789055417,
                34.298413110342224
              ],
              [
                -92.41386441695812,
                34.29841214489802
              ],
              [
                -92.41385041694916,
                34.2984261448998
              ],
              [
                -92.41382841721033,
                34.29918714453618
              ],
              [
                -92.41382841721033,
                34.299187144536184
              ],
              [
                -92.4143260420076,
                34.29918517734908
              ],
              [
                -92.4143344177204,
                34.2991851442204
              ],
              [
                -92.41501841841303,
                34.29919114378921
              ],
              [
                -92.41501842559944,
                34.2991924502026
              ],
              [
                -92.41502266061767,
                34.299962325309444
              ],
              [
                -92.41501979999998,
                34.2999981
              ],
              [
                -92.4136948,
                34.29994489999998
              ],
              [
                -92.41373239999999,
                34.298354
              ]
            ]
          ],
          [
            [
              [
                -92.4232982,
                34.30043770000001
              ],
              [
                -92.42234797891773,
                34.30042808409739
              ],
              [
                -92.42235442591443,
                34.30024014620565
              ],
              [
                -92.42235442617331,
                34.300240138659696
              ],
              [
                -92.42329534427358,
                34.30024444690639
              ],
              [
                -92.4232982,
                34.30043770000001
              ]
            ]
          ],
          [
            [
              [
                -91.8381262,
                34.3211252
              ],
              [
                -91.83868619999998,
                34.3211266
              ],
              [
                -91.8386825,
                34.32214529999996
              ],
              [
                -91.8381225,
                34.3221439
              ],
              [
                -91.8381262,
                34.3211252
              ]
            ]
          ],
          [
            [
              [
                -91.8397026,
                34.3221063
              ],
              [
                -91.83962289999998,
                34.3219961
              ],
              [
                -91.83991,
                34.3218545
              ],
              [
                -91.83998959999997,
                34.3219647
              ],
              [
                -91.8397026,
                34.3221063
              ]
            ]
          ],
          [
            [
              [
                -91.9563124,
                34.4445384
              ],
              [
                -91.9563381,
                34.445844
              ],
              [
                -91.95486,
                34.4458362
              ],
              [
                -91.954846,
                34.44460390000002
              ],
              [
                -91.95488339999999,
                34.444523
              ],
              [
                -91.9551706,
                34.444523
              ],
              [
                -91.9563124,
                34.4445384
              ]
            ]
          ],
          [
            [
              [
                -92.49063759999999,
                33.7799602
              ],
              [
                -92.49001879999999,
                33.77920719999999
              ],
              [
                -92.4905372,
                33.7789423
              ],
              [
                -92.4911058,
                33.779680800000015
              ],
              [
                -92.49063759999999,
                33.7799602
              ]
            ]
          ],
          [
            [
              [
                -92.620644,
                34.99374340000002
              ],
              [
                -92.620636,
                34.994166699999965
              ],
              [
                -92.62015620000001,
                34.9941606
              ],
              [
                -92.6201642,
                34.9937373
              ],
              [
                -92.620644,
                34.99374340000002
              ]
            ]
          ],
          [
            [
              [
                -92.5598017,
                35.8296728
              ],
              [
                -92.560064,
                35.8294589
              ],
              [
                -92.5601941,
                35.8295638
              ],
              [
                -92.55993180000002,
                35.8297777
              ],
              [
                -92.5598017,
                35.8296728
              ]
            ]
          ],
          [
            [
              [
                -92.7373603,
                33.61292950000002
              ],
              [
                -92.737279,
                33.61293459999999
              ],
              [
                -92.73714279999999,
                33.612931199999984
              ],
              [
                -92.73697,
                33.612899
              ],
              [
                -92.73682569999998,
                33.6128245
              ],
              [
                -92.7366936,
                33.6127077
              ],
              [
                -92.7366387,
                33.6126163
              ],
              [
                -92.73660620000001,
                33.6125215
              ],
              [
                -92.7372262,
                33.61230479999998
              ],
              [
                -92.7372993,
                33.61232339999999
              ],
              [
                -92.73731759999998,
                33.61235049999995
              ],
              [
                -92.7375189,
                33.61289220000001
              ],
              [
                -92.7373603,
                33.61292950000002
              ]
            ]
          ],
          [
            [
              [
                -92.6975759,
                35.03325769999998
              ],
              [
                -92.69786279999998,
                35.0332621
              ],
              [
                -92.6978595,
                35.0334068
              ],
              [
                -92.6975725,
                35.0334023
              ],
              [
                -92.6975759,
                35.03325769999998
              ]
            ]
          ],
          [
            [
              [
                -92.79868279999998,
                36.029263
              ],
              [
                -92.79890359999999,
                36.0292332
              ],
              [
                -92.7989172,
                36.029299299999984
              ],
              [
                -92.7986965,
                36.0293291
              ],
              [
                -92.79868279999998,
                36.029263
              ]
            ]
          ],
          [
            [
              [
                -91.4721878,
                33.87767679999998
              ],
              [
                -91.4721763,
                33.877889099999976
              ],
              [
                -91.47205669999998,
                33.8778846
              ],
              [
                -91.4720682,
                33.8776723
              ],
              [
                -91.4721878,
                33.87767679999998
              ]
            ]
          ],
          [
            [
              [
                -91.4723465,
                33.877685
              ],
              [
                -91.472335,
                33.8778974
              ],
              [
                -91.47221539999998,
                33.87789289999997
              ],
              [
                -91.472227,
                33.8776806
              ],
              [
                -91.4723465,
                33.877685
              ]
            ]
          ],
          [
            [
              [
                -91.47262120000002,
                33.8776953
              ],
              [
                -91.4726097,
                33.8779076
              ],
              [
                -91.4724901,
                33.877903100000026
              ],
              [
                -91.4725016,
                33.87769080000002
              ],
              [
                -91.47262120000002,
                33.8776953
              ]
            ]
          ],
          [
            [
              [
                -91.4726564,
                33.87790910000001
              ],
              [
                -91.472668,
                33.8776968
              ],
              [
                -91.4727875,
                33.8777012
              ],
              [
                -91.472776,
                33.8779136
              ],
              [
                -91.4726564,
                33.87790910000001
              ]
            ]
          ],
          [
            [
              [
                -91.3930443,
                33.6374178
              ],
              [
                -91.39322309999999,
                33.638286
              ],
              [
                -91.3933106,
                33.638693899999964
              ],
              [
                -91.3932842119606,
                33.63876081021291
              ],
              [
                -91.39328745397702,
                33.638783503849766
              ],
              [
                -91.39327259909199,
                33.63879025611074
              ],
              [
                -91.3932699,
                33.63879710000002
              ],
              [
                -91.39320889999998,
                33.63884620000002
              ],
              [
                -91.3931398,
                33.63888
              ],
              [
                -91.3930585,
                33.6388699
              ],
              [
                -91.3929934,
                33.6388496
              ],
              [
                -91.3929162,
                33.638809
              ],
              [
                -91.39284709999998,
                33.6387413
              ],
              [
                -91.39266410000002,
                33.638595700000025
              ],
              [
                -91.39229009999998,
                33.6382776
              ],
              [
                -91.3913713,
                33.63743479999997
              ],
              [
                -91.3915472,
                33.6372994
              ],
              [
                -91.39162519999998,
                33.6372442
              ],
              [
                -91.3916656,
                33.63721450000001
              ],
              [
                -91.39171459999999,
                33.6371789
              ],
              [
                -91.3918007,
                33.6371239
              ],
              [
                -91.391973,
                33.63701839999999
              ],
              [
                -91.3924893,
                33.6367815
              ],
              [
                -91.39266819999999,
                33.6366969
              ],
              [
                -91.3927434,
                33.63668329999997
              ],
              [
                -91.3928105,
                33.63671040000002
              ],
              [
                -91.39287710000002,
                33.6367764
              ],
              [
                -91.3929355,
                33.636944
              ],
              [
                -91.3930443,
                33.6374178
              ]
            ]
          ],
          [
            [
              [
                -91.40675739999999,
                33.6383877
              ],
              [
                -91.40657987058191,
                33.638460537330545
              ],
              [
                -91.40659553587214,
                33.638490036859295
              ],
              [
                -91.40474541871357,
                33.63923008453999
              ],
              [
                -91.40455349814044,
                33.6389000745157
              ],
              [
                -91.40369759999999,
                33.63749439999999
              ],
              [
                -91.40372858306006,
                33.637481621864886
              ],
              [
                -91.40369914641059,
                33.63743100514753
              ],
              [
                -91.40561305922569,
                33.63663992124455
              ],
              [
                -91.40564115669386,
                33.63669283198273
              ],
              [
                -91.40573409999999,
                33.6366545
              ],
              [
                -91.40675739999999,
                33.6383877
              ]
            ]
          ],
          [
            [
              [
                -91.3441512,
                34.273821099999985
              ],
              [
                -91.3448879,
                34.2737972
              ],
              [
                -91.34488643914541,
                34.27380680456596
              ],
              [
                -91.34509378899983,
                34.27380166377723
              ],
              [
                -91.3450959,
                34.27376379999996
              ],
              [
                -91.3453472,
                34.2737853
              ],
              [
                -91.3453580361161,
                34.27379511234463
              ],
              [
                -91.34590767203213,
                34.273781485317365
              ],
              [
                -91.34574084140915,
                34.27498638017323
              ],
              [
                -91.3456296191972,
                34.27546833817987
              ],
              [
                -91.34549986204598,
                34.27587614932651
              ],
              [
                -91.34331251553311,
                34.27565370699315
              ],
              [
                -91.343664713515,
                34.273837094596146
              ],
              [
                -91.34414503380108,
                34.27382518609919
              ],
              [
                -91.3441512,
                34.273821099999985
              ]
            ]
          ],
          [
            [
              [
                -91.34696449999998,
                34.2767835
              ],
              [
                -91.34700979999998,
                34.27781979999998
              ],
              [
                -91.3464276,
                34.2778372
              ],
              [
                -91.3463823,
                34.2768008
              ],
              [
                -91.34696449999998,
                34.2767835
              ]
            ]
          ],
          [
            [
              [
                -91.50750533720118,
                33.88539064780555
              ],
              [
                -91.50907814443156,
                33.885413608405145
              ],
              [
                -91.5089748220042,
                33.88765227336537
              ],
              [
                -91.50742497481419,
                33.887560431848335
              ],
              [
                -91.50750533720118,
                33.88539064780555
              ]
            ]
          ],
          [
            [
              [
                -91.4978986,
                33.90244789999998
              ],
              [
                -91.4978578,
                33.90244440000002
              ],
              [
                -91.4975444,
                33.90244269999996
              ],
              [
                -91.49705840000001,
                33.9024264
              ],
              [
                -91.497075,
                33.9019782
              ],
              [
                -91.49791519999998,
                33.9019997
              ],
              [
                -91.4978986,
                33.90244789999998
              ]
            ]
          ],
          [
            [
              [
                -91.52455939999999,
                34.4795806
              ],
              [
                -91.5245968,
                34.47958819999999
              ],
              [
                -91.52464349999998,
                34.479621
              ],
              [
                -91.5246691,
                34.47965749999999
              ],
              [
                -91.524654,
                34.479716199999984
              ],
              [
                -91.5245956,
                34.4797499
              ],
              [
                -91.52447419999999,
                34.47978839999998
              ],
              [
                -91.52444619999999,
                34.47979520000002
              ],
              [
                -91.5244135,
                34.4797884
              ],
              [
                -91.5243948,
                34.4797778
              ],
              [
                -91.5243936,
                34.479747
              ],
              [
                -91.5244193,
                34.479702799999984
              ],
              [
                -91.52446019999998,
                34.479643099999976
              ],
              [
                -91.524515,
                34.47959309999999
              ],
              [
                -91.52455939999999,
                34.4795806
              ]
            ]
          ],
          [
            [
              [
                -91.5256162,
                34.47993109999999
              ],
              [
                -91.52563230000001,
                34.4796085
              ],
              [
                -91.5258325,
                34.47961530000002
              ],
              [
                -91.5258164,
                34.47993789999999
              ],
              [
                -91.5256162,
                34.47993109999999
              ]
            ]
          ],
          [
            [
              [
                -91.5261846,
                34.47961439999999
              ],
              [
                -91.5262044,
                34.4796404
              ],
              [
                -91.5262033,
                34.47966539999998
              ],
              [
                -91.52627219999998,
                34.479666399999985
              ],
              [
                -91.5262056,
                34.4799551
              ],
              [
                -91.5260562,
                34.4799503
              ],
              [
                -91.5260025,
                34.4796549
              ],
              [
                -91.526069,
                34.4796539
              ],
              [
                -91.5260678,
                34.4796452
              ],
              [
                -91.5260783,
                34.4796241
              ],
              [
                -91.5261029,
                34.4796048
              ],
              [
                -91.5261309,
                34.47960189999998
              ],
              [
                -91.5261601,
                34.47960289999998
              ],
              [
                -91.5261846,
                34.47961439999999
              ]
            ]
          ],
          [
            [
              [
                -91.52725469999999,
                34.480151
              ],
              [
                -91.52720960000002,
                34.4801473
              ],
              [
                -91.5271848,
                34.48014
              ],
              [
                -91.5271627,
                34.48011889999999
              ],
              [
                -91.5271627,
                34.480082400000015
              ],
              [
                -91.5271689,
                34.480027
              ],
              [
                -91.52720689999998,
                34.47998759999998
              ],
              [
                -91.5272636,
                34.4799752
              ],
              [
                -91.5273574,
                34.479979599999986
              ],
              [
                -91.5273919,
                34.4800109
              ],
              [
                -91.5273839,
                34.4800766
              ],
              [
                -91.5273715,
                34.480132
              ],
              [
                -91.5273308,
                34.480153199999975
              ],
              [
                -91.52725469999999,
                34.480151
              ]
            ]
          ],
          [
            [
              [
                -91.5256213,
                34.47994849999998
              ],
              [
                -91.52580939999999,
                34.47995519999998
              ],
              [
                -91.5257921,
                34.4802851
              ],
              [
                -91.52560409999998,
                34.4802784
              ],
              [
                -91.5256213,
                34.47994849999998
              ]
            ]
          ],
          [
            [
              [
                -91.526772,
                34.4803599
              ],
              [
                -91.5268205,
                34.48037189999999
              ],
              [
                -91.52686520000002,
                34.48041509999998
              ],
              [
                -91.5269014,
                34.480457
              ],
              [
                -91.52689059999999,
                34.480521799999984
              ],
              [
                -91.526886,
                34.4805707
              ],
              [
                -91.5268659,
                34.4806049
              ],
              [
                -91.5268413,
                34.48062079999998
              ],
              [
                -91.5268097,
                34.4806227
              ],
              [
                -91.5267758,
                34.4806062
              ],
              [
                -91.5267003,
                34.48053190000002
              ],
              [
                -91.5266449,
                34.4804773
              ],
              [
                -91.5266379,
                34.4804272
              ],
              [
                -91.5266803,
                34.4803884
              ],
              [
                -91.52672339999998,
                34.4803681
              ],
              [
                -91.526772,
                34.4803599
              ]
            ]
          ],
          [
            [
              [
                -91.79603339999998,
                34.360713499999974
              ],
              [
                -91.7959221,
                34.36064159999999
              ],
              [
                -91.7959207,
                34.3606062
              ],
              [
                -91.7959328,
                34.3605574
              ],
              [
                -91.7961702,
                34.3603549
              ],
              [
                -91.79652819999998,
                34.360036
              ],
              [
                -91.796606,
                34.3600681
              ],
              [
                -91.7967227,
                34.36010239999999
              ],
              [
                -91.7967589,
                34.3601334
              ],
              [
                -91.79666369999998,
                34.36022310000002
              ],
              [
                -91.79607089999999,
                34.36072789999997
              ],
              [
                -91.79603339999998,
                34.360713499999974
              ]
            ]
          ],
          [
            [
              [
                -91.79521859999998,
                34.36075889999997
              ],
              [
                -91.7951283,
                34.360842099999985
              ],
              [
                -91.79495889999998,
                34.360716799999985
              ],
              [
                -91.79504909999999,
                34.3606336
              ],
              [
                -91.79521859999998,
                34.36075889999997
              ]
            ]
          ],
          [
            [
              [
                -91.7959482,
                34.36179150000001
              ],
              [
                -91.7949013,
                34.36271609999998
              ],
              [
                -91.7945781,
                34.3624862
              ],
              [
                -91.7962023,
                34.3610548
              ],
              [
                -91.796558,
                34.36129140000001
              ],
              [
                -91.7959482,
                34.36179150000001
              ]
            ]
          ],
          [
            [
              [
                -91.5564089,
                34.4769319
              ],
              [
                -91.55641459999998,
                34.4767168
              ],
              [
                -91.55653669999998,
                34.476719
              ],
              [
                -91.556531,
                34.4769341
              ],
              [
                -91.5564089,
                34.4769319
              ]
            ]
          ],
          [
            [
              [
                -91.5565638,
                34.4767179
              ],
              [
                -91.5566859,
                34.47672010000002
              ],
              [
                -91.5566802,
                34.4769353
              ],
              [
                -91.5565581,
                34.476933099999975
              ],
              [
                -91.5565638,
                34.4767179
              ]
            ]
          ],
          [
            [
              [
                -91.5567115,
                34.476721
              ],
              [
                -91.55683369999998,
                34.47672319999998
              ],
              [
                -91.556828,
                34.4769383
              ],
              [
                -91.55670579999999,
                34.4769361
              ],
              [
                -91.5567115,
                34.476721
              ]
            ]
          ],
          [
            [
              [
                -91.528354,
                34.4792822
              ],
              [
                -91.52836539999998,
                34.4793159
              ],
              [
                -91.52833659999999,
                34.479343
              ],
              [
                -91.5283097,
                34.4793574
              ],
              [
                -91.52827490000001,
                34.4793447
              ],
              [
                -91.52818229999998,
                34.4793016
              ],
              [
                -91.5281408,
                34.4792739
              ],
              [
                -91.528132,
                34.47924020000002
              ],
              [
                -91.5281508,
                34.479217
              ],
              [
                -91.5281884,
                34.479196500000015
              ],
              [
                -91.5282595,
                34.47918710000001
              ],
              [
                -91.528301,
                34.47922359999998
              ],
              [
                -91.5283346,
                34.47924459999998
              ],
              [
                -91.528354,
                34.4792822
              ]
            ]
          ],
          [
            [
              [
                -91.5294611,
                34.47949939999999
              ],
              [
                -91.5295038,
                34.47944159999999
              ],
              [
                -91.529575,
                34.4794341
              ],
              [
                -91.5296298,
                34.4794877
              ],
              [
                -91.52966739999998,
                34.479538
              ],
              [
                -91.5296644,
                34.4795874
              ],
              [
                -91.52960849999998,
                34.47960919999998
              ],
              [
                -91.5295302,
                34.47961760000001
              ],
              [
                -91.52946929999999,
                34.4796176
              ],
              [
                -91.5294449,
                34.479588199999974
              ],
              [
                -91.5294611,
                34.47949939999999
              ]
            ]
          ],
          [
            [
              [
                -91.5314561,
                34.481241
              ],
              [
                -91.5314376,
                34.4812524
              ],
              [
                -91.53141609999999,
                34.481255
              ],
              [
                -91.5313074,
                34.481255
              ],
              [
                -91.5312512,
                34.481255
              ],
              [
                -91.5312212,
                34.4812054
              ],
              [
                -91.5312489,
                34.48116229999999
              ],
              [
                -91.5313082,
                34.48110769999999
              ],
              [
                -91.5313737,
                34.481074
              ],
              [
                -91.53143379999999,
                34.4810791
              ],
              [
                -91.5314615,
                34.4811305
              ],
              [
                -91.5314615,
                34.48120290000002
              ],
              [
                -91.5314561,
                34.481241
              ]
            ]
          ],
          [
            [
              [
                -91.5297811,
                34.4828546
              ],
              [
                -91.5296694,
                34.48286089999998
              ],
              [
                -91.5296209,
                34.48284309999998
              ],
              [
                -91.5295986,
                34.48280949999999
              ],
              [
                -91.529597,
                34.4827885
              ],
              [
                -91.5296486,
                34.482753
              ],
              [
                -91.529758,
                34.48269260000003
              ],
              [
                -91.5298042,
                34.482685
              ],
              [
                -91.52984429999998,
                34.48272249999998
              ],
              [
                -91.5298466,
                34.482802499999984
              ],
              [
                -91.5298273,
                34.482836099999986
              ],
              [
                -91.5297811,
                34.4828546
              ]
            ]
          ],
          [
            [
              [
                -91.529121,
                34.482772
              ],
              [
                -91.5291387,
                34.4828019
              ],
              [
                -91.52912329999998,
                34.4828361
              ],
              [
                -91.5290987,
                34.4828565
              ],
              [
                -91.5290617,
                34.4828673
              ],
              [
                -91.5289747,
                34.4828673
              ],
              [
                -91.5289238,
                34.482859
              ],
              [
                -91.5288992,
                34.48284249999998
              ],
              [
                -91.5289015,
                34.4828146
              ],
              [
                -91.52893,
                34.482780900000016
              ],
              [
                -91.528997,
                34.4827409
              ],
              [
                -91.5290378,
                34.4827276
              ],
              [
                -91.529091,
                34.4827326
              ],
              [
                -91.529121,
                34.482772
              ]
            ]
          ],
          [
            [
              [
                -91.5316713,
                34.48280110000001
              ],
              [
                -91.53166769999999,
                34.48289
              ],
              [
                -91.53164209999998,
                34.482917
              ],
              [
                -91.53159519999998,
                34.4829185
              ],
              [
                -91.531558,
                34.482911199999954
              ],
              [
                -91.531512,
                34.482899499999974
              ],
              [
                -91.5314563,
                34.48286670000001
              ],
              [
                -91.53143769999998,
                34.48281930000001
              ],
              [
                -91.5314961,
                34.4827668
              ],
              [
                -91.531558,
                34.48272810000001
              ],
              [
                -91.5316076,
                34.4827259
              ],
              [
                -91.53166069999999,
                34.48275
              ],
              [
                -91.5316713,
                34.48280110000001
              ]
            ]
          ],
          [
            [
              [
                -91.5280686,
                34.4837833
              ],
              [
                -91.5280122,
                34.483744
              ],
              [
                -91.5280035,
                34.4837114
              ],
              [
                -91.528023,
                34.48367769999999
              ],
              [
                -91.52807259999999,
                34.4836208
              ],
              [
                -91.52814030000002,
                34.4835799
              ],
              [
                -91.5281859,
                34.483592
              ],
              [
                -91.5282147,
                34.4836755
              ],
              [
                -91.5282134,
                34.483745699999986
              ],
              [
                -91.528202,
                34.4837849
              ],
              [
                -91.52815039999999,
                34.4837988
              ],
              [
                -91.5280686,
                34.4837833
              ]
            ]
          ],
          [
            [
              [
                -91.5302853,
                34.48525339999998
              ],
              [
                -91.5302986,
                34.4853204
              ],
              [
                -91.5303118,
                34.48536979999999
              ],
              [
                -91.5302955,
                34.4854016
              ],
              [
                -91.53024569999998,
                34.48541
              ],
              [
                -91.5301685,
                34.4854092
              ],
              [
                -91.53010439999998,
                34.4853958
              ],
              [
                -91.530075,
                34.485353
              ],
              [
                -91.530079,
                34.4853271
              ],
              [
                -91.5301187,
                34.48528179999999
              ],
              [
                -91.53015929999998,
                34.48523069999998
              ],
              [
                -91.53021619999998,
                34.4852207
              ],
              [
                -91.53025489999999,
                34.485222399999984
              ],
              [
                -91.5302853,
                34.48525339999998
              ]
            ]
          ],
          [
            [
              [
                -91.5275449,
                34.4857311
              ],
              [
                -91.5275892,
                34.4858144
              ],
              [
                -91.5275775,
                34.4858819
              ],
              [
                -91.52750179999998,
                34.48592039999995
              ],
              [
                -91.5274575,
                34.485930899999964
              ],
              [
                -91.52741839999999,
                34.48592
              ],
              [
                -91.52734119999998,
                34.485886899999976
              ],
              [
                -91.5273386,
                34.4858396
              ],
              [
                -91.5273584,
                34.485782600000014
              ],
              [
                -91.5274123,
                34.48572649999996
              ],
              [
                -91.52745649999999,
                34.4856921
              ],
              [
                -91.5275078,
                34.4856963
              ],
              [
                -91.5275449,
                34.4857311
              ]
            ]
          ],
          [
            [
              [
                -91.52431569999999,
                34.48251219999999
              ],
              [
                -91.5242136,
                34.482503399999985
              ],
              [
                -91.52416019999998,
                34.4824866
              ],
              [
                -91.52414289999999,
                34.4824603
              ],
              [
                -91.52413789999999,
                34.482433
              ],
              [
                -91.52415510000002,
                34.4823907
              ],
              [
                -91.524177,
                34.48237270000003
              ],
              [
                -91.5242105,
                34.4823706
              ],
              [
                -91.52428679999998,
                34.482399899999976
              ],
              [
                -91.5243178,
                34.482397
              ],
              [
                -91.52434979999998,
                34.4823878
              ],
              [
                -91.5243915,
                34.482379
              ],
              [
                -91.5244164,
                34.482389
              ],
              [
                -91.52443059999999,
                34.48241209999998
              ],
              [
                -91.5244291,
                34.482438899999984
              ],
              [
                -91.52441839999999,
                34.4824657
              ],
              [
                -91.5244103,
                34.48247580000002
              ],
              [
                -91.5243909,
                34.482492499999985
              ],
              [
                -91.52431569999999,
                34.48251219999999
              ]
            ]
          ],
          [
            [
              [
                -91.5233265,
                34.4835012
              ],
              [
                -91.5233041,
                34.483489
              ],
              [
                -91.5232924,
                34.48347020000001
              ],
              [
                -91.52327719999998,
                34.48342539999999
              ],
              [
                -91.52325229999998,
                34.4833893
              ],
              [
                -91.5232629,
                34.483350799999975
              ],
              [
                -91.5233158,
                34.4833374
              ],
              [
                -91.52340779999999,
                34.48331059999998
              ],
              [
                -91.52347989999998,
                34.4832951
              ],
              [
                -91.523515,
                34.483303
              ],
              [
                -91.52352969999998,
                34.48332609999998
              ],
              [
                -91.5235211,
                34.4833571
              ],
              [
                -91.5234774,
                34.48338009999998
              ],
              [
                -91.5234266,
                34.48342659999998
              ],
              [
                -91.5233783,
                34.483493199999984
              ],
              [
                -91.5233661,
                34.4835041
              ],
              [
                -91.52334579999999,
                34.48350410000002
              ],
              [
                -91.5233265,
                34.4835012
              ]
            ]
          ],
          [
            [
              [
                -91.5265061,
                34.485496
              ],
              [
                -91.5265119,
                34.4854498
              ],
              [
                -91.5265119,
                34.4854108
              ],
              [
                -91.5265388,
                34.48538339999999
              ],
              [
                -91.5265726,
                34.48535159999997
              ],
              [
                -91.5266181,
                34.4853473
              ],
              [
                -91.5266444,
                34.485356
              ],
              [
                -91.52666539999998,
                34.485382
              ],
              [
                -91.52666429999998,
                34.4854204
              ],
              [
                -91.52664849999998,
                34.4854902
              ],
              [
                -91.5265965,
                34.48555519999997
              ],
              [
                -91.5265726,
                34.48556
              ],
              [
                -91.5265411,
                34.48555130000002
              ],
              [
                -91.5265236,
                34.4855345
              ],
              [
                -91.5265061,
                34.485496
              ]
            ]
          ],
          [
            [
              [
                -91.5280284,
                34.48596969999998
              ],
              [
                -91.52799349999998,
                34.48595429999999
              ],
              [
                -91.52798009999998,
                34.48592989999998
              ],
              [
                -91.5280096,
                34.48587469999998
              ],
              [
                -91.5280646,
                34.4858233
              ],
              [
                -91.52810210000001,
                34.485808899999974
              ],
              [
                -91.5281571,
                34.4858205
              ],
              [
                -91.5281933,
                34.48589789999996
              ],
              [
                -91.5281913,
                34.485955899999986
              ],
              [
                -91.5281645,
                34.485993
              ],
              [
                -91.5281209,
                34.4859957
              ],
              [
                -91.5280747,
                34.485983
              ],
              [
                -91.5280284,
                34.48596969999998
              ]
            ]
          ],
          [
            [
              [
                -91.5301776,
                34.4858482
              ],
              [
                -91.5302416,
                34.4858649
              ],
              [
                -91.53030159999999,
                34.485912699999986
              ],
              [
                -91.53033109999998,
                34.48596209999998
              ],
              [
                -91.53031689999999,
                34.486009
              ],
              [
                -91.53027010000001,
                34.48602410000002
              ],
              [
                -91.5301146,
                34.486040799999984
              ],
              [
                -91.5300892,
                34.48598219999998
              ],
              [
                -91.530137,
                34.48588919999999
              ],
              [
                -91.5301776,
                34.4858482
              ]
            ]
          ],
          [
            [
              [
                -91.5386434,
                34.4908003
              ],
              [
                -91.5386353,
                34.4905658
              ],
              [
                -91.5386435,
                34.490224
              ],
              [
                -91.5386353,
                34.49009669999998
              ],
              [
                -91.54052529999998,
                34.49012410000001
              ],
              [
                -91.5405007,
                34.4911432
              ],
              [
                -91.5397477,
                34.49112309999999
              ],
              [
                -91.5392045,
                34.49110859999998
              ],
              [
                -91.53863529999998,
                34.49110190000001
              ],
              [
                -91.5386434,
                34.4908003
              ]
            ]
          ],
          [
            [
              [
                -91.5613518,
                34.4949946
              ],
              [
                -91.5618559,
                34.494595899999986
              ],
              [
                -91.56218109999999,
                34.494884
              ],
              [
                -91.5616811,
                34.49526939999998
              ],
              [
                -91.5613518,
                34.4949946
              ]
            ]
          ],
          [
            [
              [
                -91.55927029999998,
                34.4963751
              ],
              [
                -91.55928649999998,
                34.4952459
              ],
              [
                -91.56006589999998,
                34.4952459
              ],
              [
                -91.5600712,
                34.4963684
              ],
              [
                -91.55927029999998,
                34.4963751
              ]
            ]
          ],
          [
            [
              [
                -91.5561514571341,
                34.50326655671158
              ],
              [
                -91.55615171175548,
                34.503251448997865
              ],
              [
                -91.5561349,
                34.5032511
              ],
              [
                -91.55617429999998,
                34.501864099999985
              ],
              [
                -91.55620433896513,
                34.50186540324379
              ],
              [
                -91.55649997675799,
                34.50187470881638
              ],
              [
                -91.55731379999999,
                34.50188940000001
              ],
              [
                -91.55781919999998,
                34.501906
              ],
              [
                -91.557792,
                34.5032855
              ],
              [
                -91.55697563935145,
                34.503268553040655
              ],
              [
                -91.5561514571341,
                34.50326655671158
              ]
            ]
          ],
          [
            [
              [
                -91.7755852,
                36.1687915
              ],
              [
                -91.77584749999998,
                36.1687887
              ],
              [
                -91.77584909999999,
                36.16889089999998
              ],
              [
                -91.77558679999999,
                36.168893599999976
              ],
              [
                -91.7755852,
                36.1687915
              ]
            ]
          ]
        ]
      }
    }
  ]
}