{
  "type": "FeatureCollection",
  "name": "Texarkana",
  "crs": {
    "type": "name",
    "properties": {
      "name": "urn:ogc:def:crs:OGC:1.3:CRS84"
    }
  },
  "features": [
    {
      "type": "Feature",
      "properties": {
        "largest_city": "Texarkana",
        "all_cities": "Acorn, Antoine, Ashdown, Barling, Belleville, Blue Mountain, Bonanza, Booneville, Branch, Cave Springs, Central City, Charleston, Concord, Danville, De Queen, Delight, Emerson, Emmet, Fouke, Fulton, Grannis, Gurdon, Hackett, Hatfield, Havana, Hope, Horatio, Horseshoe Bend, Lavaca, Lewisville, Lockesburg, Lost Bridge Village, Magazine, Magnolia, Mansfield, McCaskill, Mena, Midland, Mineral Springs, Murfreesboro, Nashville, Okolona, Ola, Paris, Prescott, Rover, Saratoga, Taylor, Texarkana, Vandervoort, Waldron, Wilton, Yarborough Landing",
        "total_area_ft2": 19968334.977104604
      },
      "geometry": {
        "type": "MultiPolygon",
        "coordinates": [
          [
            [
              [
                -94.01347355725036,
                33.42547438822994
              ],
              [
                -94.0135761565339,
                33.42556672649743
              ],
              [
                -94.0136069364088,
                33.42573088100894
              ],
              [
                -94.01378135060942,
                33.42588477736221
              ],
              [
                -94.01395576660667,
                33.425987374529576
              ],
              [
                -94.014366155656,
                33.42603867419237
              ],
              [
                -94.01524849260618,
                33.42622334867895
              ],
              [
                -94.01518693465303,
                33.42705438837808
              ],
              [
                -94.014848364114,
                33.427126206564886
              ],
              [
                -94.0149304422832,
                33.42634646703423
              ],
              [
                -94.01430459770286,
                33.426336206240805
              ],
              [
                -94.01430459770286,
                33.42704412841803
              ],
              [
                -94.01375057073453,
                33.42705438762834
              ],
              [
                -94.0137608312917,
                33.42651062232046
              ],
              [
                -94.01271433800315,
                33.42645932293658
              ],
              [
                -94.0127553775369,
                33.425423088983436
              ],
              [
                -94.01328888159425,
                33.42547438822995
              ],
              [
                -94.01347355725036,
                33.42547438822994
              ]
            ]
          ],
          [
            [
              [
                -94.00538119999999,
                33.46985629999998
              ],
              [
                -94.00494229999998,
                33.47006659999997
              ],
              [
                -94.0047555,
                33.4700355
              ],
              [
                -94.004508,
                33.4701056
              ],
              [
                -94.00449389999999,
                33.470316
              ],
              [
                -94.0041717,
                33.470522399999965
              ],
              [
                -94.00399429999999,
                33.4705731
              ],
              [
                -94.0039055,
                33.4704484
              ],
              [
                -94.00391949999998,
                33.4696693
              ],
              [
                -94.00401759999998,
                33.4694083
              ],
              [
                -94.00430729999998,
                33.46928589999999
              ],
              [
                -94.00450329999998,
                33.46931869999998
              ],
              [
                -94.0050917,
                33.4694823
              ],
              [
                -94.00541859999998,
                33.46963419999999
              ],
              [
                -94.00538119999999,
                33.46985629999998
              ]
            ]
          ],
          [
            [
              [
                -94.00741150000002,
                33.481248399999984
              ],
              [
                -94.007272,
                33.4811231
              ],
              [
                -94.0072371,
                33.480814400000014
              ],
              [
                -94.0072532,
                33.4804072
              ],
              [
                -94.00831809999998,
                33.480367
              ],
              [
                -94.0084173,
                33.48046759999998
              ],
              [
                -94.00832339999998,
                33.48106940000001
              ],
              [
                -94.00823219999998,
                33.481414
              ],
              [
                -94.00770649999998,
                33.4813849
              ],
              [
                -94.00741150000002,
                33.481248399999984
              ]
            ]
          ],
          [
            [
              [
                -94.00876059999999,
                33.4806712
              ],
              [
                -94.0095492,
                33.4807025
              ],
              [
                -94.0095385,
                33.480794300000014
              ],
              [
                -94.0092059,
                33.48129989999998
              ],
              [
                -94.0090852,
                33.481414
              ],
              [
                -94.0089699,
                33.48146759999999
              ],
              [
                -94.0086668,
                33.4815213
              ],
              [
                -94.0084897,
                33.4814967
              ],
              [
                -94.0084871,
                33.48072269999999
              ],
              [
                -94.0085836,
                33.480669
              ],
              [
                -94.00876059999999,
                33.4806712
              ]
            ]
          ],
          [
            [
              [
                -94.11443409999998,
                33.6579325
              ],
              [
                -94.1142946,
                33.6577991
              ],
              [
                -94.1145115,
                33.6576453
              ],
              [
                -94.1146632,
                33.6577936
              ],
              [
                -94.11443409999998,
                33.6579325
              ]
            ]
          ],
          [
            [
              [
                -94.1109241,
                33.6665939
              ],
              [
                -94.11218489999999,
                33.6666396
              ],
              [
                -94.11215669999999,
                33.6671796
              ],
              [
                -94.11089589999999,
                33.667134
              ],
              [
                -94.1109241,
                33.6665939
              ]
            ]
          ],
          [
            [
              [
                -94.11290519999999,
                33.666775
              ],
              [
                -94.11363839999999,
                33.66681579999997
              ],
              [
                -94.1136177,
                33.66707390000001
              ],
              [
                -94.1128845,
                33.6670331
              ],
              [
                -94.11290519999999,
                33.666775
              ]
            ]
          ],
          [
            [
              [
                -94.12062819999998,
                33.6690945
              ],
              [
                -94.1206525,
                33.66810730000002
              ],
              [
                -94.12118009999999,
                33.6681163
              ],
              [
                -94.12115579999998,
                33.6691035
              ],
              [
                -94.12062819999998,
                33.6690945
              ]
            ]
          ],
          [
            [
              [
                -94.3604133,
                33.9392978
              ],
              [
                -94.3604562,
                33.938672500000024
              ],
              [
                -94.361851,
                33.938454399999976
              ],
              [
                -94.3625645,
                33.9381206
              ],
              [
                -94.36288629999999,
                33.938823800000016
              ],
              [
                -94.3621675,
                33.9392243
              ],
              [
                -94.36284879999998,
                33.939531399999986
              ],
              [
                -94.362779,
                33.94011
              ],
              [
                -94.3623713,
                33.9405016
              ],
              [
                -94.3618724,
                33.94070629999998
              ],
              [
                -94.3602792,
                33.93955479999999
              ],
              [
                -94.3604133,
                33.9392978
              ]
            ]
          ],
          [
            [
              [
                -94.3579298,
                34.0266042
              ],
              [
                -94.35813559999998,
                34.0267288
              ],
              [
                -94.35824639999998,
                34.02684689999999
              ],
              [
                -94.3583097,
                34.02699109999999
              ],
              [
                -94.3583334,
                34.0271814
              ],
              [
                -94.3577161,
                34.0271879
              ],
              [
                -94.3576528,
                34.02713539999998
              ],
              [
                -94.3576607,
                34.026571399999966
              ],
              [
                -94.3579298,
                34.0266042
              ]
            ]
          ],
          [
            [
              [
                -94.35756579999999,
                34.027647
              ],
              [
                -94.35768450000002,
                34.0277979
              ],
              [
                -94.3578269,
                34.0286309
              ],
              [
                -94.3574708,
                34.0286505
              ],
              [
                -94.3571938,
                34.0286571
              ],
              [
                -94.35694849999999,
                34.0286374
              ],
              [
                -94.3568298,
                34.0285653
              ],
              [
                -94.356719,
                34.02848
              ],
              [
                -94.3566477,
                34.028361899999986
              ],
              [
                -94.35648149999999,
                34.02776509999999
              ],
              [
                -94.35756579999999,
                34.027647
              ]
            ]
          ],
          [
            [
              [
                -94.3491618,
                34.0359139
              ],
              [
                -94.3491679,
                34.036933
              ],
              [
                -94.3486048,
                34.0369381
              ],
              [
                -94.3485987,
                34.0359172
              ],
              [
                -94.3491618,
                34.0359139
              ]
            ]
          ],
          [
            [
              [
                -94.1215842,
                33.6698698
              ],
              [
                -94.12155739999999,
                33.6709234
              ],
              [
                -94.12092310000001,
                33.6709122
              ],
              [
                -94.12095,
                33.6698586
              ],
              [
                -94.1215842,
                33.6698698
              ]
            ]
          ],
          [
            [
              [
                -94.1468754861864,
                33.73943558472702
              ],
              [
                -94.14690166039883,
                33.738783613195096
              ],
              [
                -94.14775826420936,
                33.73880264874511
              ],
              [
                -94.14773685106795,
                33.740004275537075
              ],
              [
                -94.14711105319998,
                33.739982861029745
              ],
              [
                -94.14711105230165,
                33.739447483163104
              ],
              [
                -94.1468754861864,
                33.73943558472702
              ]
            ]
          ],
          [
            [
              [
                -94.1706278,
                33.971465299999984
              ],
              [
                -94.1706171,
                33.97203029999998
              ],
              [
                -94.17210839999998,
                33.9720436
              ],
              [
                -94.1720923,
                33.97333819999998
              ],
              [
                -94.1698941,
                33.973304699999986
              ],
              [
                -94.169174,
                33.9732937
              ],
              [
                -94.1691955,
                33.9721459
              ],
              [
                -94.1684552,
                33.9721415
              ],
              [
                -94.1684659,
                33.971456399999965
              ],
              [
                -94.1701021,
                33.97146530000001
              ],
              [
                -94.1706278,
                33.971465299999984
              ]
            ]
          ],
          [
            [
              [
                -94.2071737,
                34.63388329999998
              ],
              [
                -94.207281,
                34.63402009999998
              ],
              [
                -94.20732929999998,
                34.63425849999998
              ],
              [
                -94.20734,
                34.63441739999997
              ],
              [
                -94.20653,
                34.63449239999996
              ],
              [
                -94.20644409999998,
                34.6344438
              ],
              [
                -94.20648169999998,
                34.6336449
              ],
              [
                -94.20680889999998,
                34.6336758
              ],
              [
                -94.20702889999998,
                34.6337641
              ],
              [
                -94.2071737,
                34.63388329999998
              ]
            ]
          ],
          [
            [
              [
                -94.3312267,
                34.2380231
              ],
              [
                -94.33013739999998,
                34.2380439
              ],
              [
                -94.33003569999998,
                34.2380459
              ],
              [
                -94.329864,
                34.238049099999984
              ],
              [
                -94.3293706,
                34.238058600000016
              ],
              [
                -94.32933840000001,
                34.2371439
              ],
              [
                -94.32923649999998,
                34.2371367
              ],
              [
                -94.32922849999999,
                34.236598700000016
              ],
              [
                -94.32932369999999,
                34.236445
              ],
              [
                -94.3293223,
                34.2362248
              ],
              [
                -94.330583,
                34.236227
              ],
              [
                -94.3306527,
                34.237043
              ],
              [
                -94.33123209999998,
                34.2370075
              ],
              [
                -94.3312267,
                34.2380231
              ]
            ]
          ],
          [
            [
              [
                -94.36516279999998,
                34.38068089999999
              ],
              [
                -94.36474149999998,
                34.38042389999998
              ],
              [
                -94.36505610000002,
                34.38007259999998
              ],
              [
                -94.3654774,
                34.3803296
              ],
              [
                -94.36516279999998,
                34.38068089999999
              ]
            ]
          ],
          [
            [
              [
                -94.37395379999998,
                34.48399379999997
              ],
              [
                -94.37401829999999,
                34.48394720000001
              ],
              [
                -94.37453509999999,
                34.4839503
              ],
              [
                -94.3749341,
                34.4839571
              ],
              [
                -94.3754423,
                34.48398109999997
              ],
              [
                -94.37578829999998,
                34.48400379999997
              ],
              [
                -94.3760452,
                34.48402829999998
              ],
              [
                -94.3761581,
                34.48405949999999
              ],
              [
                -94.37615119999998,
                34.4845441
              ],
              [
                -94.3756746,
                34.4845252
              ],
              [
                -94.37565039999998,
                34.48495319999998
              ],
              [
                -94.37506459999999,
                34.4849411
              ],
              [
                -94.3750488,
                34.485226
              ],
              [
                -94.373823,
                34.485198
              ],
              [
                -94.37386720000002,
                34.484709
              ],
              [
                -94.3739129,
                34.4845479
              ],
              [
                -94.37392689999997,
                34.48446360000001
              ],
              [
                -94.3739316,
                34.484077499999984
              ],
              [
                -94.37395379999998,
                34.48399379999997
              ]
            ]
          ],
          [
            [
              [
                -94.23160428284892,
                34.576584122696694
              ],
              [
                -94.22938653195698,
                34.57655948217978
              ],
              [
                -94.22944197507802,
                34.574427975864936
              ],
              [
                -94.2298608837495,
                34.57440949462873
              ],
              [
                -94.22992864906125,
                34.57436637074236
              ],
              [
                -94.23007649828229,
                34.57426780526199
              ],
              [
                -94.2302428303403,
                34.574230842714385
              ],
              [
                -94.23081574887908,
                34.57426780452231
              ],
              [
                -94.23153035958588,
                34.5742678045223
              ],
              [
                -94.23159812220271,
                34.57428628505022
              ],
              [
                -94.23160428284892,
                34.576584122696694
              ]
            ]
          ],
          [
            [
              [
                -94.2214918,
                34.5813252
              ],
              [
                -94.221472,
                34.582346599999966
              ],
              [
                -94.220899,
                34.5823391
              ],
              [
                -94.22090635049143,
                34.58195991858843
              ],
              [
                -94.22090635055514,
                34.58195991858843
              ],
              [
                -94.2209188,
                34.581317699999985
              ],
              [
                -94.2214918,
                34.5813252
              ]
            ]
          ],
          [
            [
              [
                -94.23570306103008,
                34.58340475021733
              ],
              [
                -94.23547772942085,
                34.58309748072746
              ],
              [
                -94.23736231314022,
                34.58205276617064
              ],
              [
                -94.23758764295283,
                34.58232930868889
              ],
              [
                -94.23695262028527,
                34.58267754692838
              ],
              [
                -94.23689116743496,
                34.58254439618495
              ],
              [
                -94.23605129833986,
                34.583025785187864
              ],
              [
                -94.23617420673534,
                34.58315893516008
              ],
              [
                -94.23570306103008,
                34.58340475021733
              ]
            ]
          ],
          [
            [
              [
                -94.23839778230362,
                34.58314465893254
              ],
              [
                -94.23963135538658,
                34.58246007532926
              ],
              [
                -94.24025760000002,
                34.5820942
              ],
              [
                -94.24026797432201,
                34.582106777344144
              ],
              [
                -94.24031045813858,
                34.58208320052925
              ],
              [
                -94.24157190300326,
                34.58364718465991
              ],
              [
                -94.23965922537167,
                34.58469838814902
              ],
              [
                -94.23965086499807,
                34.58468809061198
              ],
              [
                -94.2396396,
                34.584694599999985
              ],
              [
                -94.238395,
                34.58318239999996
              ],
              [
                -94.23841767043575,
                34.58316915529923
              ],
              [
                -94.23839778230362,
                34.58314465893254
              ]
            ]
          ],
          [
            [
              [
                -94.22365509999999,
                34.58909170000001
              ],
              [
                -94.2229379,
                34.58925270000001
              ],
              [
                -94.2228453,
                34.5892132
              ],
              [
                -94.22269429999999,
                34.588580399999984
              ],
              [
                -94.22283839999999,
                34.5885691
              ],
              [
                -94.22305119999999,
                34.5885578
              ],
              [
                -94.22325710000001,
                34.5885917
              ],
              [
                -94.2233977,
                34.5886566
              ],
              [
                -94.22354529999998,
                34.58879219999997
              ],
              [
                -94.22362769999998,
                34.5889307
              ],
              [
                -94.22365509999999,
                34.58909170000001
              ]
            ]
          ],
          [
            [
              [
                -94.2055032725103,
                34.63403330331622
              ],
              [
                -94.2056609,
                34.6338833
              ],
              [
                -94.20585409999998,
                34.6337729
              ],
              [
                -94.2060794,
                34.6337156
              ],
              [
                -94.2062939,
                34.6336891
              ],
              [
                -94.20636369999998,
                34.6336891
              ],
              [
                -94.2063074,
                34.63452129999999
              ],
              [
                -94.2062188,
                34.634563
              ],
              [
                -94.20533369999998,
                34.6344218
              ],
              [
                -94.2053713,
                34.63421430000001
              ],
              [
                -94.2054893,
                34.63404659999998
              ],
              [
                -94.2055032725103,
                34.63403330335254
              ],
              [
                -94.2055032725103,
                34.63403330331622
              ]
            ]
          ],
          [
            [
              [
                -94.09648470000002,
                34.8974456
              ],
              [
                -94.0965368,
                34.89654219999998
              ],
              [
                -94.098721,
                34.896603
              ],
              [
                -94.098707,
                34.89751
              ],
              [
                -94.09648470000002,
                34.8974456
              ]
            ]
          ],
          [
            [
              [
                -94.0975707,
                34.901588799999985
              ],
              [
                -94.09728259999999,
                34.901518
              ],
              [
                -94.09731234373335,
                34.90141405098445
              ],
              [
                -94.09731234387125,
                34.90141405098446
              ],
              [
                -94.0974081,
                34.9010794
              ],
              [
                -94.0974564,
                34.90108869999999
              ],
              [
                -94.09743889999999,
                34.9011499
              ],
              [
                -94.097651,
                34.901190700000036
              ],
              [
                -94.0976659,
                34.901138599999975
              ],
              [
                -94.0976978,
                34.90114469999998
              ],
              [
                -94.0975707,
                34.901588799999985
              ]
            ]
          ],
          [
            [
              [
                -94.10639269999997,
                34.9023777
              ],
              [
                -94.10611879999998,
                34.90238579999998
              ],
              [
                -94.10612815709992,
                34.902150789960416
              ],
              [
                -94.10612815709598,
                34.90215078996042
              ],
              [
                -94.10613089999997,
                34.90208189999998
              ],
              [
                -94.10640410000002,
                34.90209080000001
              ],
              [
                -94.10639269999997,
                34.9023777
              ]
            ]
          ],
          [
            [
              [
                -94.2512442,
                35.06135489999998
              ],
              [
                -94.25124529999998,
                35.061507699999986
              ],
              [
                -94.25113389999999,
                35.0615083
              ],
              [
                -94.2511328,
                35.061355399999975
              ],
              [
                -94.2512442,
                35.06135489999998
              ]
            ]
          ],
          [
            [
              [
                -94.3525255,
                35.09099029999997
              ],
              [
                -94.35236070000002,
                35.09122319999998
              ],
              [
                -94.3522118,
                35.0911527
              ],
              [
                -94.3521746,
                35.09114970000001
              ],
              [
                -94.3515888,
                35.090872299999965
              ],
              [
                -94.3517613,
                35.0906284
              ],
              [
                -94.3525255,
                35.09099029999997
              ]
            ]
          ],
          [
            [
              [
                -94.40725130000001,
                35.18721820000002
              ],
              [
                -94.4071958,
                35.18598019999999
              ],
              [
                -94.407317,
                35.1854982
              ],
              [
                -94.4083439,
                35.185526300000014
              ],
              [
                -94.40822359999999,
                35.1861922
              ],
              [
                -94.4085444,
                35.18672379999999
              ],
              [
                -94.40855179999998,
                35.1872592
              ],
              [
                -94.40725130000001,
                35.18721820000002
              ]
            ]
          ],
          [
            [
              [
                -94.4087068,
                35.1866812
              ],
              [
                -94.4085349,
                35.1866901
              ],
              [
                -94.4085198,
                35.1864948
              ],
              [
                -94.4086917,
                35.1864859
              ],
              [
                -94.4087068,
                35.1866812
              ]
            ]
          ],
          [
            [
              [
                -94.40602229999999,
                35.1877959
              ],
              [
                -94.40546469999998,
                35.18778120000001
              ],
              [
                -94.40550419999998,
                35.186771499999985
              ],
              [
                -94.40606209999999,
                35.18678609999998
              ],
              [
                -94.40602229999999,
                35.1877959
              ]
            ]
          ],
          [
            [
              [
                -94.41824149999998,
                35.1876199
              ],
              [
                -94.41769150000002,
                35.18761319999999
              ],
              [
                -94.417657,
                35.18760920000001
              ],
              [
                -94.41763229999998,
                35.187597
              ],
              [
                -94.41761419999999,
                35.1875769
              ],
              [
                -94.41761419999999,
                35.1871234
              ],
              [
                -94.41768329999998,
                35.18700759999999
              ],
              [
                -94.417764,
                35.1870103
              ],
              [
                -94.4178381,
                35.18702110000001
              ],
              [
                -94.4179303,
                35.18704529999999
              ],
              [
                -94.4180258,
                35.1870803
              ],
              [
                -94.4181114,
                35.187130099999976
              ],
              [
                -94.41818389999999,
                35.1871893
              ],
              [
                -94.418253,
                35.18726739999999
              ],
              [
                -94.4182925,
                35.1873225
              ],
              [
                -94.4183024,
                35.187371
              ],
              [
                -94.41824149999998,
                35.1876199
              ]
            ]
          ],
          [
            [
              [
                -94.4160322,
                35.1891922
              ],
              [
                -94.4160244,
                35.1892918
              ],
              [
                -94.4157229,
                35.18928049999999
              ],
              [
                -94.41541369999999,
                35.1892688
              ],
              [
                -94.4153971,
                35.18884889999999
              ],
              [
                -94.41545219999998,
                35.18865959999998
              ],
              [
                -94.41558459999999,
                35.1884478
              ],
              [
                -94.41566179999998,
                35.18825389999997
              ],
              [
                -94.4157114,
                35.1880331
              ],
              [
                -94.4157169,
                35.1878303
              ],
              [
                -94.41576109999998,
                35.1873705
              ],
              [
                -94.415932,
                35.1871181
              ],
              [
                -94.41606439999998,
                35.186870199999966
              ],
              [
                -94.4160918,
                35.1867112
              ],
              [
                -94.4170772,
                35.186708
              ],
              [
                -94.4170809,
                35.18754419999997
              ],
              [
                -94.41707009999999,
                35.1876906
              ],
              [
                -94.4161527,
                35.1876545
              ],
              [
                -94.4160322,
                35.1891922
              ]
            ]
          ],
          [
            [
              [
                -94.4230197,
                35.2369593
              ],
              [
                -94.4228262,
                35.2370008
              ],
              [
                -94.42259359999998,
                35.2370497
              ],
              [
                -94.421779,
                35.237192
              ],
              [
                -94.4216576,
                35.23721869999998
              ],
              [
                -94.4215549,
                35.237207199999986
              ],
              [
                -94.4214334,
                35.23718049999999
              ],
              [
                -94.4212887,
                35.23712709999999
              ],
              [
                -94.42160619999999,
                35.2368258
              ],
              [
                -94.4211065,
                35.2363643
              ],
              [
                -94.4214661,
                35.236246
              ],
              [
                -94.42181419999999,
                35.23617589999998
              ],
              [
                -94.4221526,
                35.23621169999998
              ],
              [
                -94.4223647,
                35.23646329999998
              ],
              [
                -94.42252629999999,
                35.23666990000001
              ],
              [
                -94.42288249999999,
                35.2367121
              ],
              [
                -94.4230197,
                35.2369593
              ]
            ]
          ],
          [
            [
              [
                -94.01714549999998,
                33.4621422
              ],
              [
                -94.01691589999999,
                33.46209479999996
              ],
              [
                -94.01701329999999,
                33.4617666
              ],
              [
                -94.01724289999999,
                33.461814
              ],
              [
                -94.01714549999998,
                33.4621422
              ]
            ]
          ],
          [
            [
              [
                -94.0399563,
                33.4769344
              ],
              [
                -94.039955,
                33.47655289999999
              ],
              [
                -94.0408441,
                33.4765708
              ],
              [
                -94.0408307,
                33.4769545
              ],
              [
                -94.0399563,
                33.4769344
              ]
            ]
          ],
          [
            [
              [
                -94.02786059999998,
                35.2993302
              ],
              [
                -94.028437,
                35.2993437
              ],
              [
                -94.02846589999999,
                35.2985192
              ],
              [
                -94.0278837,
                35.2985055
              ],
              [
                -94.0279334,
                35.29708969999999
              ],
              [
                -94.0302851,
                35.2971463
              ],
              [
                -94.0301811,
                35.29977739999999
              ],
              [
                -94.0278468,
                35.299722799999984
              ],
              [
                -94.02786059999998,
                35.2993302
              ]
            ]
          ],
          [
            [
              [
                -94.11509609999999,
                34.9033413
              ],
              [
                -94.11513,
                34.90334219999998
              ],
              [
                -94.1151646,
                34.903368
              ],
              [
                -94.115165,
                34.90339109999998
              ],
              [
                -94.11519889999998,
                34.9033911
              ],
              [
                -94.1152012,
                34.9034504
              ],
              [
                -94.1152222,
                34.90345330000002
              ],
              [
                -94.11521869999999,
                34.9036812
              ],
              [
                -94.115193,
                34.90368019999997
              ],
              [
                -94.1151936,
                34.90371709999998
              ],
              [
                -94.1151218,
                34.90371469999999
              ],
              [
                -94.11512059999998,
                34.90374439999999
              ],
              [
                -94.1150868,
                34.903744899999985
              ],
              [
                -94.11508439999999,
                34.90379890000001
              ],
              [
                -94.1147097,
                34.903789400000015
              ],
              [
                -94.1147097,
                34.9037358
              ],
              [
                -94.1146805,
                34.9037338
              ],
              [
                -94.1146793,
                34.903705099999975
              ],
              [
                -94.11463259999998,
                34.90370509999999
              ],
              [
                -94.11463379999998,
                34.9036525
              ],
              [
                -94.11457889999998,
                34.90365049999998
              ],
              [
                -94.11458009999998,
                34.9034562
              ],
              [
                -94.1146396,
                34.903458100000016
              ],
              [
                -94.114642,
                34.9033796
              ],
              [
                -94.1146875,
                34.9033805
              ],
              [
                -94.11468630000002,
                34.9033327
              ],
              [
                -94.11472129999999,
                34.90333550000001
              ],
              [
                -94.11472129999999,
                34.90328
              ],
              [
                -94.11509959999998,
                34.9032877
              ],
              [
                -94.11509609999999,
                34.9033413
              ]
            ]
          ],
          [
            [
              [
                -94.04486520000002,
                35.2902039
              ],
              [
                -94.04489513237858,
                35.290201323313035
              ],
              [
                -94.04489513237858,
                35.29020132329685
              ],
              [
                -94.04501969999998,
                35.29019060000002
              ],
              [
                -94.04517220000001,
                35.2902056
              ],
              [
                -94.0453145,
                35.290247
              ],
              [
                -94.0454141,
                35.290293499999954
              ],
              [
                -94.0454893,
                35.29033829999999
              ],
              [
                -94.0455421,
                35.290384699999976
              ],
              [
                -94.0452332,
                35.2907017
              ],
              [
                -94.04509489999998,
                35.2908128
              ],
              [
                -94.0450624,
                35.290846
              ],
              [
                -94.04502179999999,
                35.290856
              ],
              [
                -94.0449892,
                35.290851
              ],
              [
                -94.0449506,
                35.290827800000024
              ],
              [
                -94.0447514,
                35.2906635
              ],
              [
                -94.04447489999998,
                35.2904013
              ],
              [
                -94.0445095,
                35.2903665
              ],
              [
                -94.04460909999999,
                35.2903018
              ],
              [
                -94.0447067,
                35.29024540000002
              ],
              [
                -94.04486520000002,
                35.2902039
              ]
            ]
          ],
          [
            [
              [
                -94.04527990000001,
                35.2909704
              ],
              [
                -94.0452636,
                35.29095049999997
              ],
              [
                -94.0452616,
                35.290914
              ],
              [
                -94.04527990000001,
                35.2908891
              ],
              [
                -94.04543239999998,
                35.29075469999998
              ],
              [
                -94.04571489999998,
                35.29055560000001
              ],
              [
                -94.04579344766272,
                35.290622733986325
              ],
              [
                -94.04579344766272,
                35.290622733996116
              ],
              [
                -94.0458023,
                35.29063029999998
              ],
              [
                -94.0458653,
                35.2907
              ],
              [
                -94.04591009999999,
                35.2907995
              ],
              [
                -94.0459385,
                35.29091239999998
              ],
              [
                -94.0459345,
                35.2909953
              ],
              [
                -94.045908,
                35.2910882
              ],
              [
                -94.045845,
                35.2911994
              ],
              [
                -94.0457413,
                35.2912873
              ],
              [
                -94.04549330000002,
                35.291133
              ],
              [
                -94.04527990000001,
                35.2909704
              ]
            ]
          ],
          [
            [
              [
                -94.0449619,
                35.29105809999998
              ],
              [
                -94.0450182,
                35.2910427
              ],
              [
                -94.0450665,
                35.29105589999999
              ],
              [
                -94.0451094,
                35.2910909
              ],
              [
                -94.04554129999998,
                35.2914675
              ],
              [
                -94.045442,
                35.2915857
              ],
              [
                -94.04536419999998,
                35.29163380000002
              ],
              [
                -94.0452704,
                35.2916798
              ],
              [
                -94.045147,
                35.291717
              ],
              [
                -94.04502359999998,
                35.2917236
              ],
              [
                -94.0448895,
                35.29171479999996
              ],
              [
                -94.0447768,
                35.29167979999998
              ],
              [
                -94.0446776,
                35.291627300000016
              ],
              [
                -94.0445864,
                35.29156379999996
              ],
              [
                -94.0445301,
                35.2915069
              ],
              [
                -94.0447822,
                35.2912069
              ],
              [
                -94.04489513237858,
                35.29111284373396
              ],
              [
                -94.04489513237858,
                35.29111284369329
              ],
              [
                -94.0449216,
                35.29109079999998
              ],
              [
                -94.0449619,
                35.29105809999998
              ]
            ]
          ],
          [
            [
              [
                -94.0443003,
                35.29200269999996
              ],
              [
                -94.0444113,
                35.2920014
              ],
              [
                -94.04451760000002,
                35.292019
              ],
              [
                -94.04480409999998,
                35.292039099999975
              ],
              [
                -94.04489513237858,
                35.29205752277325
              ],
              [
                -94.04489513237858,
                35.29205752264758
              ],
              [
                -94.0451831,
                35.2921158
              ],
              [
                -94.0453494,
                35.29214849999998
              ],
              [
                -94.0453772,
                35.29220759999997
              ],
              [
                -94.04538640000001,
                35.2924013
              ],
              [
                -94.045351,
                35.2925987
              ],
              [
                -94.0452616,
                35.2927496
              ],
              [
                -94.0451923,
                35.2928175
              ],
              [
                -94.0451261,
                35.29288409999998
              ],
              [
                -94.04502439999999,
                35.2929394
              ],
              [
                -94.0448734,
                35.292970899999986
              ],
              [
                -94.044479,
                35.2930212
              ],
              [
                -94.04436970000002,
                35.2930086
              ],
              [
                -94.04425409999999,
                35.2929759
              ],
              [
                -94.04419559999998,
                35.2929495
              ],
              [
                -94.0441309,
                35.29249430000003
              ],
              [
                -94.044174,
                35.29210069999998
              ],
              [
                -94.0442233,
                35.2920354
              ],
              [
                -94.0443003,
                35.29200269999996
              ]
            ]
          ],
          [
            [
              [
                -94.04958159999998,
                35.29300469999998
              ],
              [
                -94.0495353,
                35.29299219999997
              ],
              [
                -94.049503,
                35.29296319999999
              ],
              [
                -94.04949219999999,
                35.2929192
              ],
              [
                -94.049483,
                35.292757
              ],
              [
                -94.049503,
                35.2923697
              ],
              [
                -94.049637,
                35.29236219999998
              ],
              [
                -94.049751,
                35.2923785
              ],
              [
                -94.04990509999999,
                35.29242509999998
              ],
              [
                -94.05004369999999,
                35.2925055
              ],
              [
                -94.0501362,
                35.292591
              ],
              [
                -94.050207,
                35.2926916
              ],
              [
                -94.0502548,
                35.292817399999976
              ],
              [
                -94.05026559999999,
                35.29293809999998
              ],
              [
                -94.0498049,
                35.29299589999999
              ],
              [
                -94.04958159999998,
                35.29300469999998
              ]
            ]
          ],
          [
            [
              [
                -94.0486218,
                35.2927947
              ],
              [
                -94.04869269999999,
                35.292710499999984
              ],
              [
                -94.0487959,
                35.29262880000003
              ],
              [
                -94.0489099,
                35.29256340000001
              ],
              [
                -94.04908239999999,
                35.29251689999999
              ],
              [
                -94.04922259999998,
                35.2925043
              ],
              [
                -94.0493613,
                35.2925156
              ],
              [
                -94.0493597,
                35.2926401
              ],
              [
                -94.0493228,
                35.2930953
              ],
              [
                -94.049275,
                35.293143
              ],
              [
                -94.0492242,
                35.29315439999998
              ],
              [
                -94.04900849999999,
                35.293134199999976
              ],
              [
                -94.0488797,
                35.29311019999997
              ],
              [
                -94.0485433,
                35.293047500000014
              ],
              [
                -94.0485648,
                35.29292929999998
              ],
              [
                -94.0486218,
                35.2927947
              ]
            ]
          ],
          [
            [
              [
                -94.04598219999998,
                35.293205299999975
              ],
              [
                -94.0459323,
                35.2931052
              ],
              [
                -94.0461188,
                35.2930432
              ],
              [
                -94.04616869999998,
                35.29314329999998
              ],
              [
                -94.04598219999998,
                35.293205299999975
              ]
            ]
          ],
          [
            [
              [
                -93.9544163,
                35.306159
              ],
              [
                -93.95441019999998,
                35.30636189999997
              ],
              [
                -93.9542581,
                35.306358899999985
              ],
              [
                -93.9542641,
                35.306156
              ],
              [
                -93.9544163,
                35.306159
              ]
            ]
          ],
          [
            [
              [
                -93.95312370000002,
                35.307861
              ],
              [
                -93.95197769999999,
                35.307847
              ],
              [
                -93.95200319999998,
                35.3064558
              ],
              [
                -93.9526707,
                35.30646389999998
              ],
              [
                -93.9526645,
                35.30680689999997
              ],
              [
                -93.9531429,
                35.30681279999999
              ],
              [
                -93.95312370000002,
                35.307861
              ]
            ]
          ],
          [
            [
              [
                -93.9180719,
                36.40086809999998
              ],
              [
                -93.91841549999998,
                36.40081129999998
              ],
              [
                -93.918493,
                36.4011154
              ],
              [
                -93.91814949999998,
                36.4011721
              ],
              [
                -93.9180719,
                36.40086809999998
              ]
            ]
          ],
          [
            [
              [
                -94.0462454,
                35.2956108
              ],
              [
                -94.0450227,
                35.29556769999997
              ],
              [
                -94.0450441,
                35.2951172
              ],
              [
                -94.04579344766272,
                35.29514419025632
              ],
              [
                -94.04579344766272,
                35.295144191762674
              ],
              [
                -94.0462657,
                35.2951612
              ],
              [
                -94.0462454,
                35.2956108
              ]
            ]
          ],
          [
            [
              [
                -94.1749102,
                35.329665
              ],
              [
                -94.17477479999998,
                35.3302545
              ],
              [
                -94.1744889,
                35.3302492
              ],
              [
                -94.17413519999998,
                35.33020110000001
              ],
              [
                -94.1739671,
                35.330153
              ],
              [
                -94.17385359999999,
                35.330085299999965
              ],
              [
                -94.17380989999998,
                35.33001769999998
              ],
              [
                -94.17377939999999,
                35.3299215
              ],
              [
                -94.1737379,
                35.329681
              ],
              [
                -94.17373349999998,
                35.32955819999999
              ],
              [
                -94.1737466,
                35.329332
              ],
              [
                -94.174502,
                35.3292803
              ],
              [
                -94.1748927,
                35.3292928
              ],
              [
                -94.17496259999999,
                35.329364
              ],
              [
                -94.1749102,
                35.329665
              ]
            ]
          ],
          [
            [
              [
                -94.1761916,
                35.3307194
              ],
              [
                -94.175619,
                35.330707199999985
              ],
              [
                -94.1756517,
                35.32967779999996
              ],
              [
                -94.17622439999998,
                35.3296899
              ],
              [
                -94.1761916,
                35.3307194
              ]
            ]
          ],
          [
            [
              [
                -94.172014,
                35.3308762
              ],
              [
                -94.17196819999998,
                35.3307461
              ],
              [
                -94.171942,
                35.3306339
              ],
              [
                -94.1719441,
                35.33053240000002
              ],
              [
                -94.1726646,
                35.330544899999985
              ],
              [
                -94.1727104,
                35.3305876
              ],
              [
                -94.1726886,
                35.331154
              ],
              [
                -94.17254229999999,
                35.3311486
              ],
              [
                -94.17224320000001,
                35.331075599999984
              ],
              [
                -94.17211660000001,
                35.3310151
              ],
              [
                -94.172014,
                35.3308762
              ]
            ]
          ],
          [
            [
              [
                -94.3140166,
                35.31527219999999
              ],
              [
                -94.31346439999999,
                35.31515330000003
              ],
              [
                -94.3123013,
                35.31522309999997
              ],
              [
                -94.31243509999999,
                35.31451519999999
              ],
              [
                -94.31270629999999,
                35.31404550000001
              ],
              [
                -94.31306249999999,
                35.31368910000001
              ],
              [
                -94.3138198,
                35.3134813
              ],
              [
                -94.3145694,
                35.3142035
              ],
              [
                -94.3149576,
                35.3146005
              ],
              [
                -94.31506959999999,
                35.315020799999964
              ],
              [
                -94.3150943,
                35.3151134
              ],
              [
                -94.3155257,
                35.315561599999974
              ],
              [
                -94.3151834,
                35.3157441
              ],
              [
                -94.31504069999998,
                35.3158445
              ],
              [
                -94.31402989999998,
                35.31547179999998
              ],
              [
                -94.3140166,
                35.31527219999999
              ]
            ]
          ],
          [
            [
              [
                -94.2992545815193,
                35.325345557217474
              ],
              [
                -94.29956596993614,
                35.32602738757956
              ],
              [
                -94.29957133916659,
                35.32623140171436
              ],
              [
                -94.2983687384446,
                35.326193819488324
              ],
              [
                -94.29842242625756,
                35.32530797604533
              ],
              [
                -94.29849528154213,
                35.32531126628109
              ],
              [
                -94.29892139999998,
                35.3253256
              ],
              [
                -94.29894305252016,
                35.32533148817835
              ],
              [
                -94.2992545815193,
                35.325345557217474
              ]
            ]
          ],
          [
            [
              [
                -94.2399881,
                35.326413
              ],
              [
                -94.2399291,
                35.3259579
              ],
              [
                -94.23987279999999,
                35.32573249999997
              ],
              [
                -94.24033409999998,
                35.325684299999985
              ],
              [
                -94.240318,
                35.32612859999998
              ],
              [
                -94.24030729999998,
                35.32633650000002
              ],
              [
                -94.24031,
                35.32643710000002
              ],
              [
                -94.2400525,
                35.3265225
              ],
              [
                -94.2399881,
                35.326413
              ]
            ]
          ],
          [
            [
              [
                -94.2993898,
                35.3262838
              ],
              [
                -94.2994668,
                35.326288799999986
              ],
              [
                -94.300462,
                35.326314
              ],
              [
                -94.30046639338718,
                35.32626494199499
              ],
              [
                -94.30048402659693,
                35.325753582550185
              ],
              [
                -94.30113901342342,
                35.32578042630775
              ],
              [
                -94.30113828039067,
                35.32579728618235
              ],
              [
                -94.30161120000001,
                35.3261782
              ],
              [
                -94.3016297,
                35.326402
              ],
              [
                -94.30136479999999,
                35.3265201
              ],
              [
                -94.3011768,
                35.3265679
              ],
              [
                -94.30091179999998,
                35.326980099999986
              ],
              [
                -94.2993652,
                35.3269173
              ],
              [
                -94.2993898,
                35.3262838
              ]
            ]
          ],
          [
            [
              [
                -94.31104409999999,
                35.32985350000001
              ],
              [
                -94.3108066,
                35.3300366
              ],
              [
                -94.3105763,
                35.329837699999985
              ],
              [
                -94.3108138,
                35.32965460000001
              ],
              [
                -94.31104409999999,
                35.32985350000001
              ]
            ]
          ],
          [
            [
              [
                -94.23215679999998,
                36.2642461
              ],
              [
                -94.23217449999999,
                36.2642276
              ],
              [
                -94.2323426,
                36.2642347
              ],
              [
                -94.2324134,
                36.26426890000001
              ],
              [
                -94.23248419999999,
                36.26433739999998
              ],
              [
                -94.23250889999998,
                36.2643802
              ],
              [
                -94.2325134,
                36.2644354
              ],
              [
                -94.2324719,
                36.2644768
              ],
              [
                -94.2324137,
                36.26450179999997
              ],
              [
                -94.2323506,
                36.26451469999997
              ],
              [
                -94.23220659999998,
                36.26453139999999
              ],
              [
                -94.2321463,
                36.2645367
              ],
              [
                -94.23215679999998,
                36.2642461
              ]
            ]
          ],
          [
            [
              [
                -94.21970150000001,
                36.26480329999998
              ],
              [
                -94.2199141,
                36.26485629999998
              ],
              [
                -94.2197949,
                36.2651674
              ],
              [
                -94.2195822,
                36.26511439999998
              ],
              [
                -94.21970150000001,
                36.26480329999998
              ]
            ]
          ],
          [
            [
              [
                -94.1776703,
                35.33652929999999
              ],
              [
                -94.1777009,
                35.33636759999998
              ],
              [
                -94.1777039,
                35.33635169999998
              ],
              [
                -94.17819409999998,
                35.33635459999998
              ],
              [
                -94.17820289999999,
                35.3365394
              ],
              [
                -94.17821480000002,
                35.33656179999998
              ],
              [
                -94.1782145,
                35.3366938
              ],
              [
                -94.1782454,
                35.3366996
              ],
              [
                -94.1782401,
                35.3367415
              ],
              [
                -94.1783501,
                35.3367405
              ],
              [
                -94.1787019,
                35.3367372
              ],
              [
                -94.1786825,
                35.337151499999976
              ],
              [
                -94.1776738,
                35.33714139999998
              ],
              [
                -94.1776703,
                35.33652929999999
              ]
            ]
          ],
          [
            [
              [
                -94.17310209999998,
                35.34045769999998
              ],
              [
                -94.1731033,
                35.340292199999986
              ],
              [
                -94.17310680000001,
                35.34021959999997
              ],
              [
                -94.17522229999999,
                35.3402139
              ],
              [
                -94.1750075,
                35.34057960000002
              ],
              [
                -94.1744541,
                35.34106909999997
              ],
              [
                -94.1735691,
                35.341082499999985
              ],
              [
                -94.1731605,
                35.3413358
              ],
              [
                -94.172997,
                35.341429099999964
              ],
              [
                -94.173011,
                35.340452
              ],
              [
                -94.17310209999998,
                35.34045769999998
              ]
            ]
          ],
          [
            [
              [
                -94.20364928612891,
                36.27723802738155
              ],
              [
                -94.20362965721606,
                36.27723740621301
              ],
              [
                -94.20362874535726,
                36.27728752522079
              ],
              [
                -94.2035996332796,
                36.27728689837185
              ],
              [
                -94.20362663381026,
                36.27645190006606
              ],
              [
                -94.20366527960644,
                36.275279472725714
              ],
              [
                -94.20364434844777,
                36.276429923777435
              ],
              [
                -94.20364928612891,
                36.27723802738155
              ]
            ]
          ],
          [
            [
              [
                -93.1937773,
                33.907801900000024
              ],
              [
                -93.19262159999998,
                33.9080472
              ],
              [
                -93.1924881,
                33.9076139
              ],
              [
                -93.1936437,
                33.907368499999976
              ],
              [
                -93.1937773,
                33.907801900000024
              ]
            ]
          ],
          [
            [
              [
                -93.16764259999998,
                33.91527579999999
              ],
              [
                -93.1675641,
                33.91506550000001
              ],
              [
                -93.1676829,
                33.91503489999998
              ],
              [
                -93.1677613,
                33.91524529999998
              ],
              [
                -93.16764259999998,
                33.91527579999999
              ]
            ]
          ],
          [
            [
              [
                -93.1676066,
                33.9152783
              ],
              [
                -93.167491,
                33.91530809999998
              ],
              [
                -93.16741529999999,
                33.9151055
              ],
              [
                -93.16753079999998,
                33.91507569999999
              ],
              [
                -93.1676066,
                33.9152783
              ]
            ]
          ],
          [
            [
              [
                -93.16733309999998,
                33.9153496
              ],
              [
                -93.1672606,
                33.91514429999998
              ],
              [
                -93.1673791,
                33.9151155
              ],
              [
                -93.1674515,
                33.9153209
              ],
              [
                -93.16733309999998,
                33.9153496
              ]
            ]
          ],
          [
            [
              [
                -93.1599783,
                33.91678179999998
              ],
              [
                -93.15992919999998,
                33.9167738
              ],
              [
                -93.15981830000001,
                33.91659869999998
              ],
              [
                -93.15978379999999,
                33.91661369999998
              ],
              [
                -93.1595781,
                33.9163211
              ],
              [
                -93.159837,
                33.91616319999998
              ],
              [
                -93.1601899,
                33.916174
              ],
              [
                -93.1604752,
                33.91635119999999
              ],
              [
                -93.16048029999999,
                33.91647830000002
              ],
              [
                -93.1599783,
                33.91678179999998
              ]
            ]
          ],
          [
            [
              [
                -93.1590395,
                33.9175532
              ],
              [
                -93.1589311,
                33.9168019
              ],
              [
                -93.1595706,
                33.9163212
              ],
              [
                -93.1599036,
                33.91680559999998
              ],
              [
                -93.15993909999999,
                33.916858499999975
              ],
              [
                -93.1600168,
                33.91697019999998
              ],
              [
                -93.1599874,
                33.9170665
              ],
              [
                -93.159885,
                33.917128900000016
              ],
              [
                -93.1598764,
                33.91719349999999
              ],
              [
                -93.1590395,
                33.9175532
              ]
            ]
          ],
          [
            [
              [
                -93.1597603,
                33.9175351
              ],
              [
                -93.1597617,
                33.917718499999985
              ],
              [
                -93.15960330000001,
                33.9177865
              ],
              [
                -93.15950609999999,
                33.91772910000001
              ],
              [
                -93.1593714,
                33.917649
              ],
              [
                -93.15927189999998,
                33.917460599999984
              ],
              [
                -93.15945609999999,
                33.917382
              ],
              [
                -93.1595935,
                33.9173738
              ],
              [
                -93.15975789999999,
                33.9173659
              ],
              [
                -93.1597603,
                33.9175351
              ]
            ]
          ],
          [
            [
              [
                -93.2174921,
                35.03223449999999
              ],
              [
                -93.2175162,
                35.0313472
              ],
              [
                -93.2185838,
                35.031345
              ],
              [
                -93.2185596,
                35.0318853
              ],
              [
                -93.2184935,
                35.031885500000016
              ],
              [
                -93.218505,
                35.0321933
              ],
              [
                -93.21845769999999,
                35.03223669999998
              ],
              [
                -93.2174921,
                35.03223449999999
              ]
            ]
          ],
          [
            [
              [
                -93.3348334,
                34.0037824
              ],
              [
                -93.33478809999998,
                34.0043235
              ],
              [
                -93.3340673,
                34.004301900000016
              ],
              [
                -93.3341693,
                34.0037047
              ],
              [
                -93.33427459999999,
                34.0030424
              ],
              [
                -93.33440079999998,
                34.003036
              ],
              [
                -93.3344013,
                34.00309589999997
              ],
              [
                -93.3347005,
                34.0030917
              ],
              [
                -93.3346985,
                34.0030344
              ],
              [
                -93.33480629999998,
                34.0030501
              ],
              [
                -93.3348624,
                34.00312189999998
              ],
              [
                -93.3348558,
                34.0035482
              ],
              [
                -93.3348334,
                34.0037824
              ]
            ]
          ],
          [
            [
              [
                -93.22722509999998,
                35.027535599999986
              ],
              [
                -93.2272274,
                35.0274222
              ],
              [
                -93.227331,
                35.0274237
              ],
              [
                -93.2273287,
                35.027537
              ],
              [
                -93.22722509999998,
                35.027535599999986
              ]
            ]
          ],
          [
            [
              [
                -93.2302119,
                35.0318968
              ],
              [
                -93.2298391,
                35.03199019999999
              ],
              [
                -93.22910889999999,
                35.0318615
              ],
              [
                -93.22845259999998,
                35.0315815
              ],
              [
                -93.22807059999998,
                35.03116009999999
              ],
              [
                -93.22807059999998,
                35.0305824
              ],
              [
                -93.2290164,
                35.0305925
              ],
              [
                -93.22910269999998,
                35.03065559999999
              ],
              [
                -93.22912429999998,
                35.03108189999997
              ],
              [
                -93.2301626,
                35.0311677
              ],
              [
                -93.2302119,
                35.0318968
              ]
            ]
          ],
          [
            [
              [
                -93.3839653,
                35.05022680000001
              ],
              [
                -93.384317,
                35.04976249999997
              ],
              [
                -93.3849261,
                35.04977910000002
              ],
              [
                -93.384907,
                35.050252399999984
              ],
              [
                -93.3839653,
                35.05022680000001
              ]
            ]
          ],
          [
            [
              [
                -91.8473753,
                35.6631694
              ],
              [
                -91.84737379999999,
                35.663085
              ],
              [
                -91.8475839,
                35.66308249999999
              ],
              [
                -91.84758539999999,
                35.663167
              ],
              [
                -91.8473753,
                35.6631694
              ]
            ]
          ],
          [
            [
              [
                -91.7591562,
                36.23071439999995
              ],
              [
                -91.7591945,
                36.23072159999998
              ],
              [
                -91.7591466,
                36.230887
              ],
              [
                -91.75910839999997,
                36.23087979999998
              ],
              [
                -91.7591562,
                36.23071439999995
              ]
            ]
          ],
          [
            [
              [
                -91.759061,
                36.23066659999997
              ],
              [
                -91.7590542,
                36.2309498
              ],
              [
                -91.7588528,
                36.2309466
              ],
              [
                -91.75885969999999,
                36.23066339999998
              ],
              [
                -91.759061,
                36.23066659999997
              ]
            ]
          ],
          [
            [
              [
                -93.390506,
                35.05039949999997
              ],
              [
                -93.39167609999998,
                35.050426500000015
              ],
              [
                -93.3917245,
                35.050434600000024
              ],
              [
                -93.39177739999998,
                35.0504554
              ],
              [
                -93.3918467,
                35.05049409999999
              ],
              [
                -93.3918896,
                35.0505292
              ],
              [
                -93.3919326,
                35.05058419999998
              ],
              [
                -93.3919568,
                35.0506284
              ],
              [
                -93.3919634,
                35.050705
              ],
              [
                -93.39196119999998,
                35.05075180000003
              ],
              [
                -93.3919403,
                35.05080139999998
              ],
              [
                -93.3919095,
                35.05085
              ],
              [
                -93.3918819,
                35.05088339999999
              ],
              [
                -93.39183569999999,
                35.050917599999984
              ],
              [
                -93.3917686,
                35.050947399999956
              ],
              [
                -93.39171680000001,
                35.0509645
              ],
              [
                -93.391664,
                35.050978
              ],
              [
                -93.3904983,
                35.0509555
              ],
              [
                -93.3904686,
                35.050951
              ],
              [
                -93.390407,
                35.05093469999997
              ],
              [
                -93.3903288,
                35.0508969
              ],
              [
                -93.3902771,
                35.050859
              ],
              [
                -93.39023640000002,
                35.050806799999975
              ],
              [
                -93.3902121,
                35.050757199999985
              ],
              [
                -93.3902055,
                35.050703200000015
              ],
              [
                -93.3902066,
                35.0506374
              ],
              [
                -93.3902275,
                35.0505698
              ],
              [
                -93.39025289999998,
                35.05052019999999
              ],
              [
                -93.39030239999998,
                35.0504788
              ],
              [
                -93.3903552,
                35.05044090000001
              ],
              [
                -93.390418,
                35.05041479999998
              ],
              [
                -93.3904631,
                35.0504031
              ],
              [
                -93.390506,
                35.05039949999997
              ]
            ]
          ],
          [
            [
              [
                -93.39245,
                35.051054
              ],
              [
                -93.3924606,
                35.0506807
              ],
              [
                -93.392951,
                35.05069
              ],
              [
                -93.3929408,
                35.0510478
              ],
              [
                -93.39283269999999,
                35.05104570000002
              ],
              [
                -93.3928293,
                35.0511644
              ],
              [
                -93.3925146,
                35.0511583
              ],
              [
                -93.3925176,
                35.0510553
              ],
              [
                -93.39245,
                35.051054
              ]
            ]
          ],
          [
            [
              [
                -93.3788591,
                35.05554880000001
              ],
              [
                -93.37885719999998,
                35.05517769999997
              ],
              [
                -93.3798718,
                35.055174399999984
              ],
              [
                -93.3798737,
                35.05554529999998
              ],
              [
                -93.3788591,
                35.05554880000001
              ]
            ]
          ],
          [
            [
              [
                -93.44585,
                35.0947976
              ],
              [
                -93.4457883,
                35.0949325
              ],
              [
                -93.44560169999998,
                35.0948754
              ],
              [
                -93.4456634,
                35.0947405
              ],
              [
                -93.44585,
                35.0947976
              ]
            ]
          ],
          [
            [
              [
                -93.44590732547879,
                35.097810553141905
              ],
              [
                -93.44590732547879,
                35.09781055311227
              ],
              [
                -93.4462342,
                35.0978129
              ],
              [
                -93.4461849,
                35.0990657
              ],
              [
                -93.44469669999998,
                35.0990481
              ],
              [
                -93.44503869999998,
                35.0974348
              ],
              [
                -93.445237,
                35.0974376
              ],
              [
                -93.4458829,
                35.0974474
              ],
              [
                -93.445886,
                35.097810399999986
              ],
              [
                -93.44590732547879,
                35.097810553141905
              ]
            ]
          ],
          [
            [
              [
                -93.52452230000002,
                35.10985109999997
              ],
              [
                -93.52484459999998,
                35.1087795
              ],
              [
                -93.52552170000001,
                35.1089055
              ],
              [
                -93.5252018,
                35.10997329999998
              ],
              [
                -93.52452230000002,
                35.10985109999997
              ]
            ]
          ],
          [
            [
              [
                -93.52848359999999,
                35.1102027
              ],
              [
                -93.52840409999999,
                35.11037250000001
              ],
              [
                -93.527932,
                35.11022459999998
              ],
              [
                -93.5279909,
                35.1100989
              ],
              [
                -93.527567,
                35.1099661
              ],
              [
                -93.52759650000002,
                35.10968079999998
              ],
              [
                -93.527732,
                35.1093911
              ],
              [
                -93.5289647,
                35.109777
              ],
              [
                -93.5288529,
                35.11001609999998
              ],
              [
                -93.52879139999999,
                35.1099969
              ],
              [
                -93.5286681,
                35.11026039999999
              ],
              [
                -93.52848359999999,
                35.1102027
              ]
            ]
          ],
          [
            [
              [
                -93.524317,
                35.11001959999999
              ],
              [
                -93.5242968,
                35.110251599999984
              ],
              [
                -93.5239321,
                35.110230399999956
              ],
              [
                -93.5239523,
                35.1099983
              ],
              [
                -93.524317,
                35.11001959999999
              ]
            ]
          ],
          [
            [
              [
                -93.71174780000001,
                35.130242
              ],
              [
                -93.7117619,
                35.130061
              ],
              [
                -93.711789,
                35.1300583
              ],
              [
                -93.71181219999998,
                35.129863599999986
              ],
              [
                -93.7115667,
                35.1298318
              ],
              [
                -93.7115533,
                35.1295576
              ],
              [
                -93.7122198,
                35.12956089999998
              ],
              [
                -93.712189,
                35.130276
              ],
              [
                -93.7121863,
                35.130294699999986
              ],
              [
                -93.71174780000001,
                35.130242
              ]
            ]
          ],
          [
            [
              [
                -93.72628,
                35.288736
              ],
              [
                -93.726279,
                35.28907679999999
              ],
              [
                -93.7260571,
                35.28907639999998
              ],
              [
                -93.72605809999999,
                35.2887355
              ],
              [
                -93.72628,
                35.288736
              ]
            ]
          ],
          [
            [
              [
                -93.9138762,
                35.1465449
              ],
              [
                -93.9138399,
                35.1465734
              ],
              [
                -93.91380069999998,
                35.1465992
              ],
              [
                -93.913759,
                35.1466222
              ],
              [
                -93.9137149,
                35.1466421
              ],
              [
                -93.9136689,
                35.1466588
              ],
              [
                -93.9136213,
                35.1466722
              ],
              [
                -93.9135725,
                35.1466821
              ],
              [
                -93.9135228,
                35.14668859999998
              ],
              [
                -93.9134726,
                35.14669149999998
              ],
              [
                -93.91336479999998,
                35.14669169999996
              ],
              [
                -93.91173639999998,
                35.146668199999986
              ],
              [
                -93.91174319999999,
                35.1462869
              ],
              [
                -93.9117569,
                35.14611919999998
              ],
              [
                -93.91178969999999,
                35.14601419999999
              ],
              [
                -93.9118471,
                35.14589679999999
              ],
              [
                -93.91192510000002,
                35.14587109999999
              ],
              [
                -93.91193739999999,
                35.1458274
              ],
              [
                -93.91206179999999,
                35.1457481
              ],
              [
                -93.91220119999998,
                35.14570449999998
              ],
              [
                -93.9122231,
                35.145672
              ],
              [
                -93.91318979999998,
                35.1456698
              ],
              [
                -93.9131884,
                35.1458465
              ],
              [
                -93.9139773,
                35.14585539999998
              ],
              [
                -93.9139748,
                35.14600189999999
              ],
              [
                -93.9139773,
                35.1460098
              ],
              [
                -93.9139974,
                35.1460475
              ],
              [
                -93.9140135,
                35.14608650000001
              ],
              [
                -93.9140253,
                35.1461265
              ],
              [
                -93.9140329,
                35.1461672
              ],
              [
                -93.9140361,
                35.14620820000001
              ],
              [
                -93.914035,
                35.14624939999998
              ],
              [
                -93.91402949999998,
                35.1462903
              ],
              [
                -93.91401959999999,
                35.1463306
              ],
              [
                -93.91400550000002,
                35.146370099999984
              ],
              [
                -93.91398729999999,
                35.146408499999964
              ],
              [
                -93.91396509999998,
                35.1464454
              ],
              [
                -93.913939,
                35.146480599999975
              ],
              [
                -93.91390929999999,
                35.146513900000016
              ],
              [
                -93.9138762,
                35.1465449
              ]
            ]
          ],
          [
            [
              [
                -93.8083955,
                35.15406689999999
              ],
              [
                -93.80842579999998,
                35.154065
              ],
              [
                -93.80842579999998,
                35.154611
              ],
              [
                -93.8082927,
                35.154611
              ],
              [
                -93.8078888,
                35.15456319999998
              ],
              [
                -93.8074732,
                35.1545728
              ],
              [
                -93.8074078,
                35.1545499
              ],
              [
                -93.807249,
                35.15371939999997
              ],
              [
                -93.8075058,
                35.1536908
              ],
              [
                -93.807716,
                35.1537099
              ],
              [
                -93.8079962,
                35.15393130000001
              ],
              [
                -93.8081293,
                35.1540936
              ],
              [
                -93.8083955,
                35.15406689999999
              ]
            ]
          ],
          [
            [
              [
                -93.8072415,
                35.1545478
              ],
              [
                -93.806807,
                35.1544206
              ],
              [
                -93.80657359999998,
                35.15437449999999
              ],
              [
                -93.80661659999998,
                35.1541596
              ],
              [
                -93.8070189,
                35.15423639999999
              ],
              [
                -93.80716909999998,
                35.1542254
              ],
              [
                -93.8072415,
                35.1545478
              ]
            ]
          ],
          [
            [
              [
                -93.7308823,
                35.29240130000002
              ],
              [
                -93.7308812,
                35.2921929
              ],
              [
                -93.7311655,
                35.29219989999998
              ],
              [
                -93.7311645,
                35.2924022
              ],
              [
                -93.7308823,
                35.29240130000002
              ]
            ]
          ]
        ]
      }
    }
  ]
}