{
"type": "FeatureCollection",
"name": "geo_2022-11-24",
"crs": { "type": "name", "properties": { "name": "urn:ogc:def:crs:OGC:1.3:CRS84" } },
"features": [
{ "type": "Feature", "properties": { "ID": 22864, "date": "2022-11-24T00:00:00", "smokePM_pred": 2.2713348865509002 }, "geometry": { "type": "Polygon", "coordinates": [ [ [ -97.45614206753163, 25.855840161837193 ], [ -97.435434093859982, 25.776490281936866 ], [ -97.523038602512258, 25.757760074191069 ], [ -97.543787783715274, 25.837043952073589 ], [ -97.45614206753163, 25.855840161837193 ] ] ] } },
{ "type": "Feature", "properties": { "ID": 22865, "date": "2022-11-24T00:00:00", "smokePM_pred": 2.3257887363433798 }, "geometry": { "type": "Polygon", "coordinates": [ [ [ -97.368409355058802, 25.874595908630312 ], [ -97.347742823790014, 25.795180148489685 ], [ -97.435434093859982, 25.776490281936866 ], [ -97.45614206753163, 25.855840161837193 ], [ -97.368409355058802, 25.874595908630312 ] ] ] } },
{ "type": "Feature", "properties": { "ID": 22866, "date": "2022-11-24T00:00:00", "smokePM_pred": 3.1845371723175 }, "geometry": { "type": "Polygon", "coordinates": [ [ [ -97.280589774407531, 25.893310995888839 ], [ -97.2599649205399, 25.813829478084013 ], [ -97.347742823790014, 25.795180148489685 ], [ -97.368409355058802, 25.874595908630312 ], [ -97.280589774407531, 25.893310995888839 ] ] ] } },
{ "type": "Feature", "properties": { "ID": 22868, "date": "2022-11-24T00:00:00", "smokePM_pred": 6.3856401443481401 }, "geometry": { "type": "Polygon", "coordinates": [ [ [ -97.104690527112439, 25.930618405583797 ], [ -97.084149733522921, 25.851005743377328 ], [ -97.172100513561389, 25.832438074961921 ], [ -97.192683454907993, 25.911985227055442 ], [ -97.104690527112439, 25.930618405583797 ] ] ] } },
{ "type": "Feature", "properties": { "ID": 23378, "date": "2022-11-24T00:00:00", "smokePM_pred": 2.2967607975006099 }, "geometry": { "type": "Polygon", "coordinates": [ [ [ -97.564624088303702, 25.916311382339028 ], [ -97.543787783715274, 25.837043952073589 ], [ -97.631346376715896, 25.818207475906139 ], [ -97.652223779775397, 25.897408710526115 ], [ -97.564624088303702, 25.916311382339028 ] ] ] } },
{ "type": "Feature", "properties": { "ID": 23379, "date": "2022-11-24T00:00:00", "smokePM_pred": 2.0736835002899201 }, "geometry": { "type": "Polygon", "coordinates": [ [ [ -97.476937037695279, 25.935173666853487 ], [ -97.45614206753163, 25.855840161837193 ], [ -97.543787783715274, 25.837043952073589 ], [ -97.564624088303702, 25.916311382339028 ], [ -97.476937037695279, 25.935173666853487 ] ] ] } },
{ "type": "Feature", "properties": { "ID": 23380, "date": "2022-11-24T00:00:00", "smokePM_pred": 2.0134034156799299 }, "geometry": { "type": "Polygon", "coordinates": [ [ [ -97.38916275470929, 25.95399536670319 ], [ -97.368409355058802, 25.874595908630312 ], [ -97.45614206753163, 25.855840161837193 ], [ -97.476937037695279, 25.935173666853487 ], [ -97.38916275470929, 25.95399536670319 ] ] ] } },
{ "type": "Feature", "properties": { "ID": 23381, "date": "2022-11-24T00:00:00", "smokePM_pred": 3.1669340133667001 }, "geometry": { "type": "Polygon", "coordinates": [ [ [ -97.301301367327071, 25.972776284523526 ], [ -97.280589774407531, 25.893310995888839 ], [ -97.368409355058802, 25.874595908630312 ], [ -97.38916275470929, 25.95399536670319 ], [ -97.301301367327071, 25.972776284523526 ] ] ] } },
{ "type": "Feature", "properties": { "ID": 23382, "date": "2022-11-24T00:00:00", "smokePM_pred": 6.4347195625305202 }, "geometry": { "type": "Polygon", "coordinates": [ [ [ -97.213353004754694, 25.991516222955845 ], [ -97.192683454907993, 25.911985227055442 ], [ -97.280589774407531, 25.893310995888839 ], [ -97.301301367327071, 25.972776284523526 ], [ -97.213353004754694, 25.991516222955845 ] ] ] } },
{ "type": "Feature", "properties": { "ID": 23383, "date": "2022-11-24T00:00:00", "smokePM_pred": 7.3314781188964799 }, "geometry": { "type": "Polygon", "coordinates": [ [ [ -97.125317797425666, 26.010214984651682 ], [ -97.104690527112439, 25.930618405583797 ], [ -97.192683454907993, 25.911985227055442 ], [ -97.213353004754694, 25.991516222955845 ], [ -97.125317797425666, 26.010214984651682 ] ] ] } },
{ "type": "Feature", "properties": { "ID": 23384, "date": "2022-11-24T00:00:00", "smokePM_pred": 7.3781824111938503 }, "geometry": { "type": "Polygon", "coordinates": [ [ [ -97.037195877003398, 26.028872372277092 ], [ -97.016611122797684, 25.949210334942915 ], [ -97.104690527112439, 25.930618405583797 ], [ -97.125317797425666, 26.010214984651682 ], [ -97.037195877003398, 26.028872372277092 ] ] ] } },
{ "type": "Feature", "properties": { "ID": 23893, "date": "2022-11-24T00:00:00", "smokePM_pred": 2.2216386795043901 }, "geometry": { "type": "Polygon", "coordinates": [ [ [ -97.585547752232102, 25.995562287562585 ], [ -97.564624088303702, 25.916311382339028 ], [ -97.652223779775397, 25.897408710526115 ], [ -97.673188667714115, 25.976593347149823 ], [ -97.585547752232102, 25.995562287562585 ] ] ] } },
{ "type": "Feature", "properties": { "ID": 23894, "date": "2022-11-24T00:00:00", "smokePM_pred": 1.96821236610413 }, "geometry": { "type": "Polygon", "coordinates": [ [ [ -97.49781924044018, 26.014490719868359 ], [ -97.476937037695279, 25.935173666853487 ], [ -97.564624088303702, 25.916311382339028 ], [ -97.585547752232102, 25.995562287562585 ], [ -97.49781924044018, 26.014490719868359 ] ] ] } },
{ "type": "Feature", "properties": { "ID": 23895, "date": "2022-11-24T00:00:00", "smokePM_pred": 2.1163713932037398 }, "geometry": { "type": "Polygon", "coordinates": [ [ [ -97.410003258960145, 26.033378445899292 ], [ -97.38916275470929, 25.95399536670319 ], [ -97.476937037695279, 25.935173666853487 ], [ -97.49781924044018, 26.014490719868359 ], [ -97.410003258960145, 26.033378445899292 ] ] ] } },
{ "type": "Feature", "properties": { "ID": 23896, "date": "2022-11-24T00:00:00", "smokePM_pred": 4.0437045097351101 }, "geometry": { "type": "Polygon", "coordinates": [ [ [ -97.322099935641305, 26.052225267488364 ], [ -97.301301367327071, 25.972776284523526 ], [ -97.38916275470929, 25.95399536670319 ], [ -97.410003258960145, 26.033378445899292 ], [ -97.322099935641305, 26.052225267488364 ] ] ] } },
{ "type": "Feature", "properties": { "ID": 23897, "date": "2022-11-24T00:00:00", "smokePM_pred": 6.9864072799682599 }, "geometry": { "type": "Polygon", "coordinates": [ [ [ -97.234109399563053, 26.071030986473669 ], [ -97.213353004754694, 25.991516222955845 ], [ -97.301301367327071, 25.972776284523526 ], [ -97.322099935641305, 26.052225267488364 ], [ -97.234109399563053, 26.071030986473669 ] ] ] } },
{ "type": "Feature", "properties": { "ID": 23898, "date": "2022-11-24T00:00:00", "smokePM_pred": 7.9791507720947301 }, "geometry": { "type": "Polygon", "coordinates": [ [ [ -97.14603178103755, 26.08979540470267 ], [ -97.125317797425666, 26.010214984651682 ], [ -97.213353004754694, 25.991516222955845 ], [ -97.234109399563053, 26.071030986473669 ], [ -97.14603178103755, 26.08979540470267 ] ] ] } },
{ "type": "Feature", "properties": { "ID": 23899, "date": "2022-11-24T00:00:00", "smokePM_pred": 7.6221041679382298 }, "geometry": { "type": "Polygon", "coordinates": [ [ [ -97.057867211612262, 26.108518324036531 ], [ -97.037195877003398, 26.028872372277092 ], [ -97.125317797425666, 26.010214984651682 ], [ -97.14603178103755, 26.08979540470267 ], [ -97.057867211612262, 26.108518324036531 ] ] ] } },
{ "type": "Feature", "properties": { "ID": 23900, "date": "2022-11-24T00:00:00", "smokePM_pred": 7.3537192344665501 }, "geometry": { "type": "Polygon", "coordinates": [ [ [ -96.969615824072633, 26.127199546354415 ], [ -96.948987376383812, 26.047488188516922 ], [ -97.037195877003398, 26.028872372277092 ], [ -97.057867211612262, 26.108518324036531 ], [ -96.969615824072633, 26.127199546354415 ] ] ] } },
{ "type": "Feature", "properties": { "ID": 24408, "date": "2022-11-24T00:00:00", "smokePM_pred": 2.2420599460601802 }, "geometry": { "type": "Polygon", "coordinates": [ [ [ -97.60655901267458, 26.074796590022483 ], [ -97.585547752232102, 25.995562287562585 ], [ -97.673188667714115, 25.976593347149823 ], [ -97.694241277563506, 26.055761307748291 ], [ -97.60655901267458, 26.074796590022483 ] ] ] } },
{ "type": "Feature", "properties": { "ID": 24409, "date": "2022-11-24T00:00:00", "smokePM_pred": 2.25447678565979 }, "geometry": { "type": "Polygon", "coordinates": [ [ [ -97.518788913077756, 26.093791243468196 ], [ -97.49781924044018, 26.014490719868359 ], [ -97.585547752232102, 25.995562287562585 ], [ -97.60655901267458, 26.074796590022483 ], [ -97.518788913077756, 26.093791243468196 ] ] ] } },
{ "type": "Feature", "properties": { "ID": 24410, "date": "2022-11-24T00:00:00", "smokePM_pred": 2.80537629127502 }, "geometry": { "type": "Polygon", "coordinates": [ [ [ -97.430931105254842, 26.112745069114126 ], [ -97.410003258960145, 26.033378445899292 ], [ -97.49781924044018, 26.014490719868359 ], [ -97.518788913077756, 26.093791243468196 ], [ -97.430931105254842, 26.112745069114126 ] ] ] } },
{ "type": "Feature", "properties": { "ID": 24411, "date": "2022-11-24T00:00:00", "smokePM_pred": 4.6310701370239302 }, "geometry": { "type": "Polygon", "coordinates": [ [ [ -97.342985716920424, 26.131657867988935 ], [ -97.322099935641305, 26.052225267488364 ], [ -97.410003258960145, 26.033378445899292 ], [ -97.430931105254842, 26.112745069114126 ], [ -97.342985716920424, 26.131657867988935 ] ] ] } },
{ "type": "Feature", "properties": { "ID": 24412, "date": "2022-11-24T00:00:00", "smokePM_pred": 6.9298758506774902 }, "geometry": { "type": "Polygon", "coordinates": [ [ [ -97.254952877024579, 26.150529441125514 ], [ -97.234109399563053, 26.071030986473669 ], [ -97.322099935641305, 26.052225267488364 ], [ -97.342985716920424, 26.131657867988935 ], [ -97.254952877024579, 26.150529441125514 ] ] ] } },
{ "type": "Feature", "properties": { "ID": 24413, "date": "2022-11-24T00:00:00", "smokePM_pred": 7.3241229057312003 }, "geometry": { "type": "Polygon", "coordinates": [ [ [ -97.166832715755518, 26.1693595895653 ], [ -97.14603178103755, 26.08979540470267 ], [ -97.234109399563053, 26.071030986473669 ], [ -97.254952877024579, 26.150529441125514 ], [ -97.166832715755518, 26.1693595895653 ] ] ] } },
{ "type": "Feature", "properties": { "ID": 24414, "date": "2022-11-24T00:00:00", "smokePM_pred": 7.3330197334289604 }, "geometry": { "type": "Polygon", "coordinates": [ [ [ -97.078625364542233, 26.188148114362622 ], [ -97.057867211612262, 26.108518324036531 ], [ -97.14603178103755, 26.08979540470267 ], [ -97.166832715755518, 26.1693595895653 ], [ -97.078625364542233, 26.188148114362622 ] ] ] } },
{ "type": "Feature", "properties": { "ID": 24415, "date": "2022-11-24T00:00:00", "smokePM_pred": 7.2272915840148899 }, "geometry": { "type": "Polygon", "coordinates": [ [ [ -96.990330956057107, 26.206894816589003 ], [ -96.969615824072633, 26.127199546354415 ], [ -97.057867211612262, 26.108518324036531 ], [ -97.078625364542233, 26.188148114362622 ], [ -96.990330956057107, 26.206894816589003 ] ] ] } },
{ "type": "Feature", "properties": { "ID": 24923, "date": "2022-11-24T00:00:00", "smokePM_pred": 2.5036249160766602 }, "geometry": { "type": "Polygon", "coordinates": [ [ [ -97.627658108029948, 26.15401421169814 ], [ -97.60655901267458, 26.074796590022483 ], [ -97.694241277563506, 26.055761307748291 ], [ -97.715381847577092, 26.134912513993012 ], [ -97.627658108029948, 26.15401421169814 ] ] ] } },
{ "type": "Feature", "properties": { "ID": 24924, "date": "2022-11-24T00:00:00", "smokePM_pred": 2.8167345523834202 }, "geometry": { "type": "Polygon", "coordinates": [ [ [ -97.539846294146884, 26.173075159941334 ], [ -97.518788913077756, 26.093791243468196 ], [ -97.60655901267458, 26.074796590022483 ], [ -97.627658108029948, 26.15401421169814 ], [ -97.539846294146884, 26.173075159941334 ] ] ] } },
{ "type": "Feature", "properties": { "ID": 24925, "date": "2022-11-24T00:00:00", "smokePM_pred": 3.5466780662536599 }, "geometry": { "type": "Polygon", "coordinates": [ [ [ -97.45194653226693, 26.1920951589459 ], [ -97.430931105254842, 26.112745069114126 ], [ -97.518788913077756, 26.093791243468196 ], [ -97.539846294146884, 26.173075159941334 ], [ -97.45194653226693, 26.1920951589459 ] ] ] } },
{ "type": "Feature", "properties": { "ID": 24926, "date": "2022-11-24T00:00:00", "smokePM_pred": 5.1019015312194798 }, "geometry": { "type": "Polygon", "coordinates": [ [ [ -97.363958949967312, 26.211074008934258 ], [ -97.342985716920424, 26.131657867988935 ], [ -97.430931105254842, 26.112745069114126 ], [ -97.45194653226693, 26.1920951589459 ], [ -97.363958949967312, 26.211074008934258 ] ] ] } },
{ "type": "Feature", "properties": { "ID": 24927, "date": "2022-11-24T00:00:00", "smokePM_pred": 6.5299005508422896 }, "geometry": { "type": "Polygon", "coordinates": [ [ [ -97.275883676066101, 26.230011510132165 ], [ -97.254952877024579, 26.150529441125514 ], [ -97.342985716920424, 26.131657867988935 ], [ -97.363958949967312, 26.211074008934258 ], [ -97.275883676066101, 26.230011510132165 ] ] ] } },
{ "type": "Feature", "properties": { "ID": 24928, "date": "2022-11-24T00:00:00", "smokePM_pred": 6.6748905181884801 }, "geometry": { "type": "Polygon", "coordinates": [ [ [ -97.187720840624934, 26.248907462773083 ], [ -97.166832715755518, 26.1693595895653 ], [ -97.254952877024579, 26.150529441125514 ], [ -97.275883676066101, 26.230011510132165 ], [ -97.187720840624934, 26.248907462773083 ] ] ] } },
{ "type": "Feature", "properties": { "ID": 24929, "date": "2022-11-24T00:00:00", "smokePM_pred": 7.1132736206054696 }, "geometry": { "type": "Polygon", "coordinates": [ [ [ -97.099470574951695, 26.267761667102519 ], [ -97.078625364542233, 26.188148114362622 ], [ -97.166832715755518, 26.1693595895653 ], [ -97.187720840624934, 26.248907462773083 ], [ -97.099470574951695, 26.267761667102519 ] ] ] } },
{ "type": "Feature", "properties": { "ID": 24930, "date": "2022-11-24T00:00:00", "smokePM_pred": 6.7601137161254901 }, "geometry": { "type": "Polygon", "coordinates": [ [ [ -97.011133011603164, 26.286573923382402 ], [ -96.990330956057107, 26.206894816589003 ], [ -97.078625364542233, 26.188148114362622 ], [ -97.099470574951695, 26.267761667102519 ], [ -97.011133011603164, 26.286573923382402 ] ] ] } },
{ "type": "Feature", "properties": { "ID": 25439, "date": "2022-11-24T00:00:00", "smokePM_pred": 3.0724911689758301 }, "geometry": { "type": "Polygon", "coordinates": [ [ [ -97.560991623419255, 26.25234239127613 ], [ -97.539846294146884, 26.173075159941334 ], [ -97.627658108029948, 26.15401421169814 ], [ -97.648845277927165, 26.233215074268287 ], [ -97.560991623419255, 26.25234239127613 ] ] ] } },
{ "type": "Feature", "properties": { "ID": 25440, "date": "2022-11-24T00:00:00", "smokePM_pred": 3.7789440155029301 }, "geometry": { "type": "Polygon", "coordinates": [ [ [ -97.473049779905523, 26.27142863769361 ], [ -97.45194653226693, 26.1920951589459 ], [ -97.539846294146884, 26.173075159941334 ], [ -97.560991623419255, 26.25234239127613 ], [ -97.473049779905523, 26.27142863769361 ] ] ] } },
{ "type": "Feature", "properties": { "ID": 25441, "date": "2022-11-24T00:00:00", "smokePM_pred": 4.6326341629028303 }, "geometry": { "type": "Polygon", "coordinates": [ [ [ -97.385019874823072, 26.290473612934914 ], [ -97.363958949967312, 26.211074008934258 ], [ -97.45194653226693, 26.1920951589459 ], [ -97.473049779905523, 26.27142863769361 ], [ -97.385019874823072, 26.290473612934914 ] ] ] } },
{ "type": "Feature", "properties": { "ID": 25442, "date": "2022-11-24T00:00:00", "smokePM_pred": 6.1092858314514196 }, "geometry": { "type": "Polygon", "coordinates": [ [ [ -97.2969020368553, 26.309477116416748 ], [ -97.275883676066101, 26.230011510132165 ], [ -97.363958949967312, 26.211074008934258 ], [ -97.385019874823072, 26.290473612934914 ], [ -97.2969020368553, 26.309477116416748 ] ] ] } },
{ "type": "Feature", "properties": { "ID": 25443, "date": "2022-11-24T00:00:00", "smokePM_pred": 6.5791273117065403 }, "geometry": { "type": "Polygon", "coordinates": [ [ [ -97.208696395934581, 26.328438947562631 ], [ -97.187720840624934, 26.248907462773083 ], [ -97.275883676066101, 26.230011510132165 ], [ -97.2969020368553, 26.309477116416748 ], [ -97.208696395934581, 26.328438947562631 ] ] ] } },
{ "type": "Feature", "properties": { "ID": 25444, "date": "2022-11-24T00:00:00", "smokePM_pred": 6.7466869354248002 }, "geometry": { "type": "Polygon", "coordinates": [ [ [ -97.120403083245066, 26.347358905807287 ], [ -97.099470574951695, 26.267761667102519 ], [ -97.187720840624934, 26.248907462773083 ], [ -97.208696395934581, 26.328438947562631 ], [ -97.120403083245066, 26.347358905807287 ] ] ] } },
{ "type": "Feature", "properties": { "ID": 25445, "date": "2022-11-24T00:00:00", "smokePM_pred": 6.6064934730529803 }, "geometry": { "type": "Polygon", "coordinates": [ [ [ -97.032022231225312, 26.366236790601047 ], [ -97.011133011603164, 26.286573923382402 ], [ -97.099470574951695, 26.267761667102519 ], [ -97.120403083245066, 26.347358905807287 ], [ -97.032022231225312, 26.366236790601047 ] ] ] } },
{ "type": "Feature", "properties": { "ID": 25954, "date": "2022-11-24T00:00:00", "smokePM_pred": 3.2797789573669398 }, "geometry": { "type": "Polygon", "coordinates": [ [ [ -97.582225141904686, 26.331592859159105 ], [ -97.560991623419255, 26.25234239127613 ], [ -97.648845277927165, 26.233215074268287 ], [ -97.670120763230557, 26.312399099109037 ], [ -97.582225141904686, 26.331592859159105 ] ] ] } },
{ "type": "Feature", "properties": { "ID": 25955, "date": "2022-11-24T00:00:00", "smokePM_pred": 3.8803360462188698 }, "geometry": { "type": "Polygon", "coordinates": [ [ [ -97.494241089320553, 26.350745427355118 ], [ -97.473049779905523, 26.27142863769361 ], [ -97.560991623419255, 26.25234239127613 ], [ -97.582225141904686, 26.331592859159105 ], [ -97.494241089320553, 26.350745427355118 ] ] ] } },
{ "type": "Feature", "properties": { "ID": 25956, "date": "2022-11-24T00:00:00", "smokePM_pred": 4.4304060935974103 }, "geometry": { "type": "Polygon", "coordinates": [ [ [ -97.406168732772329, 26.369856602301134 ], [ -97.385019874823072, 26.290473612934914 ], [ -97.473049779905523, 26.27142863769361 ], [ -97.494241089320553, 26.350745427355118 ], [ -97.406168732772329, 26.369856602301134 ] ] ] } },
{ "type": "Feature", "properties": { "ID": 25957, "date": "2022-11-24T00:00:00", "smokePM_pred": 5.3208436965942401 }, "geometry": { "type": "Polygon", "coordinates": [ [ [ -97.31800820080602, 26.388926182602809 ], [ -97.2969020368553, 26.309477116416748 ], [ -97.385019874823072, 26.290473612934914 ], [ -97.406168732772329, 26.369856602301134 ], [ -97.31800820080602, 26.388926182602809 ] ] ] } },
{ "type": "Feature", "properties": { "ID": 25958, "date": "2022-11-24T00:00:00", "smokePM_pred": 5.6816072463989302 }, "geometry": { "type": "Polygon", "coordinates": [ [ [ -97.229759623222066, 26.407953966871762 ], [ -97.208696395934581, 26.328438947562631 ], [ -97.2969020368553, 26.309477116416748 ], [ -97.31800820080602, 26.388926182602809 ], [ -97.229759623222066, 26.407953966871762 ] ] ] } },
{ "type": "Feature", "properties": { "ID": 25959, "date": "2022-11-24T00:00:00", "smokePM_pred": 6.2708020210266104 }, "geometry": { "type": "Polygon", "coordinates": [ [ [ -97.141423131078213, 26.426939753729961 ], [ -97.120403083245066, 26.347358905807287 ], [ -97.208696395934581, 26.328438947562631 ], [ -97.229759623222066, 26.407953966871762 ], [ -97.141423131078213, 26.426939753729961 ] ] ] } },
{ "type": "Feature", "properties": { "ID": 25960, "date": "2022-11-24T00:00:00", "smokePM_pred": 6.0354666709899902 }, "geometry": { "type": "Polygon", "coordinates": [ [ [ -97.052998856692099, 26.445883341814135 ], [ -97.032022231225312, 26.366236790601047 ], [ -97.120403083245066, 26.347358905807287 ], [ -97.141423131078213, 26.426939753729961 ], [ -97.052998856692099, 26.445883341814135 ] ] ] } },
{ "type": "Feature", "properties": { "ID": 26470, "date": "2022-11-24T00:00:00", "smokePM_pred": 3.8003399372100799 }, "geometry": { "type": "Polygon", "coordinates": [ [ [ -97.515520702908262, 26.430045449625336 ], [ -97.494241089320553, 26.350745427355118 ], [ -97.582225141904686, 26.331592859159105 ], [ -97.603547091856569, 26.410826484973025 ], [ -97.515520702908262, 26.430045449625336 ] ] ] } },
{ "type": "Feature", "properties": { "ID": 26471, "date": "2022-11-24T00:00:00", "smokePM_pred": 4.0474357604980504 }, "geometry": { "type": "Polygon", "coordinates": [ [ [ -97.427405766348784, 26.449222899040926 ], [ -97.406168732772329, 26.369856602301134 ], [ -97.494241089320553, 26.350745427355118 ], [ -97.515520702908262, 26.430045449625336 ], [ -97.427405766348784, 26.449222899040926 ] ] ] } },
{ "type": "Feature", "properties": { "ID": 26472, "date": "2022-11-24T00:00:00", "smokePM_pred": 4.8823785781860396 }, "geometry": { "type": "Polygon", "coordinates": [ [ [ -97.339202410583937, 26.468358631012453 ], [ -97.31800820080602, 26.388926182602809 ], [ -97.406168732772329, 26.369856602301134 ], [ -97.427405766348784, 26.449222899040926 ], [ -97.339202410583937, 26.468358631012453 ] ] ] } },
{ "type": "Feature", "properties": { "ID": 26473, "date": "2022-11-24T00:00:00", "smokePM_pred": 5.1641440391540501 }, "geometry": { "type": "Polygon", "coordinates": [ [ [ -97.250910765279485, 26.487452443337649 ], [ -97.229759623222066, 26.407953966871762 ], [ -97.31800820080602, 26.388926182602809 ], [ -97.339202410583937, 26.468358631012453 ], [ -97.250910765279485, 26.487452443337649 ] ] ] } },
{ "type": "Feature", "properties": { "ID": 26474, "date": "2022-11-24T00:00:00", "smokePM_pred": 5.4415812492370597 }, "geometry": { "type": "Polygon", "coordinates": [ [ [ -97.162530961364041, 26.506504133823714 ], [ -97.141423131078213, 26.426939753729961 ], [ -97.229759623222066, 26.407953966871762 ], [ -97.250910765279485, 26.487452443337649 ], [ -97.162530961364041, 26.506504133823714 ] ] ] } },
{ "type": "Feature", "properties": { "ID": 26475, "date": "2022-11-24T00:00:00", "smokePM_pred": 5.3833422660827601 }, "geometry": { "type": "Polygon", "coordinates": [ [ [ -97.074063131031721, 26.525513500291794 ], [ -97.052998856692099, 26.445883341814135 ], [ -97.141423131078213, 26.426939753729961 ], [ -97.162530961364041, 26.506504133823714 ], [ -97.074063131031721, 26.525513500291794 ] ] ] } },
{ "type": "Feature", "properties": { "ID": 26985, "date": "2022-11-24T00:00:00", "smokePM_pred": 3.0708782672882098 }, "geometry": { "type": "Polygon", "coordinates": [ [ [ -97.53688886431668, 26.509328625894266 ], [ -97.515520702908262, 26.430045449625336 ], [ -97.603547091856569, 26.410826484973025 ], [ -97.624957716777232, 26.490043189795003 ], [ -97.53688886431668, 26.509328625894266 ] ] ] } },
{ "type": "Feature", "properties": { "ID": 26986, "date": "2022-11-24T00:00:00", "smokePM_pred": 3.7575051784515399 }, "geometry": { "type": "Polygon", "coordinates": [ [ [ -97.44873121934063, 26.528572424858179 ], [ -97.427405766348784, 26.449222899040926 ], [ -97.515520702908262, 26.430045449625336 ], [ -97.53688886431668, 26.509328625894266 ], [ -97.44873121934063, 26.528572424858179 ] ] ] } },
{ "type": "Feature", "properties": { "ID": 26987, "date": "2022-11-24T00:00:00", "smokePM_pred": 4.0432281494140598 }, "geometry": { "type": "Polygon", "coordinates": [ [ [ -97.360484910111879, 26.547774383664418 ], [ -97.339202410583937, 26.468358631012453 ], [ -97.427405766348784, 26.449222899040926 ], [ -97.44873121934063, 26.528572424858179 ], [ -97.360484910111879, 26.547774383664418 ] ] ] } },
{ "type": "Feature", "properties": { "ID": 26988, "date": "2022-11-24T00:00:00", "smokePM_pred": 4.4088654518127397 }, "geometry": { "type": "Polygon", "coordinates": [ [ [ -97.272150066158801, 26.566934299294843 ], [ -97.250910765279485, 26.487452443337649 ], [ -97.339202410583937, 26.468358631012453 ], [ -97.360484910111879, 26.547774383664418 ], [ -97.272150066158801, 26.566934299294843 ] ] ] } },
{ "type": "Feature", "properties": { "ID": 26989, "date": "2022-11-24T00:00:00", "smokePM_pred": 5.0929188728332502 }, "geometry": { "type": "Polygon", "coordinates": [ [ [ -97.183726818278103, 26.586051968739923 ], [ -97.162530961364041, 26.506504133823714 ], [ -97.250910765279485, 26.487452443337649 ], [ -97.272150066158801, 26.566934299294843 ], [ -97.183726818278103, 26.586051968739923 ] ] ] } },
{ "type": "Feature", "properties": { "ID": 26990, "date": "2022-11-24T00:00:00", "smokePM_pred": 5.1821088790893599 }, "geometry": { "type": "Polygon", "coordinates": [ [ [ -97.095215298537681, 26.605127189003184 ], [ -97.074063131031721, 26.525513500291794 ], [ -97.162530961364041, 26.506504133823714 ], [ -97.183726818278103, 26.586051968739923 ], [ -97.095215298537681, 26.605127189003184 ] ] ] } },
{ "type": "Feature", "properties": { "ID": 27501, "date": "2022-11-24T00:00:00", "smokePM_pred": 2.9526252746582 }, "geometry": { "type": "Polygon", "coordinates": [ [ [ -97.470145336796094, 26.607905101150674 ], [ -97.44873121934063, 26.528572424858179 ], [ -97.53688886431668, 26.509328625894266 ], [ -97.558345818451031, 26.588594877245058 ], [ -97.470145336796094, 26.607905101150674 ] ] ] } },
{ "type": "Feature", "properties": { "ID": 27502, "date": "2022-11-24T00:00:00", "smokePM_pred": 3.94979596138 }, "geometry": { "type": "Polygon", "coordinates": [ [ [ -97.381855944575577, 26.627173362272135 ], [ -97.360484910111879, 26.547774383664418 ], [ -97.44873121934063, 26.528572424858179 ], [ -97.470145336796094, 26.607905101150674 ], [ -97.381855944575577, 26.627173362272135 ] ] ] } },
{ "type": "Feature", "properties": { "ID": 27503, "date": "2022-11-24T00:00:00", "smokePM_pred": 3.7007925510406499 }, "geometry": { "type": "Polygon", "coordinates": [ [ [ -97.293477771177592, 26.646399456773427 ], [ -97.272150066158801, 26.566934299294843 ], [ -97.360484910111879, 26.547774383664418 ], [ -97.381855944575577, 26.627173362272135 ], [ -97.293477771177592, 26.646399456773427 ] ] ] } },
{ "type": "Feature", "properties": { "ID": 27504, "date": "2022-11-24T00:00:00", "smokePM_pred": 4.0519108772277797 }, "geometry": { "type": "Polygon", "coordinates": [ [ [ -97.205010947264242, 26.665583180826268 ], [ -97.183726818278103, 26.586051968739923 ], [ -97.272150066158801, 26.566934299294843 ], [ -97.293477771177592, 26.646399456773427 ], [ -97.205010947264242, 26.665583180826268 ] ] ] } },
{ "type": "Feature", "properties": { "ID": 27505, "date": "2022-11-24T00:00:00", "smokePM_pred": 4.1258034706115696 }, "geometry": { "type": "Polygon", "coordinates": [ [ [ -97.116455604774401, 26.684724330614532 ], [ -97.095215298537681, 26.605127189003184 ], [ -97.183726818278103, 26.586051968739923 ], [ -97.205010947264242, 26.665583180826268 ], [ -97.116455604774401, 26.684724330614532 ] ] ] } },
{ "type": "Feature", "properties": { "ID": 28017, "date": "2022-11-24T00:00:00", "smokePM_pred": 2.81697344779968 }, "geometry": { "type": "Polygon", "coordinates": [ [ [ -97.403315760429066, 26.706555488241854 ], [ -97.381855944575577, 26.627173362272135 ], [ -97.470145336796094, 26.607905101150674 ], [ -97.491648365028993, 26.687220849008245 ], [ -97.403315760429066, 26.706555488241854 ] ] ] } },
{ "type": "Feature", "properties": { "ID": 28018, "date": "2022-11-24T00:00:00", "smokePM_pred": 3.2634856700897199 }, "geometry": { "type": "Polygon", "coordinates": [ [ [ -97.314894126924557, 26.725847837497057 ], [ -97.293477771177592, 26.646399456773427 ], [ -97.381855944575577, 26.627173362272135 ], [ -97.403315760429066, 26.706555488241854 ], [ -97.314894126924557, 26.725847837497057 ] ] ] } },
{ "type": "Feature", "properties": { "ID": 28019, "date": "2022-11-24T00:00:00", "smokePM_pred": 3.6411409378051798 }, "geometry": { "type": "Polygon", "coordinates": [ [ [ -97.226383595040133, 26.745097692124791 ], [ -97.205010947264242, 26.665583180826268 ], [ -97.293477771177592, 26.646399456773427 ], [ -97.314894126924557, 26.725847837497057 ], [ -97.226383595040133, 26.745097692124791 ] ] ] } },
{ "type": "Feature", "properties": { "ID": 28020, "date": "2022-11-24T00:00:00", "smokePM_pred": 3.7064352035522501 }, "geometry": { "type": "Polygon", "coordinates": [ [ [ -97.137784296582893, 26.764304847487281 ], [ -97.116455604774401, 26.684724330614532 ], [ -97.205010947264242, 26.665583180826268 ], [ -97.226383595040133, 26.745097692124791 ], [ -97.137784296582893, 26.764304847487281 ] ] ] } },
{ "type": "Feature", "properties": { "ID": 28532, "date": "2022-11-24T00:00:00", "smokePM_pred": 2.5513813495636 }, "geometry": { "type": "Polygon", "coordinates": [ [ [ -97.424864605400387, 26.785920682670614 ], [ -97.403315760429066, 26.706555488241854 ], [ -97.491648365028993, 26.687220849008245 ], [ -97.513240551624278, 26.766519589210752 ], [ -97.424864605400387, 26.785920682670614 ] ] ] } },
{ "type": "Feature", "properties": { "ID": 28533, "date": "2022-11-24T00:00:00", "smokePM_pred": 2.7947256565093999 }, "geometry": { "type": "Polygon", "coordinates": [ [ [ -97.336399381265181, 26.805279362880974 ], [ -97.314894126924557, 26.725847837497057 ], [ -97.403315760429066, 26.706555488241854 ], [ -97.424864605400387, 26.785920682670614 ], [ -97.336399381265181, 26.805279362880974 ] ] ] } },
{ "type": "Feature", "properties": { "ID": 28534, "date": "2022-11-24T00:00:00", "smokePM_pred": 3.23488426208496 }, "geometry": { "type": "Polygon", "coordinates": [ [ [ -97.247845009603068, 26.824595424369939 ], [ -97.226383595040133, 26.745097692124791 ], [ -97.314894126924557, 26.725847837497057 ], [ -97.336399381265181, 26.805279362880974 ], [ -97.247845009603068, 26.824595424369939 ] ] ] } },
{ "type": "Feature", "properties": { "ID": 29048, "date": "2022-11-24T00:00:00", "smokePM_pred": 2.6411488056182901 }, "geometry": { "type": "Polygon", "coordinates": [ [ [ -97.357993783347453, 26.884693954030105 ], [ -97.336399381265181, 26.805279362880974 ], [ -97.424864605400387, 26.785920682670614 ], [ -97.446502728497208, 26.865268866344376 ], [ -97.357993783347453, 26.884693954030105 ] ] ] } },
{ "type": "Feature", "properties": { "ID": 29049, "date": "2022-11-24T00:00:00", "smokePM_pred": 2.7032101154327401 }, "geometry": { "type": "Polygon", "coordinates": [ [ [ -97.269395440235584, 26.904076298986645 ], [ -97.247845009603068, 26.824595424369939 ], [ -97.336399381265181, 26.805279362880974 ], [ -97.357993783347453, 26.884693954030105 ], [ -97.269395440235584, 26.904076298986645 ] ] ] } },
{ "type": "Feature", "properties": { "ID": 29050, "date": "2022-11-24T00:00:00", "smokePM_pred": 2.7763381004333501 }, "geometry": { "type": "Polygon", "coordinates": [ [ [ -97.180707830696676, 26.92341569492676 ], [ -97.159201622086513, 26.843868661676048 ], [ -97.247845009603068, 26.824595424369939 ], [ -97.269395440235584, 26.904076298986645 ], [ -97.180707830696676, 26.92341569492676 ] ] ] } },
{ "type": "Feature", "properties": { "ID": 29564, "date": "2022-11-24T00:00:00", "smokePM_pred": 2.6240382194518999 }, "geometry": { "type": "Polygon", "coordinates": [ [ [ -97.291035137511273, 26.983540237088341 ], [ -97.269395440235584, 26.904076298986645 ], [ -97.357993783347453, 26.884693954030105 ], [ -97.379677583607474, 26.964091531737115 ], [ -97.291035137511273, 26.983540237088341 ] ] ] } },
{ "type": "Feature", "properties": { "ID": 29565, "date": "2022-11-24T00:00:00", "smokePM_pred": 2.6541717052459699 }, "geometry": { "type": "Polygon", "coordinates": [ [ [ -97.202303173118622, 27.002945868674669 ], [ -97.180707830696676, 26.92341569492676 ], [ -97.269395440235584, 26.904076298986645 ], [ -97.291035137511273, 26.983540237088341 ], [ -97.202303173118622, 27.002945868674669 ] ] ] } },
{ "type": "Feature", "properties": { "ID": 30080, "date": "2022-11-24T00:00:00", "smokePM_pred": 2.4503760337829599 }, "geometry": { "type": "Polygon", "coordinates": [ [ [ -97.223987901357233, 27.082459104042371 ], [ -97.202303173118622, 27.002945868674669 ], [ -97.291035137511273, 26.983540237088341 ], [ -97.31276435330048, 27.062987159475036 ], [ -97.223987901357233, 27.082459104042371 ] ] ] } },
{ "type": "Feature", "properties": { "ID": 71428, "date": "2022-11-24T00:00:00", "smokePM_pred": 5.6816387176513699 }, "geometry": { "type": "Polygon", "coordinates": [ [ [ -84.382289821234451, 36.354197622849227 ], [ -84.364800570089514, 36.267277886436595 ], [ -84.472103388648762, 36.253099638902704 ], [ -84.489702693966038, 36.3399745126518 ], [ -84.382289821234451, 36.354197622849227 ] ] ] } },
{ "type": "Feature", "properties": { "ID": 71429, "date": "2022-11-24T00:00:00", "smokePM_pred": 6.0511207580566397 }, "geometry": { "type": "Polygon", "coordinates": [ [ [ -84.274801858178279, 36.368328801539434 ], [ -84.257422983883728, 36.281364476498219 ], [ -84.364800570089514, 36.267277886436595 ], [ -84.382289821234451, 36.354197622849227 ], [ -84.274801858178279, 36.368328801539434 ] ] ] } },
{ "type": "Feature", "properties": { "ID": 71943, "date": "2022-11-24T00:00:00", "smokePM_pred": 4.8699712753295898 }, "geometry": { "type": "Polygon", "coordinates": [ [ [ -84.399854163057185, 36.441108797986558 ], [ -84.382289821234451, 36.354197622849227 ], [ -84.489702693966038, 36.3399745126518 ], [ -84.507377521809829, 36.426840730738299 ], [ -84.399854163057185, 36.441108797986558 ] ] ] } },
{ "type": "Feature", "properties": { "ID": 71944, "date": "2022-11-24T00:00:00", "smokePM_pred": 5.8724708557128897 }, "geometry": { "type": "Polygon", "coordinates": [ [ [ -84.29225538918277, 36.455284659269829 ], [ -84.274801858178279, 36.368328801539434 ], [ -84.382289821234451, 36.354197622849227 ], [ -84.399854163057185, 36.441108797986558 ], [ -84.29225538918277, 36.455284659269829 ] ] ] } },
{ "type": "Feature", "properties": { "ID": 72458, "date": "2022-11-24T00:00:00", "smokePM_pred": 5.3584542274475098 }, "geometry": { "type": "Polygon", "coordinates": [ [ [ -84.417493920357487, 36.528011371425059 ], [ -84.399854163057185, 36.441108797986558 ], [ -84.507377521809829, 36.426840730738299 ], [ -84.525128198457097, 36.513698252247906 ], [ -84.417493920357487, 36.528011371425059 ] ] ] } },
{ "type": "Feature", "properties": { "ID": 72459, "date": "2022-11-24T00:00:00", "smokePM_pred": 5.7535991668701199 }, "geometry": { "type": "Polygon", "coordinates": [ [ [ -84.309783900203968, 36.542232009755054 ], [ -84.29225538918277, 36.455284659269829 ], [ -84.399854163057185, 36.441108797986558 ], [ -84.417493920357487, 36.528011371425059 ], [ -84.309783900203968, 36.542232009755054 ] ] ] } },
{ "type": "Feature", "properties": { "ID": 72973, "date": "2022-11-24T00:00:00", "smokePM_pred": 4.6046423912048304 }, "geometry": { "type": "Polygon", "coordinates": [ [ [ -84.43520942007018, 36.614905302514657 ], [ -84.417493920357487, 36.528011371425059 ], [ -84.525128198457097, 36.513698252247906 ], [ -84.542955052326903, 36.600547036037078 ], [ -84.43520942007018, 36.614905302514657 ] ] ] } },
{ "type": "Feature", "properties": { "ID": 72974, "date": "2022-11-24T00:00:00", "smokePM_pred": 5.5383629798889196 }, "geometry": { "type": "Polygon", "coordinates": [ [ [ -84.327387716676469, 36.629170812837025 ], [ -84.309783900203968, 36.542232009755054 ], [ -84.417493920357487, 36.528011371425059 ], [ -84.43520942007018, 36.614905302514657 ], [ -84.327387716676469, 36.629170812837025 ] ] ] } },
{ "type": "Feature", "properties": { "ID": 72975, "date": "2022-11-24T00:00:00", "smokePM_pred": 5.5534172058105504 }, "geometry": { "type": "Polygon", "coordinates": [ [ [ -84.219490380613095, 36.643343351603562 ], [ -84.201998574956434, 36.556359952818639 ], [ -84.309783900203968, 36.542232009755054 ], [ -84.327387716676469, 36.629170812837025 ], [ -84.219490380613095, 36.643343351603562 ] ] ] } },
{ "type": "Feature", "properties": { "ID": 73488, "date": "2022-11-24T00:00:00", "smokePM_pred": 5.1917266845703098 }, "geometry": { "type": "Polygon", "coordinates": [ [ [ -84.453000991281073, 36.701790550376941 ], [ -84.43520942007018, 36.614905302514657 ], [ -84.542955052326903, 36.600547036037078 ], [ -84.560858413996343, 36.68738704073116 ], [ -84.453000991281073, 36.701790550376941 ] ] ] } },
{ "type": "Feature", "properties": { "ID": 73489, "date": "2022-11-24T00:00:00", "smokePM_pred": 4.7918672561645499 }, "geometry": { "type": "Polygon", "coordinates": [ [ [ -84.345067166178623, 36.716101028132016 ], [ -84.327387716676469, 36.629170812837025 ], [ -84.43520942007018, 36.614905302514657 ], [ -84.453000991281073, 36.701790550376941 ], [ -84.345067166178623, 36.716101028132016 ] ] ] } },
{ "type": "Feature", "properties": { "ID": 73490, "date": "2022-11-24T00:00:00", "smokePM_pred": 5.6758661270141602 }, "geometry": { "type": "Polygon", "coordinates": [ [ [ -84.237057378671025, 36.730318257609561 ], [ -84.219490380613095, 36.643343351603562 ], [ -84.327387716676469, 36.629170812837025 ], [ -84.345067166178623, 36.716101028132016 ], [ -84.237057378671025, 36.730318257609561 ] ] ] } },
{ "type": "Feature", "properties": { "ID": 106362, "date": "2022-11-24T00:00:00", "smokePM_pred": 3.5629467964172399 }, "geometry": { "type": "Polygon", "coordinates": [ [ [ -95.315807997147857, 40.360868758885616 ], [ -95.282055746287014, 40.28012119490986 ], [ -95.387434047881754, 40.254281825951729 ], [ -95.421281043453121, 40.33495598236491 ], [ -95.315807997147857, 40.360868758885616 ] ] ] } },
{ "type": "Feature", "properties": { "ID": 106363, "date": "2022-11-24T00:00:00", "smokePM_pred": 3.6091561317443799 }, "geometry": { "type": "Polygon", "coordinates": [ [ [ -95.210198188279733, 40.386698740453838 ], [ -95.17654126275518, 40.305877948097454 ], [ -95.282055746287014, 40.28012119490986 ], [ -95.315807997147857, 40.360868758885616 ], [ -95.210198188279733, 40.386698740453838 ] ] ] } },
{ "type": "Feature", "properties": { "ID": 106876, "date": "2022-11-24T00:00:00", "smokePM_pred": 3.5195457935333301 }, "geometry": { "type": "Polygon", "coordinates": [ [ [ -95.455265038137213, 40.415605335984296 ], [ -95.421281043453121, 40.33495598236491 ], [ -95.526617091211435, 40.30896077338511 ], [ -95.560695482851429, 40.389536390335692 ], [ -95.455265038137213, 40.415605335984296 ] ] ] } },
{ "type": "Feature", "properties": { "ID": 106877, "date": "2022-11-24T00:00:00", "smokePM_pred": 3.3764505386352499 }, "geometry": { "type": "Polygon", "coordinates": [ [ [ -95.349697011139227, 40.441591671571842 ], [ -95.315807997147857, 40.360868758885616 ], [ -95.421281043453121, 40.33495598236491 ], [ -95.455265038137213, 40.415605335984296 ], [ -95.349697011139227, 40.441591671571842 ] ] ] } },
{ "type": "Feature", "properties": { "ID": 106878, "date": "2022-11-24T00:00:00", "smokePM_pred": 3.6794097423553498 }, "geometry": { "type": "Polygon", "coordinates": [ [ [ -95.24399163754677, 40.467495033134462 ], [ -95.210198188279733, 40.386698740453838 ], [ -95.315807997147857, 40.360868758885616 ], [ -95.349697011139227, 40.441591671571842 ], [ -95.24399163754677, 40.467495033134462 ] ] ] } },
{ "type": "Feature", "properties": { "ID": 106879, "date": "2022-11-24T00:00:00", "smokePM_pred": 3.4687540531158398 }, "geometry": { "type": "Polygon", "coordinates": [ [ [ -95.13814915647616, 40.493315056975923 ], [ -95.104451856238484, 40.412445564846216 ], [ -95.210198188279733, 40.386698740453838 ], [ -95.24399163754677, 40.467495033134462 ], [ -95.13814915647616, 40.493315056975923 ] ] ] } },
{ "type": "Feature", "properties": { "ID": 106880, "date": "2022-11-24T00:00:00", "smokePM_pred": 3.5621585845947301 }, "geometry": { "type": "Polygon", "coordinates": [ [ [ -95.032169810481562, 40.519051379679347 ], [ -94.998569243830389, 40.438108870120914 ], [ -95.104451856238484, 40.412445564846216 ], [ -95.13814915647616, 40.493315056975923 ], [ -95.032169810481562, 40.519051379679347 ] ] ] } },
{ "type": "Feature", "properties": { "ID": 107390, "date": "2022-11-24T00:00:00", "smokePM_pred": 3.6642420291900599 }, "geometry": { "type": "Polygon", "coordinates": [ [ [ -95.59491168961604, 40.470086928469364 ], [ -95.560695482851429, 40.389536390335692 ], [ -95.665988113008495, 40.363385198846025 ], [ -95.700298362174564, 40.443861672265733 ], [ -95.59491168961604, 40.470086928469364 ] ] ] } },
{ "type": "Feature", "properties": { "ID": 107391, "date": "2022-11-24T00:00:00", "smokePM_pred": 3.8986959457397501 }, "geometry": { "type": "Polygon", "coordinates": [ [ [ -95.489386615674448, 40.496229762822566 ], [ -95.455265038137213, 40.415605335984296 ], [ -95.560695482851429, 40.389536390335692 ], [ -95.59491168961604, 40.470086928469364 ], [ -95.489386615674448, 40.496229762822566 ] ] ] } },
{ "type": "Feature", "properties": { "ID": 107392, "date": "2022-11-24T00:00:00", "smokePM_pred": 3.5935533046722399 }, "geometry": { "type": "Polygon", "coordinates": [ [ [ -95.383723372296231, 40.522289809631118 ], [ -95.349697011139227, 40.441591671571842 ], [ -95.455265038137213, 40.415605335984296 ], [ -95.489386615674448, 40.496229762822566 ], [ -95.383723372296231, 40.522289809631118 ] ] ] } },
{ "type": "Feature", "properties": { "ID": 107393, "date": "2022-11-24T00:00:00", "smokePM_pred": 3.6863198280334499 }, "geometry": { "type": "Polygon", "coordinates": [ [ [ -95.277922194864942, 40.548266703454516 ], [ -95.24399163754677, 40.467495033134462 ], [ -95.349697011139227, 40.441591671571842 ], [ -95.383723372296231, 40.522289809631118 ], [ -95.277922194864942, 40.548266703454516 ] ] ] } },
{ "type": "Feature", "properties": { "ID": 107394, "date": "2022-11-24T00:00:00", "smokePM_pred": 3.4278714656829798 }, "geometry": { "type": "Polygon", "coordinates": [ [ [ -95.171983322212597, 40.574160079117547 ], [ -95.13814915647616, 40.493315056975923 ], [ -95.24399163754677, 40.467495033134462 ], [ -95.277922194864942, 40.548266703454516 ], [ -95.171983322212597, 40.574160079117547 ] ] ] } },
{ "type": "Feature", "properties": { "ID": 107395, "date": "2022-11-24T00:00:00", "smokePM_pred": 3.42517042160034 }, "geometry": { "type": "Polygon", "coordinates": [ [ [ -95.065906996630503, 40.599969571722092 ], [ -95.032169810481562, 40.519051379679347 ], [ -95.13814915647616, 40.493315056975923 ], [ -95.171983322212597, 40.574160079117547 ], [ -95.065906996630503, 40.599969571722092 ] ] ] } },
{ "type": "Feature", "properties": { "ID": 107396, "date": "2022-11-24T00:00:00", "smokePM_pred": 3.4278817176818799 }, "geometry": { "type": "Polygon", "coordinates": [ [ [ -94.959693463880342, 40.625694816658829 ], [ -94.926053845565747, 40.544703638118882 ], [ -95.032169810481562, 40.519051379679347 ], [ -95.065906996630503, 40.599969571722092 ], [ -94.959693463880342, 40.625694816658829 ] ] ] } },
{ "type": "Feature", "properties": { "ID": 107905, "date": "2022-11-24T00:00:00", "smokePM_pred": 3.6287522315978999 }, "geometry": { "type": "Polygon", "coordinates": [ [ [ -95.629266298334727, 40.550612262418326 ], [ -95.59491168961604, 40.470086928469364 ], [ -95.700298362174564, 40.443861672265733 ], [ -95.734747241813352, 40.524312788942794 ], [ -95.629266298334727, 40.550612262418326 ] ] ] } },
{ "type": "Feature", "properties": { "ID": 107906, "date": "2022-11-24T00:00:00", "smokePM_pred": 3.7555632591247599 }, "geometry": { "type": "Polygon", "coordinates": [ [ [ -95.523646363221189, 40.576829138161379 ], [ -95.489386615674448, 40.496229762822566 ], [ -95.59491168961604, 40.470086928469364 ], [ -95.629266298334727, 40.550612262418326 ], [ -95.523646363221189, 40.576829138161379 ] ] ] } },
{ "type": "Feature", "properties": { "ID": 107907, "date": "2022-11-24T00:00:00", "smokePM_pred": 3.8323225975036599 }, "geometry": { "type": "Polygon", "coordinates": [ [ [ -95.417887668080979, 40.602963048997402 ], [ -95.383723372296231, 40.522289809631118 ], [ -95.489386615674448, 40.496229762822566 ], [ -95.523646363221189, 40.576829138161379 ], [ -95.417887668080979, 40.602963048997402 ] ] ] } },
{ "type": "Feature", "properties": { "ID": 107908, "date": "2022-11-24T00:00:00", "smokePM_pred": 3.81703901290894 }, "geometry": { "type": "Polygon", "coordinates": [ [ [ -95.311990447980776, 40.629013628003101 ], [ -95.277922194864942, 40.548266703454516 ], [ -95.383723372296231, 40.522289809631118 ], [ -95.417887668080979, 40.602963048997402 ], [ -95.311990447980776, 40.629013628003101 ] ] ] } },
{ "type": "Feature", "properties": { "ID": 107909, "date": "2022-11-24T00:00:00", "smokePM_pred": 3.4464025497436501 }, "geometry": { "type": "Polygon", "coordinates": [ [ [ -95.205954941457151, 40.654980508518094 ], [ -95.171983322212597, 40.574160079117547 ], [ -95.277922194864942, 40.548266703454516 ], [ -95.311990447980776, 40.629013628003101 ], [ -95.205954941457151, 40.654980508518094 ] ] ] } },
{ "type": "Feature", "properties": { "ID": 107910, "date": "2022-11-24T00:00:00", "smokePM_pred": 3.4641277790069598 }, "geometry": { "type": "Polygon", "coordinates": [ [ [ -95.099781390527738, 40.680863324156853 ], [ -95.065906996630503, 40.599969571722092 ], [ -95.171983322212597, 40.574160079117547 ], [ -95.205954941457151, 40.654980508518094 ], [ -95.099781390527738, 40.680863324156853 ] ] ] } },
{ "type": "Feature", "properties": { "ID": 107911, "date": "2022-11-24T00:00:00", "smokePM_pred": 3.5249407291412398 }, "geometry": { "type": "Polygon", "coordinates": [ [ [ -94.993470040702277, 40.706661708820299 ], [ -94.959693463880342, 40.625694816658829 ], [ -95.065906996630503, 40.599969571722092 ], [ -95.099781390527738, 40.680863324156853 ], [ -94.993470040702277, 40.706661708820299 ] ] ] } },
{ "type": "Feature", "properties": { "ID": 108419, "date": "2022-11-24T00:00:00", "smokePM_pred": 3.6377470493316699 }, "geometry": { "type": "Polygon", "coordinates": [ [ [ -95.769335341820778, 40.604738422121549 ], [ -95.734747241813352, 40.524312788942794 ], [ -95.840088965495923, 40.497931085148934 ], [ -95.874770971254833, 40.578282173581002 ], [ -95.769335341820778, 40.604738422121549 ] ] ] } },
{ "type": "Feature", "properties": { "ID": 108420, "date": "2022-11-24T00:00:00", "smokePM_pred": 3.8912317752838099 }, "geometry": { "type": "Polygon", "coordinates": [ [ [ -95.6637598992628, 40.631112266075874 ], [ -95.629266298334727, 40.550612262418326 ], [ -95.734747241813352, 40.524312788942794 ], [ -95.769335341820778, 40.604738422121549 ], [ -95.6637598992628, 40.631112266075874 ] ] ] } },
{ "type": "Feature", "properties": { "ID": 108421, "date": "2022-11-24T00:00:00", "smokePM_pred": 3.7667217254638699 }, "geometry": { "type": "Polygon", "coordinates": [ [ [ -95.558044871371052, 40.657403336545904 ], [ -95.523646363221189, 40.576829138161379 ], [ -95.629266298334727, 40.550612262418326 ], [ -95.6637598992628, 40.631112266075874 ], [ -95.558044871371052, 40.657403336545904 ] ] ] } },
{ "type": "Feature", "properties": { "ID": 108422, "date": "2022-11-24T00:00:00", "smokePM_pred": 3.7643091678619398 }, "geometry": { "type": "Polygon", "coordinates": [ [ [ -95.452190489404032, 40.683611264870592 ], [ -95.417887668080979, 40.602963048997402 ], [ -95.523646363221189, 40.576829138161379 ], [ -95.558044871371052, 40.657403336545904 ], [ -95.452190489404032, 40.683611264870592 ] ] ] } },
{ "type": "Feature", "properties": { "ID": 108423, "date": "2022-11-24T00:00:00", "smokePM_pred": 3.5793414115905802 }, "geometry": { "type": "Polygon", "coordinates": [ [ [ -95.346196988100189, 40.709735682637714 ], [ -95.311990447980776, 40.629013628003101 ], [ -95.417887668080979, 40.602963048997402 ], [ -95.452190489404032, 40.683611264870592 ], [ -95.346196988100189, 40.709735682637714 ] ] ] } },
{ "type": "Feature", "properties": { "ID": 108424, "date": "2022-11-24T00:00:00", "smokePM_pred": 3.4130613803863499 }, "geometry": { "type": "Polygon", "coordinates": [ [ [ -95.240064605689525, 40.735776221695595 ], [ -95.205954941457151, 40.654980508518094 ], [ -95.311990447980776, 40.629013628003101 ], [ -95.346196988100189, 40.709735682637714 ], [ -95.240064605689525, 40.735776221695595 ] ] ] } },
{ "type": "Feature", "properties": { "ID": 108425, "date": "2022-11-24T00:00:00", "smokePM_pred": 3.4272942543029798 }, "geometry": { "type": "Polygon", "coordinates": [ [ [ -95.133793583904833, 40.761732514164883 ], [ -95.099781390527738, 40.680863324156853 ], [ -95.205954941457151, 40.654980508518094 ], [ -95.240064605689525, 40.735776221695595 ], [ -95.133793583904833, 40.761732514164883 ] ] ] } },
{ "type": "Feature", "properties": { "ID": 108426, "date": "2022-11-24T00:00:00", "smokePM_pred": 3.61121702194214 }, "geometry": { "type": "Polygon", "coordinates": [ [ [ -95.027384167993091, 40.787604192450573 ], [ -94.993470040702277, 40.706661708820299 ], [ -95.099781390527738, 40.680863324156853 ], [ -95.133793583904833, 40.761732514164883 ], [ -95.027384167993091, 40.787604192450573 ] ] ] } },
{ "type": "Feature", "properties": { "ID": 108934, "date": "2022-11-24T00:00:00", "smokePM_pred": 3.79858493804932 }, "geometry": { "type": "Polygon", "coordinates": [ [ [ -95.804063255528234, 40.68513844429939 ], [ -95.769335341820778, 40.604738422121549 ], [ -95.874770971254833, 40.578282173581002 ], [ -95.909593015045431, 40.658607497293218 ], [ -95.804063255528234, 40.68513844429939 ] ] ] } },
{ "type": "Feature", "properties": { "ID": 108935, "date": "2022-11-24T00:00:00", "smokePM_pred": 3.81691217422485 }, "geometry": { "type": "Polygon", "coordinates": [ [ [ -95.698393086102698, 40.711586812590738 ], [ -95.6637598992628, 40.631112266075874 ], [ -95.769335341820778, 40.604738422121549 ], [ -95.804063255528234, 40.68513844429939 ], [ -95.698393086102698, 40.711586812590738 ] ] ] } },
{ "type": "Feature", "properties": { "ID": 108936, "date": "2022-11-24T00:00:00", "smokePM_pred": 3.6716787815093999 }, "geometry": { "type": "Polygon", "coordinates": [ [ [ -95.59258273417619, 40.737952231779147 ], [ -95.558044871371052, 40.657403336545904 ], [ -95.6637598992628, 40.631112266075874 ], [ -95.698393086102698, 40.711586812590738 ], [ -95.59258273417619, 40.737952231779147 ] ] ] } },
{ "type": "Feature", "properties": { "ID": 108937, "date": "2022-11-24T00:00:00", "smokePM_pred": 3.79387760162354 }, "geometry": { "type": "Polygon", "coordinates": [ [ [ -95.486632430645813, 40.764234331710959 ], [ -95.452190489404032, 40.683611264870592 ], [ -95.558044871371052, 40.657403336545904 ], [ -95.59258273417619, 40.737952231779147 ], [ -95.486632430645813, 40.764234331710959 ] ] ] } },
{ "type": "Feature", "properties": { "ID": 108938, "date": "2022-11-24T00:00:00", "smokePM_pred": 3.78911352157593 }, "geometry": { "type": "Polygon", "coordinates": [ [ [ -95.380542409910291, 40.790432742478806 ], [ -95.346196988100189, 40.709735682637714 ], [ -95.452190489404032, 40.683611264870592 ], [ -95.486632430645813, 40.764234331710959 ], [ -95.380542409910291, 40.790432742478806 ] ] ] } },
{ "type": "Feature", "properties": { "ID": 108939, "date": "2022-11-24T00:00:00", "smokePM_pred": 3.3817167282104501 }, "geometry": { "type": "Polygon", "coordinates": [ [ [ -95.274312909881601, 40.816547094433389 ], [ -95.240064605689525, 40.735776221695595 ], [ -95.346196988100189, 40.709735682637714 ], [ -95.380542409910291, 40.790432742478806 ], [ -95.274312909881601, 40.816547094433389 ] ] ] } },
{ "type": "Feature", "properties": { "ID": 108940, "date": "2022-11-24T00:00:00", "smokePM_pred": 3.23859786987305 }, "geometry": { "type": "Polygon", "coordinates": [ [ [ -95.167944171996538, 40.842577018195406 ], [ -95.133793583904833, 40.761732514164883 ], [ -95.240064605689525, 40.735776221695595 ], [ -95.274312909881601, 40.816547094433389 ], [ -95.167944171996538, 40.842577018195406 ] ] ] } },
{ "type": "Feature", "properties": { "ID": 108941, "date": "2022-11-24T00:00:00", "smokePM_pred": 3.4994709491729701 }, "geometry": { "type": "Polygon", "coordinates": [ [ [ -95.061436441228153, 40.868522144667487 ], [ -95.027384167993091, 40.787604192450573 ], [ -95.133793583904833, 40.761732514164883 ], [ -95.167944171996538, 40.842577018195406 ], [ -95.061436441228153, 40.868522144667487 ] ] ] } },
{ "type": "Feature", "properties": { "ID": 109449, "date": "2022-11-24T00:00:00", "smokePM_pred": 3.9635357856750502 }, "geometry": { "type": "Polygon", "coordinates": [ [ [ -95.838931579723663, 40.765512727221136 ], [ -95.804063255528234, 40.68513844429939 ], [ -95.909593015045431, 40.658607497293218 ], [ -95.944555693251544, 40.738906927379709 ], [ -95.838931579723663, 40.765512727221136 ] ] ] } },
{ "type": "Feature", "properties": { "ID": 109450, "date": "2022-11-24T00:00:00", "smokePM_pred": 3.8911936283111599 }, "geometry": { "type": "Polygon", "coordinates": [ [ [ -95.733166456025188, 40.792035774361487 ], [ -95.698393086102698, 40.711586812590738 ], [ -95.804063255528234, 40.68513844429939 ], [ -95.838931579723663, 40.765512727221136 ], [ -95.733166456025188, 40.792035774361487 ] ] ] } },
{ "type": "Feature", "properties": { "ID": 109451, "date": "2022-11-24T00:00:00", "smokePM_pred": 3.8205385208129901 }, "geometry": { "type": "Polygon", "coordinates": [ [ [ -95.627260549168767, 40.818475696916416 ], [ -95.59258273417619, 40.737952231779147 ], [ -95.698393086102698, 40.711586812590738 ], [ -95.733166456025188, 40.792035774361487 ], [ -95.627260549168767, 40.818475696916416 ] ] ] } },
{ "type": "Feature", "properties": { "ID": 109452, "date": "2022-11-24T00:00:00", "smokePM_pred": 3.8031454086303702 }, "geometry": { "type": "Polygon", "coordinates": [ [ [ -95.52121408967831, 40.844832123233488 ], [ -95.486632430645813, 40.764234331710959 ], [ -95.59258273417619, 40.737952231779147 ], [ -95.627260549168767, 40.818475696916416 ], [ -95.52121408967831, 40.844832123233488 ] ] ] } },
{ "type": "Feature", "properties": { "ID": 109453, "date": "2022-11-24T00:00:00", "smokePM_pred": 3.5373258590698202 }, "geometry": { "type": "Polygon", "coordinates": [ [ [ -95.415027311601051, 40.871104681903958 ], [ -95.380542409910291, 40.790432742478806 ], [ -95.486632430645813, 40.764234331710959 ], [ -95.52121408967831, 40.844832123233488 ], [ -95.415027311601051, 40.871104681903958 ] ] ] } },
{ "type": "Feature", "properties": { "ID": 109454, "date": "2022-11-24T00:00:00", "smokePM_pred": 3.18773365020752 }, "geometry": { "type": "Polygon", "coordinates": [ [ [ -95.308700452519432, 40.897293001774678 ], [ -95.274312909881601, 40.816547094433389 ], [ -95.380542409910291, 40.790432742478806 ], [ -95.415027311601051, 40.871104681903958 ], [ -95.308700452519432, 40.897293001774678 ] ] ] } },
{ "type": "Feature", "properties": { "ID": 109455, "date": "2022-11-24T00:00:00", "smokePM_pred": 3.21224737167358 }, "geometry": { "type": "Polygon", "coordinates": [ [ [ -95.202233753562822, 40.923396711960002 ], [ -95.167944171996538, 40.842577018195406 ], [ -95.274312909881601, 40.816547094433389 ], [ -95.308700452519432, 40.897293001774678 ], [ -95.202233753562822, 40.923396711960002 ] ] ] } },
{ "type": "Feature", "properties": { "ID": 109456, "date": "2022-11-24T00:00:00", "smokePM_pred": 3.2100484371185298 }, "geometry": { "type": "Polygon", "coordinates": [ [ [ -95.095627459419092, 40.94941544185388 ], [ -95.061436441228153, 40.868522144667487 ], [ -95.167944171996538, 40.842577018195406 ], [ -95.202233753562822, 40.923396711960002 ], [ -95.095627459419092, 40.94941544185388 ] ] ] } },
{ "type": "Feature", "properties": { "ID": 109964, "date": "2022-11-24T00:00:00", "smokePM_pred": 3.9690275192260702 }, "geometry": { "type": "Polygon", "coordinates": [ [ [ -95.873940914672858, 40.845861141873456 ], [ -95.838931579723663, 40.765512727221136 ], [ -95.944555693251544, 40.738906927379709 ], [ -95.97965960572283, 40.81918033417405 ], [ -95.873940914672858, 40.845861141873456 ] ] ] } },
{ "type": "Feature", "properties": { "ID": 109965, "date": "2022-11-24T00:00:00", "smokePM_pred": 3.90111637115479 }, "geometry": { "type": "Polygon", "coordinates": [ [ [ -95.768080609690884, 40.872459023030899 ], [ -95.733166456025188, 40.792035774361487 ], [ -95.838931579723663, 40.765512727221136 ], [ -95.873940914672858, 40.845861141873456 ], [ -95.768080609690884, 40.872459023030899 ] ] ] } },
{ "type": "Feature", "properties": { "ID": 109966, "date": "2022-11-24T00:00:00", "smokePM_pred": 4.0265231132507298 }, "geometry": { "type": "Polygon", "coordinates": [ [ [ -95.662078917382615, 40.898973604259666 ], [ -95.627260549168767, 40.818475696916416 ], [ -95.733166456025188, 40.792035774361487 ], [ -95.768080609690884, 40.872459023030899 ], [ -95.662078917382615, 40.898973604259666 ] ] ] } },
{ "type": "Feature", "properties": { "ID": 109967, "date": "2022-11-24T00:00:00", "smokePM_pred": 4.0591092109680202 }, "geometry": { "type": "Polygon", "coordinates": [ [ [ -95.55593606788679, 40.925404512402302 ], [ -95.52121408967831, 40.844832123233488 ], [ -95.627260549168767, 40.818475696916416 ], [ -95.662078917382615, 40.898973604259666 ], [ -95.55593606788679, 40.925404512402302 ] ] ] } },
{ "type": "Feature", "properties": { "ID": 109968, "date": "2022-11-24T00:00:00", "smokePM_pred": 3.6268630027771001 }, "geometry": { "type": "Polygon", "coordinates": [ [ [ -95.449652294887301, 40.951751374542447 ], [ -95.415027311601051, 40.871104681903958 ], [ -95.52121408967831, 40.844832123233488 ], [ -95.55593606788679, 40.925404512402302 ], [ -95.449652294887301, 40.951751374542447 ] ] ] } },
{ "type": "Feature", "properties": { "ID": 109969, "date": "2022-11-24T00:00:00", "smokePM_pred": 3.1972281932830802 }, "geometry": { "type": "Polygon", "coordinates": [ [ [ -95.343227835625342, 40.97801381801677 ], [ -95.308700452519432, 40.897293001774678 ], [ -95.415027311601051, 40.871104681903958 ], [ -95.449652294887301, 40.951751374542447 ], [ -95.343227835625342, 40.97801381801677 ] ] ] } },
{ "type": "Feature", "properties": { "ID": 109970, "date": "2022-11-24T00:00:00", "smokePM_pred": 3.2406239509582502 }, "geometry": { "type": "Polygon", "coordinates": [ [ [ -95.236662930911237, 41.004191470426996 ], [ -95.202233753562822, 40.923396711960002 ], [ -95.308700452519432, 40.897293001774678 ], [ -95.343227835625342, 40.97801381801677 ], [ -95.236662930911237, 41.004191470426996 ] ] ] } },
{ "type": "Feature", "properties": { "ID": 109971, "date": "2022-11-24T00:00:00", "smokePM_pred": 3.2931828498840301 }, "geometry": { "type": "Polygon", "coordinates": [ [ [ -95.129957825136216, 41.030283959651975 ], [ -95.095627459419092, 40.94941544185388 ], [ -95.202233753562822, 40.923396711960002 ], [ -95.236662930911237, 41.004191470426996 ], [ -95.129957825136216, 41.030283959651975 ] ] ] } },
{ "type": "Feature", "properties": { "ID": 110479, "date": "2022-11-24T00:00:00", "smokePM_pred": 4.0343685150146502 }, "geometry": { "type": "Polygon", "coordinates": [ [ [ -95.909091864140848, 40.926183558479018 ], [ -95.873940914672858, 40.845861141873456 ], [ -95.97965960572283, 40.81918033417405 ], [ -96.014905355795847, 40.899427587243466 ], [ -95.909091864140848, 40.926183558479018 ] ] ] } },
{ "type": "Feature", "properties": { "ID": 110480, "date": "2022-11-24T00:00:00", "smokePM_pred": 4.4222955703735396 }, "geometry": { "type": "Polygon", "coordinates": [ [ [ -95.803136151271701, 40.952856429480171 ], [ -95.768080609690884, 40.872459023030899 ], [ -95.873940914672858, 40.845861141873456 ], [ -95.909091864140848, 40.926183558479018 ], [ -95.803136151271701, 40.952856429480171 ] ] ] } },
{ "type": "Feature", "properties": { "ID": 110481, "date": "2022-11-24T00:00:00", "smokePM_pred": 4.2259030342101997 }, "geometry": { "type": "Polygon", "coordinates": [ [ [ -95.697038443374908, 40.979445825351711 ], [ -95.662078917382615, 40.898973604259666 ], [ -95.768080609690884, 40.872459023030899 ], [ -95.803136151271701, 40.952856429480171 ], [ -95.697038443374908, 40.979445825351711 ] ] ] } },
{ "type": "Feature", "properties": { "ID": 110482, "date": "2022-11-24T00:00:00", "smokePM_pred": 4.1302442550659197 }, "geometry": { "type": "Polygon", "coordinates": [ [ [ -95.590798970191784, 41.005951371424871 ], [ -95.55593606788679, 40.925404512402302 ], [ -95.662078917382615, 40.898973604259666 ], [ -95.697038443374908, 40.979445825351711 ], [ -95.590798970191784, 41.005951371424871 ] ] ] } },
{ "type": "Feature", "properties": { "ID": 110483, "date": "2022-11-24T00:00:00", "smokePM_pred": 3.9999337196350102 }, "geometry": { "type": "Polygon", "coordinates": [ [ [ -95.4844179650309, 41.032372693269394 ], [ -95.449652294887301, 40.951751374542447 ], [ -95.55593606788679, 40.925404512402302 ], [ -95.590798970191784, 41.005951371424871 ], [ -95.4844179650309, 41.032372693269394 ] ] ] } },
{ "type": "Feature", "properties": { "ID": 110484, "date": "2022-11-24T00:00:00", "smokePM_pred": 3.7802033424377401 }, "geometry": { "type": "Polygon", "coordinates": [ [ [ -95.37789566478024, 41.05870941670544 ], [ -95.343227835625342, 40.97801381801677 ], [ -95.449652294887301, 40.951751374542447 ], [ -95.4844179650309, 41.032372693269394 ], [ -95.37789566478024, 41.05870941670544 ] ] ] } },
{ "type": "Feature", "properties": { "ID": 110485, "date": "2022-11-24T00:00:00", "smokePM_pred": 3.4214522838592498 }, "geometry": { "type": "Polygon", "coordinates": [ [ [ -95.271232309919313, 41.084961167815742 ], [ -95.236662930911237, 41.004191470426996 ], [ -95.343227835625342, 40.97801381801677 ], [ -95.37789566478024, 41.05870941670544 ], [ -95.271232309919313, 41.084961167815742 ] ] ] } },
{ "type": "Feature", "properties": { "ID": 110994, "date": "2022-11-24T00:00:00", "smokePM_pred": 4.3995251655578604 }, "geometry": { "type": "Polygon", "coordinates": [ [ [ -95.94438503541339, 41.006479846490784 ], [ -95.909091864140848, 40.926183558479018 ], [ -96.014905355795847, 40.899427587243466 ], [ -96.05029355031543, 40.979648555383129 ], [ -95.94438503541339, 41.006479846490784 ] ] ] } },
{ "type": "Feature", "properties": { "ID": 110995, "date": "2022-11-24T00:00:00", "smokePM_pred": 4.90708684921265 }, "geometry": { "type": "Polygon", "coordinates": [ [ [ -95.838333688472659, 41.033227863823271 ], [ -95.803136151271701, 40.952856429480171 ], [ -95.909091864140848, 40.926183558479018 ], [ -95.94438503541339, 41.006479846490784 ], [ -95.838333688472659, 41.033227863823271 ] ] ] } },
{ "type": "Feature", "properties": { "ID": 110996, "date": "2022-11-24T00:00:00", "smokePM_pred": 4.6211423873901403 }, "geometry": { "type": "Polygon", "coordinates": [ [ [ -95.73213973524804, 41.059892230970519 ], [ -95.697038443374908, 40.979445825351711 ], [ -95.803136151271701, 40.952856429480171 ], [ -95.838333688472659, 41.033227863823271 ], [ -95.73213973524804, 41.059892230970519 ] ] ] } },
{ "type": "Feature", "properties": { "ID": 110997, "date": "2022-11-24T00:00:00", "smokePM_pred": 4.2607526779174796 }, "geometry": { "type": "Polygon", "coordinates": [ [ [ -95.625803405071139, 41.086472571746306 ], [ -95.590798970191784, 41.005951371424871 ], [ -95.697038443374908, 40.979445825351711 ], [ -95.73213973524804, 41.059892230970519 ], [ -95.625803405071139, 41.086472571746306 ] ] ] } },
{ "type": "Feature", "properties": { "ID": 110998, "date": "2022-11-24T00:00:00", "smokePM_pred": 4.14589500427246 }, "geometry": { "type": "Polygon", "coordinates": [ [ [ -95.519324930862879, 41.112968510200112 ], [ -95.4844179650309, 41.032372693269394 ], [ -95.590798970191784, 41.005951371424871 ], [ -95.625803405071139, 41.086472571746306 ], [ -95.519324930862879, 41.112968510200112 ] ] ] } },
{ "type": "Feature", "properties": { "ID": 110999, "date": "2022-11-24T00:00:00", "smokePM_pred": 3.7098171710968 }, "geometry": { "type": "Polygon", "coordinates": [ [ [ -95.412704549145971, 41.139379670629218 ], [ -95.37789566478024, 41.05870941670544 ], [ -95.4844179650309, 41.032372693269394 ], [ -95.519324930862879, 41.112968510200112 ], [ -95.412704549145971, 41.139379670629218 ] ] ] } },
{ "type": "Feature", "properties": { "ID": 111000, "date": "2022-11-24T00:00:00", "smokePM_pred": 3.4907267093658398 }, "geometry": { "type": "Polygon", "coordinates": [ [ [ -95.305942500057199, 41.165705677590886 ], [ -95.271232309919313, 41.084961167815742 ], [ -95.37789566478024, 41.05870941670544 ], [ -95.412704549145971, 41.139379670629218 ], [ -95.305942500057199, 41.165705677590886 ] ] ] } },
{ "type": "Feature", "properties": { "ID": 111509, "date": "2022-11-24T00:00:00", "smokePM_pred": 4.5810027122497603 }, "geometry": { "type": "Polygon", "coordinates": [ [ [ -95.979821039318594, 41.086749874586268 ], [ -95.94438503541339, 41.006479846490784 ], [ -96.05029355031543, 40.979648555383129 ], [ -96.085824799656223, 41.059843106610344 ], [ -95.979821039318594, 41.086749874586268 ] ] ] } },
{ "type": "Feature", "properties": { "ID": 111510, "date": "2022-11-24T00:00:00", "smokePM_pred": 4.7932791709899902 }, "geometry": { "type": "Polygon", "coordinates": [ [ [ -95.873673832553649, 41.113573195401017 ], [ -95.838333688472659, 41.033227863823271 ], [ -95.94438503541339, 41.006479846490784 ], [ -95.979821039318594, 41.086749874586268 ], [ -95.873673832553649, 41.113573195401017 ] ] ] } },
{ "type": "Feature", "properties": { "ID": 111511, "date": "2022-11-24T00:00:00", "smokePM_pred": 4.8359603881835902 }, "geometry": { "type": "Polygon", "coordinates": [ [ [ -95.767383404671719, 41.140312691123491 ], [ -95.73213973524804, 41.059892230970519 ], [ -95.838333688472659, 41.033227863823271 ], [ -95.873673832553649, 41.113573195401017 ], [ -95.767383404671719, 41.140312691123491 ] ] ] } },
{ "type": "Feature", "properties": { "ID": 111512, "date": "2022-11-24T00:00:00", "smokePM_pred": 4.4089221954345703 }, "geometry": { "type": "Polygon", "coordinates": [ [ [ -95.660949984582146, 41.166967984043602 ], [ -95.625803405071139, 41.086472571746306 ], [ -95.73213973524804, 41.059892230970519 ], [ -95.767383404671719, 41.140312691123491 ], [ -95.660949984582146, 41.166967984043602 ] ] ] } },
{ "type": "Feature", "properties": { "ID": 111513, "date": "2022-11-24T00:00:00", "smokePM_pred": 4.3063182830810502 }, "geometry": { "type": "Polygon", "coordinates": [ [ [ -95.55437380480582, 41.193538696684243 ], [ -95.519324930862879, 41.112968510200112 ], [ -95.625803405071139, 41.086472571746306 ], [ -95.660949984582146, 41.166967984043602 ], [ -95.55437380480582, 41.193538696684243 ] ] ] } },
{ "type": "Feature", "properties": { "ID": 111514, "date": "2022-11-24T00:00:00", "smokePM_pred": 4.0243296623229998 }, "geometry": { "type": "Polygon", "coordinates": [ [ [ -95.447655101487925, 41.220024451813472 ], [ -95.412704549145971, 41.139379670629218 ], [ -95.519324930862879, 41.112968510200112 ], [ -95.55437380480582, 41.193538696684243 ], [ -95.447655101487925, 41.220024451813472 ] ] ] } },
{ "type": "Feature", "properties": { "ID": 111515, "date": "2022-11-24T00:00:00", "smokePM_pred": 3.7459235191345202 }, "geometry": { "type": "Polygon", "coordinates": [ [ [ -95.340794114410386, 41.246424872456636 ], [ -95.305942500057199, 41.165705677590886 ], [ -95.412704549145971, 41.139379670629218 ], [ -95.447655101487925, 41.220024451813472 ], [ -95.340794114410386, 41.246424872456636 ] ] ] } },
{ "type": "Feature", "properties": { "ID": 112025, "date": "2022-11-24T00:00:00", "smokePM_pred": 4.87801170349121 }, "geometry": { "type": "Polygon", "coordinates": [ [ [ -95.909157198351394, 41.193892292775281 ], [ -95.873673832553649, 41.113573195401017 ], [ -95.979821039318594, 41.086749874586268 ], [ -96.015400490248808, 41.166993510661548 ], [ -95.909157198351394, 41.193892292775281 ] ] ] } },
{ "type": "Feature", "properties": { "ID": 112026, "date": "2022-11-24T00:00:00", "smokePM_pred": 4.6393008232116699 }, "geometry": { "type": "Polygon", "coordinates": [ [ [ -95.80277006690504, 41.220707075041432 ], [ -95.767383404671719, 41.140312691123491 ], [ -95.873673832553649, 41.113573195401017 ], [ -95.909157198351394, 41.193892292775281 ], [ -95.80277006690504, 41.220707075041432 ] ] ] } },
{ "type": "Feature", "properties": { "ID": 112027, "date": "2022-11-24T00:00:00", "smokePM_pred": 4.0612812042236301 }, "geometry": { "type": "Polygon", "coordinates": [ [ [ -95.696239324383953, 41.24743747821968 ], [ -95.660949984582146, 41.166967984043602 ], [ -95.767383404671719, 41.140312691123491 ], [ -95.80277006690504, 41.220707075041432 ], [ -95.696239324383953, 41.24743747821968 ] ] ] } },
{ "type": "Feature", "properties": { "ID": 112028, "date": "2022-11-24T00:00:00", "smokePM_pred": 4.1492457389831499 }, "geometry": { "type": "Polygon", "coordinates": [ [ [ -95.589565202896438, 41.274083123299988 ], [ -95.55437380480582, 41.193538696684243 ], [ -95.660949984582146, 41.166967984043602 ], [ -95.696239324383953, 41.24743747821968 ], [ -95.589565202896438, 41.274083123299988 ] ] ] } },
{ "type": "Feature", "properties": { "ID": 112029, "date": "2022-11-24T00:00:00", "smokePM_pred": 4.0236563682556197 }, "geometry": { "type": "Polygon", "coordinates": [ [ [ -95.482747938197733, 41.300643631514731 ], [ -95.447655101487925, 41.220024451813472 ], [ -95.55437380480582, 41.193538696684243 ], [ -95.589565202896438, 41.274083123299988 ], [ -95.482747938197733, 41.300643631514731 ] ] ] } },
{ "type": "Feature", "properties": { "ID": 112540, "date": "2022-11-24T00:00:00", "smokePM_pred": 2.5616047382354701 }, "geometry": { "type": "Polygon", "coordinates": [ [ [ -95.944784404301657, 41.274185023723113 ], [ -95.909157198351394, 41.193892292775281 ], [ -96.015400490248808, 41.166993510661548 ], [ -96.05112400618242, 41.247210621825467 ], [ -95.944784404301657, 41.274185023723113 ] ] ] } },
{ "type": "Feature", "properties": { "ID": 112541, "date": "2022-11-24T00:00:00", "smokePM_pred": 3.4563333988189702 }, "geometry": { "type": "Polygon", "coordinates": [ [ [ -95.838300340818748, 41.301075251172776 ], [ -95.80277006690504, 41.220707075041432 ], [ -95.909157198351394, 41.193892292775281 ], [ -95.944784404301657, 41.274185023723113 ], [ -95.838300340818748, 41.301075251172776 ] ] ] } },
{ "type": "Feature", "properties": { "ID": 112542, "date": "2022-11-24T00:00:00", "smokePM_pred": 3.7893023490905802 }, "geometry": { "type": "Polygon", "coordinates": [ [ [ -95.731672043759943, 41.327880923397608 ], [ -95.696239324383953, 41.24743747821968 ], [ -95.80277006690504, 41.220707075041432 ], [ -95.838300340818748, 41.301075251172776 ], [ -95.731672043759943, 41.327880923397608 ] ] ] } },
{ "type": "Feature", "properties": { "ID": 112543, "date": "2022-11-24T00:00:00", "smokePM_pred": 3.9036417007446298 }, "geometry": { "type": "Polygon", "coordinates": [ [ [ -95.624899744808218, 41.354601659848178 ], [ -95.589565202896438, 41.274083123299988 ], [ -95.696239324383953, 41.24743747821968 ], [ -95.731672043759943, 41.327880923397608 ], [ -95.624899744808218, 41.354601659848178 ] ] ] } },
{ "type": "Feature", "properties": { "ID": 112544, "date": "2022-11-24T00:00:00", "smokePM_pred": 3.8078029155731201 }, "geometry": { "type": "Polygon", "coordinates": [ [ [ -95.517983679316046, 41.381237080214689 ], [ -95.482747938197733, 41.300643631514731 ], [ -95.589565202896438, 41.274083123299988 ], [ -95.624899744808218, 41.354601659848178 ], [ -95.517983679316046, 41.381237080214689 ] ] ] } },
{ "type": "Feature", "properties": { "ID": 113055, "date": "2022-11-24T00:00:00", "smokePM_pred": 2.6970376968383798 }, "geometry": { "type": "Polygon", "coordinates": [ [ [ -95.980556072461326, 41.354451255230735 ], [ -95.944784404301657, 41.274185023723113 ], [ -96.05112400618242, 41.247210621825467 ], [ -96.086992208705979, 41.327401074393627 ], [ -95.980556072461326, 41.354451255230735 ] ] ] } },
{ "type": "Feature", "properties": { "ID": 113056, "date": "2022-11-24T00:00:00", "smokePM_pred": 2.9444870948791499 }, "geometry": { "type": "Polygon", "coordinates": [ [ [ -95.873974848917783, 41.381417087177653 ], [ -95.838300340818748, 41.301075251172776 ], [ -95.944784404301657, 41.274185023723113 ], [ -95.980556072461326, 41.354451255230735 ], [ -95.873974848917783, 41.381417087177653 ] ] ] } },
{ "type": "Feature", "properties": { "ID": 113057, "date": "2022-11-24T00:00:00", "smokePM_pred": 3.8559446334838898 }, "geometry": { "type": "Polygon", "coordinates": [ [ [ -95.767248765640531, 41.408298187914575 ], [ -95.731672043759943, 41.327880923397608 ], [ -95.838300340818748, 41.301075251172776 ], [ -95.873974848917783, 41.381417087177653 ], [ -95.767248765640531, 41.408298187914575 ] ] ] } },
{ "type": "Feature", "properties": { "ID": 113058, "date": "2022-11-24T00:00:00", "smokePM_pred": 4.0951132774353001 }, "geometry": { "type": "Polygon", "coordinates": [ [ [ -95.66037805387414, 41.435094175346286 ], [ -95.624899744808218, 41.354601659848178 ], [ -95.731672043759943, 41.327880923397608 ], [ -95.767248765640531, 41.408298187914575 ], [ -95.66037805387414, 41.435094175346286 ] ] ] } },
{ "type": "Feature", "properties": { "ID": 113059, "date": "2022-11-24T00:00:00", "smokePM_pred": 4.0242033004760698 }, "geometry": { "type": "Polygon", "coordinates": [ [ [ -95.55336294855563, 41.461804667614338 ], [ -95.517983679316046, 41.381237080214689 ], [ -95.624899744808218, 41.354601659848178 ], [ -95.66037805387414, 41.435094175346286 ], [ -95.55336294855563, 41.461804667614338 ] ] ] } },
{ "type": "Feature", "properties": { "ID": 113570, "date": "2022-11-24T00:00:00", "smokePM_pred": 3.1425354480743399 }, "geometry": { "type": "Polygon", "coordinates": [ [ [ -96.016472828530894, 41.434690853487574 ], [ -95.980556072461326, 41.354451255230735 ], [ -96.086992208705979, 41.327401074393627 ], [ -96.123005723036343, 41.407564733882424 ], [ -96.016472828530894, 41.434690853487574 ] ] ] } },
{ "type": "Feature", "properties": { "ID": 113571, "date": "2022-11-24T00:00:00", "smokePM_pred": 3.2194638252258301 }, "geometry": { "type": "Polygon", "coordinates": [ [ [ -95.909794217363753, 41.461732449921811 ], [ -95.873974848917783, 41.381417087177653 ], [ -95.980556072461326, 41.354451255230735 ], [ -96.016472828530894, 41.434690853487574 ], [ -95.909794217363753, 41.461732449921811 ] ] ] } },
{ "type": "Feature", "properties": { "ID": 113572, "date": "2022-11-24T00:00:00", "smokePM_pred": 4.1208729743957502 }, "geometry": { "type": "Polygon", "coordinates": [ [ [ -95.802970116625701, 41.488689139315987 ], [ -95.767248765640531, 41.408298187914575 ], [ -95.873974848917783, 41.381417087177653 ], [ -95.909794217363753, 41.461732449921811 ], [ -95.802970116625701, 41.488689139315987 ] ] ] } },
{ "type": "Feature", "properties": { "ID": 113573, "date": "2022-11-24T00:00:00", "smokePM_pred": 4.37827825546265 }, "geometry": { "type": "Polygon", "coordinates": [ [ [ -95.696000757109729, 41.515560538022562 ], [ -95.66037805387414, 41.435094175346286 ], [ -95.767248765640531, 41.408298187914575 ], [ -95.802970116625701, 41.488689139315987 ], [ -95.696000757109729, 41.515560538022562 ] ] ] } },
{ "type": "Feature", "properties": { "ID": 113574, "date": "2022-11-24T00:00:00", "smokePM_pred": 4.4453439712524396 }, "geometry": { "type": "Polygon", "coordinates": [ [ [ -95.588886373324428, 41.54234626262793 ], [ -95.55336294855563, 41.461804667614338 ], [ -95.66037805387414, 41.435094175346286 ], [ -95.696000757109729, 41.515560538022562 ], [ -95.588886373324428, 41.54234626262793 ] ] ] } },
{ "type": "Feature", "properties": { "ID": 114085, "date": "2022-11-24T00:00:00", "smokePM_pred": 3.5963366031646702 }, "geometry": { "type": "Polygon", "coordinates": [ [ [ -96.052535301876944, 41.514903683880206 ], [ -96.016472828530894, 41.434690853487574 ], [ -96.123005723036343, 41.407564733882424 ], [ -96.159165178043011, 41.487701465002971 ], [ -96.052535301876944, 41.514903683880206 ] ] ] } },
{ "type": "Feature", "properties": { "ID": 114086, "date": "2022-11-24T00:00:00", "smokePM_pred": 3.6100871562957799 }, "geometry": { "type": "Polygon", "coordinates": [ [ [ -95.945759075997643, 41.542021205470654 ], [ -95.909794217363753, 41.461732449921811 ], [ -96.016472828530894, 41.434690853487574 ], [ -96.052535301876944, 41.514903683880206 ], [ -95.945759075997643, 41.542021205470654 ] ] ] } },
{ "type": "Feature", "properties": { "ID": 114087, "date": "2022-11-24T00:00:00", "smokePM_pred": 4.42447710037231 }, "geometry": { "type": "Polygon", "coordinates": [ [ [ -95.838836727008029, 41.569053644349317 ], [ -95.802970116625701, 41.488689139315987 ], [ -95.909794217363753, 41.461732449921811 ], [ -95.945759075997643, 41.542021205470654 ], [ -95.838836727008029, 41.569053644349317 ] ] ] } },
{ "type": "Feature", "properties": { "ID": 114088, "date": "2022-11-24T00:00:00", "smokePM_pred": 4.5150413513183603 }, "geometry": { "type": "Polygon", "coordinates": [ [ [ -95.731768485236159, 41.596000615309876 ], [ -95.696000757109729, 41.515560538022562 ], [ -95.802970116625701, 41.488689139315987 ], [ -95.838836727008029, 41.569053644349317 ], [ -95.731768485236159, 41.596000615309876 ] ] ] } },
{ "type": "Feature", "properties": { "ID": 114600, "date": "2022-11-24T00:00:00", "smokePM_pred": 3.63729619979858 }, "geometry": { "type": "Polygon", "coordinates": [ [ [ -96.088744125554797, 41.595089610986257 ], [ -96.052535301876944, 41.514903683880206 ], [ -96.159165178043011, 41.487701465002971 ], [ -96.195471206270597, 41.567811131654977 ], [ -96.088744125554797, 41.595089610986257 ] ] ] } },
{ "type": "Feature", "properties": { "ID": 114601, "date": "2022-11-24T00:00:00", "smokePM_pred": 3.8976180553436302 }, "geometry": { "type": "Polygon", "coordinates": [ [ [ -95.981870058362759, 41.622283219083059 ], [ -95.945759075997643, 41.542021205470654 ], [ -96.052535301876944, 41.514903683880206 ], [ -96.088744125554797, 41.595089610986257 ], [ -95.981870058362759, 41.622283219083059 ] ] ] } },
{ "type": "Feature", "properties": { "ID": 114602, "date": "2022-11-24T00:00:00", "smokePM_pred": 4.49410200119019 }, "geometry": { "type": "Polygon", "coordinates": [ [ [ -95.874849230795732, 41.649391568958109 ], [ -95.838836727008029, 41.569053644349317 ], [ -95.945759075997643, 41.542021205470654 ], [ -95.981870058362759, 41.622283219083059 ], [ -95.874849230795732, 41.649391568958109 ] ] ] } },
{ "type": "Feature", "properties": { "ID": 114603, "date": "2022-11-24T00:00:00", "smokePM_pred": 4.6472725868225098 }, "geometry": { "type": "Polygon", "coordinates": [ [ [ -95.767681872703335, 41.676414273839683 ], [ -95.731768485236159, 41.596000615309876 ], [ -95.838836727008029, 41.569053644349317 ], [ -95.874849230795732, 41.649391568958109 ], [ -95.767681872703335, 41.676414273839683 ] ] ] } },
{ "type": "Feature", "properties": { "ID": 115116, "date": "2022-11-24T00:00:00", "smokePM_pred": 4.0638012886047399 }, "geometry": { "type": "Polygon", "coordinates": [ [ [ -96.018127801727545, 41.702518355205335 ], [ -95.981870058362759, 41.622283219083059 ], [ -96.088744125554797, 41.595089610986257 ], [ -96.12509993633131, 41.675248498568259 ], [ -96.018127801727545, 41.702518355205335 ] ] ] } },
{ "type": "Feature", "properties": { "ID": 115117, "date": "2022-11-24T00:00:00", "smokePM_pred": 4.2596879005432102 }, "geometry": { "type": "Polygon", "coordinates": [ [ [ -95.911008265735845, 41.729702778275758 ], [ -95.874849230795732, 41.649391568958109 ], [ -95.981870058362759, 41.622283219083059 ], [ -96.018127801727545, 41.702518355205335 ], [ -95.911008265735845, 41.729702778275758 ] ] ] } },
{ "type": "Feature", "properties": { "ID": 115118, "date": "2022-11-24T00:00:00", "smokePM_pred": 4.4864730834960902 }, "geometry": { "type": "Polygon", "coordinates": [ [ [ -95.803741557713522, 41.756801379435942 ], [ -95.767681872703335, 41.676414273839683 ], [ -95.874849230795732, 41.649391568958109 ], [ -95.911008265735845, 41.729702778275758 ], [ -95.803741557713522, 41.756801379435942 ] ] ] } },
{ "type": "Feature", "properties": { "ID": 115631, "date": "2022-11-24T00:00:00", "smokePM_pred": 4.5026407241821298 }, "geometry": { "type": "Polygon", "coordinates": [ [ [ -96.054532947108925, 41.782726477464941 ], [ -96.018127801727545, 41.702518355205335 ], [ -96.12509993633131, 41.675248498568259 ], [ -96.161603374707795, 41.755380209567463 ], [ -96.054532947108925, 41.782726477464941 ] ] ] } },
{ "type": "Feature", "properties": { "ID": 115632, "date": "2022-11-24T00:00:00", "smokePM_pred": 4.1891183853149396 }, "geometry": { "type": "Polygon", "coordinates": [ [ [ -95.947314473337471, 41.809987136619412 ], [ -95.911008265735845, 41.729702778275758 ], [ -96.018127801727545, 41.702518355205335 ], [ -96.054532947108925, 41.782726477464941 ], [ -95.947314473337471, 41.809987136619412 ] ] ] } },
{ "type": "Feature", "properties": { "ID": 115633, "date": "2022-11-24T00:00:00", "smokePM_pred": 4.7221546173095703 }, "geometry": { "type": "Polygon", "coordinates": [ [ [ -95.839948182244626, 41.83716179710877 ], [ -95.803741557713522, 41.756801379435942 ], [ -95.911008265735845, 41.729702778275758 ], [ -95.947314473337471, 41.809987136619412 ], [ -95.839948182244626, 41.83716179710877 ] ] ] } },
{ "type": "Feature", "properties": { "ID": 116146, "date": "2022-11-24T00:00:00", "smokePM_pred": 4.9402818679809597 }, "geometry": { "type": "Polygon", "coordinates": [ [ [ -96.091086139295328, 41.862907448664266 ], [ -96.054532947108925, 41.782726477464941 ], [ -96.161603374707795, 41.755380209567463 ], [ -96.198255084943071, 41.835484606097573 ], [ -96.091086139295328, 41.862907448664266 ] ] ] } },
{ "type": "Feature", "properties": { "ID": 116147, "date": "2022-11-24T00:00:00", "smokePM_pred": 4.7743172645568803 }, "geometry": { "type": "Polygon", "coordinates": [ [ [ -95.983768498895401, 41.890244507483629 ], [ -95.947314473337471, 41.809987136619412 ], [ -96.054532947108925, 41.782726477464941 ], [ -96.091086139295328, 41.862907448664266 ], [ -95.983768498895401, 41.890244507483629 ] ] ] } },
{ "type": "Feature", "properties": { "ID": 116148, "date": "2022-11-24T00:00:00", "smokePM_pred": 4.96067094802856 }, "geometry": { "type": "Polygon", "coordinates": [ [ [ -95.876302392074052, 41.917495391048369 ], [ -95.839948182244626, 41.83716179710877 ], [ -95.947314473337471, 41.809987136619412 ], [ -95.983768498895401, 41.890244507483629 ], [ -95.876302392074052, 41.917495391048369 ] ] ] } },
{ "type": "Feature", "properties": { "ID": 116662, "date": "2022-11-24T00:00:00", "smokePM_pred": 4.80782127380371 }, "geometry": { "type": "Polygon", "coordinates": [ [ [ -96.020370991513573, 41.970474753534141 ], [ -95.983768498895401, 41.890244507483629 ], [ -96.091086139295328, 41.862907448664266 ], [ -96.12778802687032, 41.943061130774389 ], [ -96.020370991513573, 41.970474753534141 ] ] ] } }
]
}
