{
"type": "FeatureCollection",
"name": "geo_2022-12-20",
"crs": { "type": "name", "properties": { "name": "urn:ogc:def:crs:OGC:1.3:CRS84" } },
"features": [
{ "type": "Feature", "properties": { "ID": 12222, "date": "2022-12-20T00:00:00", "smokePM_pred": 2.03259253501892 }, "geometry": { "type": "Polygon", "coordinates": [ [ [ -80.937514473576215, 26.481019176275495 ], [ -80.928280854765063, 26.39268572129879 ], [ -81.026343266960893, 26.384356630784282 ], [ -81.035648297753397, 26.472657952434687 ], [ -80.937514473576215, 26.481019176275495 ] ] ] } },
{ "type": "Feature", "properties": { "ID": 12223, "date": "2022-12-20T00:00:00", "smokePM_pred": 2.5406932830810498 }, "geometry": { "type": "Polygon", "coordinates": [ [ [ -80.839337868675869, 26.489315318718081 ], [ -80.830175801275814, 26.400949976049269 ], [ -80.928280854765063, 26.39268572129879 ], [ -80.937514473576215, 26.481019176275495 ], [ -80.839337868675869, 26.489315318718081 ] ] ] } },
{ "type": "Feature", "properties": { "ID": 12224, "date": "2022-12-20T00:00:00", "smokePM_pred": 3.4828109741210902 }, "geometry": { "type": "Polygon", "coordinates": [ [ [ -80.741118804409425, 26.497546268304369 ], [ -80.732028426916983, 26.40914928410897 ], [ -80.830175801275814, 26.400949976049269 ], [ -80.839337868675869, 26.489315318718081 ], [ -80.741118804409425, 26.497546268304369 ] ] ] } },
{ "type": "Feature", "properties": { "ID": 12737, "date": "2022-12-20T00:00:00", "smokePM_pred": 1.90429091453552 }, "geometry": { "type": "Polygon", "coordinates": [ [ [ -80.946790873257214, 26.569348534795946 ], [ -80.937514473576215, 26.481019176275495 ], [ -81.035648297753397, 26.472657952434687 ], [ -81.044996429893757, 26.560955130926942 ], [ -80.946790873257214, 26.569348534795946 ] ] ] } },
{ "type": "Feature", "properties": { "ID": 12738, "date": "2022-12-20T00:00:00", "smokePM_pred": 3.4043993949890101 }, "geometry": { "type": "Polygon", "coordinates": [ [ [ -80.848542395587771, 26.57767661132813 ], [ -80.839337868675869, 26.489315318718081 ], [ -80.937514473576215, 26.481019176275495 ], [ -80.946790873257214, 26.569348534795946 ], [ -80.848542395587771, 26.57767661132813 ] ] ] } },
{ "type": "Feature", "properties": { "ID": 12739, "date": "2022-12-20T00:00:00", "smokePM_pred": 4.4625005722045898 }, "geometry": { "type": "Polygon", "coordinates": [ [ [ -80.750251319181103, 26.585939248532121 ], [ -80.741118804409425, 26.497546268304369 ], [ -80.839337868675869, 26.489315318718081 ], [ -80.848542395587771, 26.57767661132813 ], [ -80.750251319181103, 26.585939248532121 ] ] ] } },
{ "type": "Feature", "properties": { "ID": 12740, "date": "2022-12-20T00:00:00", "smokePM_pred": 2.24528980255127 }, "geometry": { "type": "Polygon", "coordinates": [ [ [ -80.651917967213009, 26.594136335197042 ], [ -80.642857603008622, 26.505711914353306 ], [ -80.741118804409425, 26.497546268304369 ], [ -80.750251319181103, 26.585939248532121 ], [ -80.651917967213009, 26.594136335197042 ] ] ] } },
{ "type": "Feature", "properties": { "ID": 100474, "date": "2022-12-20T00:00:00", "smokePM_pred": 3.6306059360504199 }, "geometry": { "type": "Polygon", "coordinates": [ [ [ -114.840622378202625, 32.499881715648577 ], [ -114.799596126759468, 32.437098973401959 ], [ -114.873593408546185, 32.402355998573114 ], [ -114.914616491006058, 32.46505508203132 ], [ -114.840622378202625, 32.499881715648577 ] ] ] } },
{ "type": "Feature", "properties": { "ID": 100989, "date": "2022-12-20T00:00:00", "smokePM_pred": 3.8877871036529501 }, "geometry": { "type": "Polygon", "coordinates": [ [ [ -114.881776349350986, 32.562617605244505 ], [ -114.840622378202625, 32.499881715648577 ], [ -114.914616491006058, 32.46505508203132 ], [ -114.955767130851996, 32.527707260823263 ], [ -114.881776349350986, 32.562617605244505 ] ] ] } },
{ "type": "Feature", "properties": { "ID": 101505, "date": "2022-12-20T00:00:00", "smokePM_pred": 3.7028179168701199 }, "geometry": { "type": "Polygon", "coordinates": [ [ [ -114.848942764134947, 32.660289678594488 ], [ -114.807657578759432, 32.597517016865083 ], [ -114.881776349350986, 32.562617605244505 ], [ -114.92305830967922, 32.625306466160239 ], [ -114.848942764134947, 32.660289678594488 ] ] ] } },
{ "type": "Feature", "properties": { "ID": 102019, "date": "2022-12-20T00:00:00", "smokePM_pred": 3.9328491687774698 }, "geometry": { "type": "Polygon", "coordinates": [ [ [ -114.964468529198172, 32.687948121793056 ], [ -114.92305830967922, 32.625306466160239 ], [ -114.997045596121566, 32.59031235897082 ], [ -115.038452155380483, 32.652870199924713 ], [ -114.964468529198172, 32.687948121793056 ] ] ] } },
{ "type": "Feature", "properties": { "ID": 102020, "date": "2022-12-20T00:00:00", "smokePM_pred": 3.80268454551697 }, "geometry": { "type": "Polygon", "coordinates": [ [ [ -114.890356373369755, 32.723015187443167 ], [ -114.848942764134947, 32.660289678594488 ], [ -114.92305830967922, 32.625306466160239 ], [ -114.964468529198172, 32.687948121793056 ], [ -114.890356373369755, 32.723015187443167 ] ] ] } }
]
}
