{
"type": "FeatureCollection",
"name": "geo_2022-12-26",
"crs": { "type": "name", "properties": { "name": "urn:ogc:def:crs:OGC:1.3:CRS84" } },
"features": [
{ "type": "Feature", "properties": { "ID": 36341, "date": "2022-12-26T00:00:00", "smokePM_pred": 5.0731105804443404 }, "geometry": { "type": "Polygon", "coordinates": [ [ [ -89.962369729159221, 29.50916451070723 ], [ -89.944221464244492, 29.424902485019313 ], [ -90.040438839269441, 29.409017398995225 ], [ -90.058654943586575, 29.493225062572389 ], [ -89.962369729159221, 29.50916451070723 ] ] ] } },
{ "type": "Feature", "properties": { "ID": 36342, "date": "2022-12-26T00:00:00", "smokePM_pred": 4.7781500816345197 }, "geometry": { "type": "Polygon", "coordinates": [ [ [ -89.866007140940255, 29.525041869845364 ], [ -89.8479269749742, 29.440725677218442 ], [ -89.944221464244492, 29.424902485019313 ], [ -89.962369729159221, 29.50916451070723 ], [ -89.866007140940255, 29.525041869845364 ] ] ] } },
{ "type": "Feature", "properties": { "ID": 36855, "date": "2022-12-26T00:00:00", "smokePM_pred": 5.4278297424316397 }, "geometry": { "type": "Polygon", "coordinates": [ [ [ -90.076948672069051, 29.577421368877364 ], [ -90.058654943586575, 29.493225062572389 ], [ -90.154862534100701, 29.477223725816543 ], [ -90.173224090601181, 29.561365394266822 ], [ -90.076948672069051, 29.577421368877364 ] ] ] } },
{ "type": "Feature", "properties": { "ID": 36856, "date": "2022-12-26T00:00:00", "smokePM_pred": 5.3520650863647496 }, "geometry": { "type": "Polygon", "coordinates": [ [ [ -89.980595368117591, 29.593415260440754 ], [ -89.962369729159221, 29.50916451070723 ], [ -90.058654943586575, 29.493225062572389 ], [ -90.076948672069051, 29.577421368877364 ], [ -89.980595368117591, 29.593415260440754 ] ] ] } },
{ "type": "Feature", "properties": { "ID": 36857, "date": "2022-12-26T00:00:00", "smokePM_pred": 4.4417886734008798 }, "geometry": { "type": "Polygon", "coordinates": [ [ [ -89.884164429315931, 29.609346867716496 ], [ -89.866007140940255, 29.525041869845364 ], [ -89.962369729159221, 29.50916451070723 ], [ -89.980595368117591, 29.593415260440754 ], [ -89.884164429315931, 29.609346867716496 ] ] ] } },
{ "type": "Feature", "properties": { "ID": 37370, "date": "2022-12-26T00:00:00", "smokePM_pred": 5.6047101020812997 }, "geometry": { "type": "Polygon", "coordinates": [ [ [ -90.095320286224549, 29.661606263894555 ], [ -90.076948672069051, 29.577421368877364 ], [ -90.173224090601181, 29.561365394266822 ], [ -90.191663781822143, 29.645495569608862 ], [ -90.095320286224549, 29.661606263894555 ] ] ] } },
{ "type": "Feature", "properties": { "ID": 37371, "date": "2022-12-26T00:00:00", "smokePM_pred": 4.9701228141784703 }, "geometry": { "type": "Polygon", "coordinates": [ [ [ -89.998898642179668, 29.677654680590773 ], [ -89.980595368117591, 29.593415260440754 ], [ -90.076948672069051, 29.577421368877364 ], [ -90.095320286224549, 29.661606263894555 ], [ -89.998898642179668, 29.677654680590773 ] ] ] } },
{ "type": "Feature", "properties": { "ID": 37372, "date": "2022-12-26T00:00:00", "smokePM_pred": 4.7334361076354998 }, "geometry": { "type": "Polygon", "coordinates": [ [ [ -89.902399100704841, 29.6936406175892 ], [ -89.884164429315931, 29.609346867716496 ], [ -89.980595368117591, 29.593415260440754 ], [ -89.998898642179668, 29.677654680590773 ], [ -89.902399100704841, 29.6936406175892 ] ] ] } },
{ "type": "Feature", "properties": { "ID": 37881, "date": "2022-12-26T00:00:00", "smokePM_pred": 7.7605137825012198 }, "geometry": { "type": "Polygon", "coordinates": [ [ [ -90.498944368083542, 29.680744911707833 ], [ -90.480222890721322, 29.596791848998595 ], [ -90.576251312977689, 29.580434074329808 ], [ -90.595040054349724, 29.664331565251594 ], [ -90.498944368083542, 29.680744911707833 ] ] ] } },
{ "type": "Feature", "properties": { "ID": 37882, "date": "2022-12-26T00:00:00", "smokePM_pred": 7.7256145477294904 }, "geometry": { "type": "Polygon", "coordinates": [ [ [ -90.402769278348671, 29.697096602274062 ], [ -90.384115331260134, 29.613088158941885 ], [ -90.480222890721322, 29.596791848998595 ], [ -90.498944368083542, 29.680744911707833 ], [ -90.402769278348671, 29.697096602274062 ] ] ] } },
{ "type": "Feature", "properties": { "ID": 37883, "date": "2022-12-26T00:00:00", "smokePM_pred": 7.4590797424316397 }, "geometry": { "type": "Polygon", "coordinates": [ [ [ -90.306515030449702, 29.713386432206825 ], [ -90.287928879485818, 29.629322800291149 ], [ -90.384115331260134, 29.613088158941885 ], [ -90.402769278348671, 29.697096602274062 ], [ -90.306515030449702, 29.713386432206825 ] ] ] } },
{ "type": "Feature", "properties": { "ID": 37886, "date": "2022-12-26T00:00:00", "smokePM_pred": 4.8890037536621103 }, "geometry": { "type": "Polygon", "coordinates": [ [ [ -90.01727981392672, 29.761882717285307 ], [ -89.998898642179668, 29.677654680590773 ], [ -90.095320286224549, 29.661606263894555 ], [ -90.113770049082433, 29.745779693363893 ], [ -90.01727981392672, 29.761882717285307 ] ] ] } },
{ "type": "Feature", "properties": { "ID": 37887, "date": "2022-12-26T00:00:00", "smokePM_pred": 4.9278812408447301 }, "geometry": { "type": "Polygon", "coordinates": [ [ [ -89.920711417231161, 29.777923065979561 ], [ -89.902399100704841, 29.6936406175892 ], [ -89.998898642179668, 29.677654680590773 ], [ -90.01727981392672, 29.761882717285307 ], [ -89.920711417231161, 29.777923065979561 ] ] ] } },
{ "type": "Feature", "properties": { "ID": 38393, "date": "2022-12-26T00:00:00", "smokePM_pred": 9.0506887435913104 }, "geometry": { "type": "Polygon", "coordinates": [ [ [ -90.805994842348184, 29.715094402618323 ], [ -90.786992242964217, 29.631320725766503 ], [ -90.882848262410619, 29.61472364432991 ], [ -90.901917563762879, 29.698441097835165 ], [ -90.805994842348184, 29.715094402618323 ] ] ] } },
{ "type": "Feature", "properties": { "ID": 38394, "date": "2022-12-26T00:00:00", "smokePM_pred": 10.025359153747599 }, "geometry": { "type": "Polygon", "coordinates": [ [ [ -90.709991721808635, 29.731686479644377 ], [ -90.691056093383864, 29.647856768074742 ], [ -90.786992242964217, 29.631320725766503 ], [ -90.805994842348184, 29.715094402618323 ], [ -90.709991721808635, 29.731686479644377 ] ] ] } },
{ "type": "Feature", "properties": { "ID": 38395, "date": "2022-12-26T00:00:00", "smokePM_pred": 9.8214902877807599 }, "geometry": { "type": "Polygon", "coordinates": [ [ [ -90.613908443210676, 29.748217122029573 ], [ -90.595040054349724, 29.664331565251594 ], [ -90.691056093383864, 29.647856768074742 ], [ -90.709991721808635, 29.731686479644377 ], [ -90.613908443210676, 29.748217122029573 ] ] ] } },
{ "type": "Feature", "properties": { "ID": 38396, "date": "2022-12-26T00:00:00", "smokePM_pred": 8.5570020675659197 }, "geometry": { "type": "Polygon", "coordinates": [ [ [ -90.517745249171341, 29.764686123304855 ], [ -90.498944368083542, 29.680744911707833 ], [ -90.595040054349724, 29.664331565251594 ], [ -90.613908443210676, 29.748217122029573 ], [ -90.517745249171341, 29.764686123304855 ] ] ] } },
{ "type": "Feature", "properties": { "ID": 38397, "date": "2022-12-26T00:00:00", "smokePM_pred": 8.6052637100219709 }, "geometry": { "type": "Polygon", "coordinates": [ [ [ -90.421502383858154, 29.781093277421867 ], [ -90.402769278348671, 29.697096602274062 ], [ -90.498944368083542, 29.680744911707833 ], [ -90.517745249171341, 29.764686123304855 ], [ -90.421502383858154, 29.781093277421867 ] ] ] } },
{ "type": "Feature", "properties": { "ID": 38398, "date": "2022-12-26T00:00:00", "smokePM_pred": 7.6489453315734899 }, "geometry": { "type": "Polygon", "coordinates": [ [ [ -90.325180092988901, 29.797438378759139 ], [ -90.306515030449702, 29.713386432206825 ], [ -90.402769278348671, 29.697096602274062 ], [ -90.421502383858154, 29.781093277421867 ], [ -90.325180092988901, 29.797438378759139 ] ] ] } },
{ "type": "Feature", "properties": { "ID": 38462, "date": "2022-12-26T00:00:00", "smokePM_pred": 3.41691946983337 }, "geometry": { "type": "Polygon", "coordinates": [ [ [ -84.007770253909513, 30.70543678648032 ], [ -83.993990168960707, 30.618286259302927 ], [ -84.09473066247547, 30.606357222022094 ], [ -84.10859462244008, 30.693466533657848 ], [ -84.007770253909513, 30.70543678648032 ] ] ] } },
{ "type": "Feature", "properties": { "ID": 38463, "date": "2022-12-26T00:00:00", "smokePM_pred": 3.7447440624237101 }, "geometry": { "type": "Polygon", "coordinates": [ [ [ -83.906885690494079, 30.717332829651909 ], [ -83.893189701258166, 30.630141332563333 ], [ -83.993990168960707, 30.618286259302927 ], [ -84.007770253909513, 30.70543678648032 ], [ -83.906885690494079, 30.717332829651909 ] ] ] } },
{ "type": "Feature", "properties": { "ID": 38907, "date": "2022-12-26T00:00:00", "smokePM_pred": 10.3193168640137 }, "geometry": { "type": "Polygon", "coordinates": [ [ [ -90.921067504014161, 29.782146309628391 ], [ -90.901917563762879, 29.698441097835165 ], [ -90.997759646536977, 29.681726772587204 ], [ -91.016976257353249, 29.765375489480316 ], [ -90.921067504014161, 29.782146309628391 ] ] ] } },
{ "type": "Feature", "properties": { "ID": 38908, "date": "2022-12-26T00:00:00", "smokePM_pred": 10.110623359680201 }, "geometry": { "type": "Polygon", "coordinates": [ [ [ -90.825077841115444, 29.798855921473095 ], [ -90.805994842348184, 29.715094402618323 ], [ -90.901917563762879, 29.698441097835165 ], [ -90.921067504014161, 29.782146309628391 ], [ -90.825077841115444, 29.798855921473095 ] ] ] } },
{ "type": "Feature", "properties": { "ID": 38909, "date": "2022-12-26T00:00:00", "smokePM_pred": 9.7683639526367205 }, "geometry": { "type": "Polygon", "coordinates": [ [ [ -90.729007508550254, 29.815504116837491 ], [ -90.709991721808635, 29.731686479644377 ], [ -90.805994842348184, 29.715094402618323 ], [ -90.825077841115444, 29.798855921473095 ], [ -90.729007508550254, 29.815504116837491 ] ] ] } },
{ "type": "Feature", "properties": { "ID": 38910, "date": "2022-12-26T00:00:00", "smokePM_pred": 9.9795351028442401 }, "geometry": { "type": "Polygon", "coordinates": [ [ [ -90.632856747771413, 29.832090687954082 ], [ -90.613908443210676, 29.748217122029573 ], [ -90.709991721808635, 29.731686479644377 ], [ -90.729007508550254, 29.815504116837491 ], [ -90.632856747771413, 29.832090687954082 ] ] ] } },
{ "type": "Feature", "properties": { "ID": 38911, "date": "2022-12-26T00:00:00", "smokePM_pred": 11.173511505126999 }, "geometry": { "type": "Polygon", "coordinates": [ [ [ -90.536625801791359, 29.848615427470875 ], [ -90.517745249171341, 29.764686123304855 ], [ -90.613908443210676, 29.748217122029573 ], [ -90.632856747771413, 29.832090687954082 ], [ -90.536625801791359, 29.848615427470875 ] ] ] } },
{ "type": "Feature", "properties": { "ID": 38912, "date": "2022-12-26T00:00:00", "smokePM_pred": 6.6095762252807599 }, "geometry": { "type": "Polygon", "coordinates": [ [ [ -90.440314915182029, 29.865078128457512 ], [ -90.421502383858154, 29.781093277421867 ], [ -90.517745249171341, 29.764686123304855 ], [ -90.536625801791359, 29.848615427470875 ], [ -90.440314915182029, 29.865078128457512 ] ] ] } },
{ "type": "Feature", "properties": { "ID": 38976, "date": "2022-12-26T00:00:00", "smokePM_pred": 3.2583165168762198 }, "geometry": { "type": "Polygon", "coordinates": [ [ [ -84.12251912021128, 30.780568993864332 ], [ -84.10859462244008, 30.693466533657848 ], [ -84.209358453394799, 30.681422235972576 ], [ -84.223366945776121, 30.768483165634613 ], [ -84.12251912021128, 30.780568993864332 ] ] ] } },
{ "type": "Feature", "properties": { "ID": 38977, "date": "2022-12-26T00:00:00", "smokePM_pred": 3.8443937301635702 }, "geometry": { "type": "Polygon", "coordinates": [ [ [ -84.021610533973075, 30.792580532037295 ], [ -84.007770253909513, 30.70543678648032 ], [ -84.10859462244008, 30.693466533657848 ], [ -84.12251912021128, 30.780568993864332 ], [ -84.021610533973075, 30.792580532037295 ] ] ] } },
{ "type": "Feature", "properties": { "ID": 38978, "date": "2022-12-26T00:00:00", "smokePM_pred": 3.8461720943450901 }, "geometry": { "type": "Polygon", "coordinates": [ [ [ -83.920641530773466, 30.804517614616866 ], [ -83.906885690494079, 30.717332829651909 ], [ -84.007770253909513, 30.70543678648032 ], [ -84.021610533973075, 30.792580532037295 ], [ -83.920641530773466, 30.804517614616866 ] ] ] } },
{ "type": "Feature", "properties": { "ID": 39421, "date": "2022-12-26T00:00:00", "smokePM_pred": 15.801715850830099 }, "geometry": { "type": "Polygon", "coordinates": [ [ [ -91.036274016322508, 29.84901182231954 ], [ -91.016976257353249, 29.765375489480316 ], [ -91.112803862799254, 29.748543669609134 ], [ -91.132168257819828, 29.832123236308824 ], [ -91.036274016322508, 29.84901182231954 ] ] ] } },
{ "type": "Feature", "properties": { "ID": 39422, "date": "2022-12-26T00:00:00", "smokePM_pred": 9.9605474472045898 }, "geometry": { "type": "Polygon", "coordinates": [ [ [ -90.940298354085002, 29.865839221565821 ], [ -90.921067504014161, 29.782146309628391 ], [ -91.016976257353249, 29.765375489480316 ], [ -91.036274016322508, 29.84901182231954 ], [ -90.940298354085002, 29.865839221565821 ] ] ] } },
{ "type": "Feature", "properties": { "ID": 39423, "date": "2022-12-26T00:00:00", "smokePM_pred": 9.7836713790893608 }, "geometry": { "type": "Polygon", "coordinates": [ [ [ -90.844241509809137, 29.882605224578985 ], [ -90.825077841115444, 29.798855921473095 ], [ -90.921067504014161, 29.782146309628391 ], [ -90.940298354085002, 29.865839221565821 ], [ -90.844241509809137, 29.882605224578985 ] ] ] } },
{ "type": "Feature", "properties": { "ID": 39424, "date": "2022-12-26T00:00:00", "smokePM_pred": 9.9942827224731392 }, "geometry": { "type": "Polygon", "coordinates": [ [ [ -90.748103723765482, 29.89930962229441 ], [ -90.729007508550254, 29.815504116837491 ], [ -90.825077841115444, 29.798855921473095 ], [ -90.844241509809137, 29.882605224578985 ], [ -90.748103723765482, 29.89930962229441 ] ] ] } },
{ "type": "Feature", "properties": { "ID": 39425, "date": "2022-12-26T00:00:00", "smokePM_pred": 9.9414234161377006 }, "geometry": { "type": "Polygon", "coordinates": [ [ [ -90.651885237793294, 29.915952206057739 ], [ -90.632856747771413, 29.832090687954082 ], [ -90.729007508550254, 29.815504116837491 ], [ -90.748103723765482, 29.89930962229441 ], [ -90.651885237793294, 29.915952206057739 ] ] ] } },
{ "type": "Feature", "properties": { "ID": 39491, "date": "2022-12-26T00:00:00", "smokePM_pred": 3.6175057888031001 }, "geometry": { "type": "Polygon", "coordinates": [ [ [ -84.136504378888162, 30.867664570938803 ], [ -84.12251912021128, 30.780568993864332 ], [ -84.223366945776121, 30.768483165634613 ], [ -84.237436541382237, 30.855537141687918 ], [ -84.136504378888162, 30.867664570938803 ] ] ] } },
{ "type": "Feature", "properties": { "ID": 39492, "date": "2022-12-26T00:00:00", "smokePM_pred": 3.6550340652465798 }, "geometry": { "type": "Polygon", "coordinates": [ [ [ -84.035511231229478, 30.879717464628769 ], [ -84.021610533973075, 30.792580532037295 ], [ -84.12251912021128, 30.780568993864332 ], [ -84.136504378888162, 30.867664570938803 ], [ -84.035511231229478, 30.879717464628769 ] ] ] } },
{ "type": "Feature", "properties": { "ID": 39936, "date": "2022-12-26T00:00:00", "smokePM_pred": 9.6589603424072301 }, "geometry": { "type": "Polygon", "coordinates": [ [ [ -91.055653196293406, 29.932635712303384 ], [ -91.036274016322508, 29.84901182231954 ], [ -91.132168257819828, 29.832123236308824 ], [ -91.151614310975233, 29.915690275473853 ], [ -91.055653196293406, 29.932635712303384 ] ] ] } },
{ "type": "Feature", "properties": { "ID": 39937, "date": "2022-12-26T00:00:00", "smokePM_pred": 11.8468790054321 }, "geometry": { "type": "Polygon", "coordinates": [ [ [ -90.959610386455637, 29.949519775239313 ], [ -90.940298354085002, 29.865839221565821 ], [ -91.036274016322508, 29.84901182231954 ], [ -91.055653196293406, 29.932635712303384 ], [ -90.959610386455637, 29.949519775239313 ] ] ] } },
{ "type": "Feature", "properties": { "ID": 39938, "date": "2022-12-26T00:00:00", "smokePM_pred": 10.973445892334 }, "geometry": { "type": "Polygon", "coordinates": [ [ [ -90.863486120532087, 29.966342253921383 ], [ -90.844241509809137, 29.882605224578985 ], [ -90.940298354085002, 29.865839221565821 ], [ -90.959610386455637, 29.949519775239313 ], [ -90.863486120532087, 29.966342253921383 ] ] ] } },
{ "type": "Feature", "properties": { "ID": 39939, "date": "2022-12-26T00:00:00", "smokePM_pred": 9.4000978469848597 }, "geometry": { "type": "Polygon", "coordinates": [ [ [ -90.767280639170664, 29.983102938394232 ], [ -90.748103723765482, 29.89930962229441 ], [ -90.844241509809137, 29.882605224578985 ], [ -90.863486120532087, 29.966342253921383 ], [ -90.767280639170664, 29.983102938394232 ] ] ] } },
{ "type": "Feature", "properties": { "ID": 39940, "date": "2022-12-26T00:00:00", "smokePM_pred": 8.3080482482910192 }, "geometry": { "type": "Polygon", "coordinates": [ [ [ -90.670994184597163, 29.999801619113512 ], [ -90.651885237793294, 29.915952206057739 ], [ -90.748103723765482, 29.89930962229441 ], [ -90.767280639170664, 29.983102938394232 ], [ -90.670994184597163, 29.999801619113512 ] ] ] } },
{ "type": "Feature", "properties": { "ID": 39941, "date": "2022-12-26T00:00:00", "smokePM_pred": 6.8995399475097701 }, "geometry": { "type": "Polygon", "coordinates": [ [ [ -90.574627000615166, 30.0164380869521 ], [ -90.555586295300557, 29.932532767630963 ], [ -90.651885237793294, 29.915952206057739 ], [ -90.670994184597163, 29.999801619113512 ], [ -90.574627000615166, 30.0164380869521 ] ] ] } },
{ "type": "Feature", "properties": { "ID": 39942, "date": "2022-12-26T00:00:00", "smokePM_pred": 4.7580199241638201 }, "geometry": { "type": "Polygon", "coordinates": [ [ [ -90.478179332605961, 30.033012133206263 ], [ -90.459207141263789, 29.949051099198602 ], [ -90.555586295300557, 29.932532767630963 ], [ -90.574627000615166, 30.0164380869521 ], [ -90.478179332605961, 30.033012133206263 ] ] ] } },
{ "type": "Feature", "properties": { "ID": 39943, "date": "2022-12-26T00:00:00", "smokePM_pred": 4.3861713409423801 }, "geometry": { "type": "Polygon", "coordinates": [ [ [ -90.38165142752851, 30.049523549601801 ], [ -90.362748022227976, 29.965506993373786 ], [ -90.459207141263789, 29.949051099198602 ], [ -90.478179332605961, 30.033012133206263 ], [ -90.38165142752851, 30.049523549601801 ] ] ] } },
{ "type": "Feature", "properties": { "ID": 40004, "date": "2022-12-26T00:00:00", "smokePM_pred": 4.1258983612060502 }, "geometry": { "type": "Polygon", "coordinates": [ [ [ -84.352522753066282, 30.930340417309722 ], [ -84.338307375376672, 30.843335343990852 ], [ -84.439116538944376, 30.831059345783 ], [ -84.453416142054905, 30.918022257889184 ], [ -84.352522753066282, 30.930340417309722 ] ] ] } },
{ "type": "Feature", "properties": { "ID": 40005, "date": "2022-12-26T00:00:00", "smokePM_pred": 4.0809135437011701 }, "geometry": { "type": "Polygon", "coordinates": [ [ [ -84.251567465722658, 30.942584131922924 ], [ -84.237436541382237, 30.855537141687918 ], [ -84.338307375376672, 30.843335343990852 ], [ -84.352522753066282, 30.930340417309722 ], [ -84.251567465722658, 30.942584131922924 ] ] ] } },
{ "type": "Feature", "properties": { "ID": 40451, "date": "2022-12-26T00:00:00", "smokePM_pred": 8.4561271667480504 }, "geometry": { "type": "Polygon", "coordinates": [ [ [ -91.075114071683188, 30.016247100362687 ], [ -91.055653196293406, 29.932635712303384 ], [ -91.151614310975233, 29.915690275473853 ], [ -91.171142297041982, 29.999244727640384 ], [ -91.075114071683188, 30.016247100362687 ] ] ] } },
{ "type": "Feature", "properties": { "ID": 40452, "date": "2022-12-26T00:00:00", "smokePM_pred": 8.1301317214965803 }, "geometry": { "type": "Polygon", "coordinates": [ [ [ -90.979003875175025, 30.033187911974562 ], [ -90.959610386455637, 29.949519775239313 ], [ -91.055653196293406, 29.932635712303384 ], [ -91.075114071683188, 30.016247100362687 ], [ -90.979003875175025, 30.033187911974562 ] ] ] } },
{ "type": "Feature", "properties": { "ID": 40453, "date": "2022-12-26T00:00:00", "smokePM_pred": 7.2754330635070801 }, "geometry": { "type": "Polygon", "coordinates": [ [ [ -90.882811946955869, 30.050066951221091 ], [ -90.863486120532087, 29.966342253921383 ], [ -90.959610386455637, 29.949519775239313 ], [ -90.979003875175025, 30.033187911974562 ], [ -90.882811946955869, 30.050066951221091 ] ] ] } },
{ "type": "Feature", "properties": { "ID": 40454, "date": "2022-12-26T00:00:00", "smokePM_pred": 6.8554096221923801 }, "geometry": { "type": "Polygon", "coordinates": [ [ [ -90.786538528050912, 30.066884007253019 ], [ -90.767280639170664, 29.983102938394232 ], [ -90.863486120532087, 29.966342253921383 ], [ -90.882811946955869, 30.050066951221091 ], [ -90.786538528050912, 30.066884007253019 ] ] ] } },
{ "type": "Feature", "properties": { "ID": 40455, "date": "2022-12-26T00:00:00", "smokePM_pred": 6.8863506317138699 }, "geometry": { "type": "Polygon", "coordinates": [ [ [ -90.690183861072498, 30.083638869632935 ], [ -90.670994184597163, 29.999801619113512 ], [ -90.767280639170664, 29.983102938394232 ], [ -90.786538528050912, 30.066884007253019 ], [ -90.690183861072498, 30.083638869632935 ] ] ] } },
{ "type": "Feature", "properties": { "ID": 40456, "date": "2022-12-26T00:00:00", "smokePM_pred": 6.6121840476989702 }, "geometry": { "type": "Polygon", "coordinates": [ [ [ -90.593748190219898, 30.100331328341447 ], [ -90.574627000615166, 30.0164380869521 ], [ -90.670994184597163, 29.999801619113512 ], [ -90.690183861072498, 30.083638869632935 ], [ -90.593748190219898, 30.100331328341447 ] ] ] } },
{ "type": "Feature", "properties": { "ID": 40457, "date": "2022-12-26T00:00:00", "smokePM_pred": 4.9851446151733398 }, "geometry": { "type": "Polygon", "coordinates": [ [ [ -90.497231761279323, 30.116961173783412 ], [ -90.478179332605961, 30.033012133206263 ], [ -90.574627000615166, 30.0164380869521 ], [ -90.593748190219898, 30.100331328341447 ], [ -90.497231761279323, 30.116961173783412 ] ] ] } },
{ "type": "Feature", "properties": { "ID": 40458, "date": "2022-12-26T00:00:00", "smokePM_pred": 4.2337217330932599 }, "geometry": { "type": "Polygon", "coordinates": [ [ [ -90.400634821623882, 30.133528196794153 ], [ -90.38165142752851, 30.049523549601801 ], [ -90.478179332605961, 30.033012133206263 ], [ -90.497231761279323, 30.116961173783412 ], [ -90.400634821623882, 30.133528196794153 ] ] ] } },
{ "type": "Feature", "properties": { "ID": 40518, "date": "2022-12-26T00:00:00", "smokePM_pred": 4.3654456138610804 }, "geometry": { "type": "Polygon", "coordinates": [ [ [ -84.467777985275461, 31.004978008493811 ], [ -84.453416142054905, 30.918022257889184 ], [ -84.554247291171336, 30.905629823175641 ], [ -84.568693470972477, 30.992543096916556 ], [ -84.467777985275461, 31.004978008493811 ] ] ] } },
{ "type": "Feature", "properties": { "ID": 40519, "date": "2022-12-26T00:00:00", "smokePM_pred": 4.2624015808105504 }, "geometry": { "type": "Polygon", "coordinates": [ [ [ -84.366800029347942, 31.017338400942588 ], [ -84.352522753066282, 30.930340417309722 ], [ -84.453416142054905, 30.918022257889184 ], [ -84.467777985275461, 31.004978008493811 ], [ -84.366800029347942, 31.017338400942588 ] ] ] } },
{ "type": "Feature", "properties": { "ID": 40520, "date": "2022-12-26T00:00:00", "smokePM_pred": 4.1632227897643999 }, "geometry": { "type": "Polygon", "coordinates": [ [ [ -84.265759945714876, 31.029624103981213 ], [ -84.251567465722658, 30.942584131922924 ], [ -84.352522753066282, 30.930340417309722 ], [ -84.366800029347942, 31.017338400942588 ], [ -84.265759945714876, 31.029624103981213 ] ] ] } },
{ "type": "Feature", "properties": { "ID": 40965, "date": "2022-12-26T00:00:00", "smokePM_pred": 8.1235761642456001 }, "geometry": { "type": "Polygon", "coordinates": [ [ [ -91.19075249237406, 30.082786533073278 ], [ -91.171142297041982, 29.999244727640384 ], [ -91.267088313399881, 29.982181005462035 ], [ -91.28676557932134, 30.065665603126238 ], [ -91.19075249237406, 30.082786533073278 ] ] ] } },
{ "type": "Feature", "properties": { "ID": 40966, "date": "2022-12-26T00:00:00", "smokePM_pred": 6.7981853485107404 }, "geometry": { "type": "Polygon", "coordinates": [ [ [ -91.094656918486805, 30.09984592715853 ], [ -91.075114071683188, 30.016247100362687 ], [ -91.171142297041982, 29.999244727640384 ], [ -91.19075249237406, 30.082786533073278 ], [ -91.094656918486805, 30.09984592715853 ] ] ] } },
{ "type": "Feature", "properties": { "ID": 40967, "date": "2022-12-26T00:00:00", "smokePM_pred": 7.7473602294921902 }, "geometry": { "type": "Polygon", "coordinates": [ [ [ -90.998479095869953, 30.116843572829087 ], [ -90.979003875175025, 30.033187911974562 ], [ -91.075114071683188, 30.016247100362687 ], [ -91.094656918486805, 30.09984592715853 ], [ -90.998479095869953, 30.116843572829087 ] ] ] } },
{ "type": "Feature", "properties": { "ID": 40968, "date": "2022-12-26T00:00:00", "smokePM_pred": 6.8957018852233896 }, "geometry": { "type": "Polygon", "coordinates": [ [ [ -90.902219264329915, 30.133779257932293 ], [ -90.882811946955869, 30.050066951221091 ], [ -90.979003875175025, 30.033187911974562 ], [ -90.998479095869953, 30.116843572829087 ], [ -90.902219264329915, 30.133779257932293 ] ] ] } },
{ "type": "Feature", "properties": { "ID": 40969, "date": "2022-12-26T00:00:00", "smokePM_pred": 7.0282845497131303 }, "geometry": { "type": "Polygon", "coordinates": [ [ [ -90.805877665269179, 30.150652770721848 ], [ -90.786538528050912, 30.066884007253019 ], [ -90.882811946955869, 30.050066951221091 ], [ -90.902219264329915, 30.133779257932293 ], [ -90.805877665269179, 30.150652770721848 ] ] ] } },
{ "type": "Feature", "properties": { "ID": 40970, "date": "2022-12-26T00:00:00", "smokePM_pred": 7.5909752845764196 }, "geometry": { "type": "Polygon", "coordinates": [ [ [ -90.709454541686526, 30.167463899864128 ], [ -90.690183861072498, 30.083638869632935 ], [ -90.786538528050912, 30.066884007253019 ], [ -90.805877665269179, 30.150652770721848 ], [ -90.709454541686526, 30.167463899864128 ] ] ] } },
{ "type": "Feature", "properties": { "ID": 40971, "date": "2022-12-26T00:00:00", "smokePM_pred": 7.4906687736511204 }, "geometry": { "type": "Polygon", "coordinates": [ [ [ -90.612950138177027, 30.184212434444291 ], [ -90.593748190219898, 30.100331328341447 ], [ -90.690183861072498, 30.083638869632935 ], [ -90.709454541686526, 30.167463899864128 ], [ -90.612950138177027, 30.184212434444291 ] ] ] } },
{ "type": "Feature", "properties": { "ID": 41033, "date": "2022-12-26T00:00:00", "smokePM_pred": 4.0683217048645002 }, "geometry": { "type": "Polygon", "coordinates": [ [ [ -84.482202298965973, 31.091926564356203 ], [ -84.467777985275461, 31.004978008493811 ], [ -84.568693470972477, 30.992543096916556 ], [ -84.583202462332679, 31.079449103428832 ], [ -84.482202298965973, 31.091926564356203 ] ] ] } },
{ "type": "Feature", "properties": { "ID": 41479, "date": "2022-12-26T00:00:00", "smokePM_pred": 8.5937051773071307 }, "geometry": { "type": "Polygon", "coordinates": [ [ [ -91.306525569063325, 30.149137408096532 ], [ -91.28676557932134, 30.065665603126238 ], [ -91.382695942713994, 30.048483350264291 ], [ -91.402522959775737, 30.131897675926485 ], [ -91.306525569063325, 30.149137408096532 ] ] ] } },
{ "type": "Feature", "properties": { "ID": 41480, "date": "2022-12-26T00:00:00", "smokePM_pred": 9.0608921051025408 }, "geometry": { "type": "Polygon", "coordinates": [ [ [ -91.210445174912081, 30.166315631764228 ], [ -91.19075249237406, 30.082786533073278 ], [ -91.28676557932134, 30.065665603126238 ], [ -91.306525569063325, 30.149137408096532 ], [ -91.210445174912081, 30.166315631764228 ] ] ] } },
{ "type": "Feature", "properties": { "ID": 41481, "date": "2022-12-26T00:00:00", "smokePM_pred": 9.3701562881469709 }, "geometry": { "type": "Polygon", "coordinates": [ [ [ -91.11428201428599, 30.183432133080363 ], [ -91.094656918486805, 30.09984592715853 ], [ -91.19075249237406, 30.082786533073278 ], [ -91.210445174912081, 30.166315631764228 ], [ -91.11428201428599, 30.183432133080363 ] ] ] } },
{ "type": "Feature", "properties": { "ID": 41482, "date": "2022-12-26T00:00:00", "smokePM_pred": 8.2798738479614293 }, "geometry": { "type": "Polygon", "coordinates": [ [ [ -91.018036325754096, 30.200486698590417 ], [ -90.998479095869953, 30.116843572829087 ], [ -91.094656918486805, 30.09984592715853 ], [ -91.11428201428599, 30.183432133080363 ], [ -91.018036325754096, 30.200486698590417 ] ] ] } },
{ "type": "Feature", "properties": { "ID": 41483, "date": "2022-12-26T00:00:00", "smokePM_pred": 7.71771335601807 }, "geometry": { "type": "Polygon", "coordinates": [ [ [ -90.921708349490672, 30.21747911524076 ], [ -90.902219264329915, 30.133779257932293 ], [ -90.998479095869953, 30.116843572829087 ], [ -91.018036325754096, 30.200486698590417 ], [ -90.921708349490672, 30.21747911524076 ] ] ] } },
{ "type": "Feature", "properties": { "ID": 41994, "date": "2022-12-26T00:00:00", "smokePM_pred": 8.0596885681152308 }, "geometry": { "type": "Polygon", "coordinates": [ [ [ -91.326368562511618, 30.232596359690362 ], [ -91.306525569063325, 30.149137408096532 ], [ -91.402522959775737, 30.131897675926485 ], [ -91.422433215903069, 30.21529906178052 ], [ -91.326368562511618, 30.232596359690362 ] ] ] } },
{ "type": "Feature", "properties": { "ID": 41995, "date": "2022-12-26T00:00:00", "smokePM_pred": 7.2552003860473597 }, "geometry": { "type": "Polygon", "coordinates": [ [ [ -91.230220624192413, 30.249831963429802 ], [ -91.210445174912081, 30.166315631764228 ], [ -91.306525569063325, 30.149137408096532 ], [ -91.326368562511618, 30.232596359690362 ], [ -91.230220624192413, 30.249831963429802 ] ] ] } },
{ "type": "Feature", "properties": { "ID": 41996, "date": "2022-12-26T00:00:00", "smokePM_pred": 7.5046515464782697 }, "geometry": { "type": "Polygon", "coordinates": [ [ [ -91.133989638258527, 30.26700565824417 ], [ -91.11428201428599, 30.183432133080363 ], [ -91.210445174912081, 30.166315631764228 ], [ -91.230220624192413, 30.249831963429802 ], [ -91.133989638258527, 30.26700565824417 ] ] ] } },
{ "type": "Feature", "properties": { "ID": 41997, "date": "2022-12-26T00:00:00", "smokePM_pred": 8.5592107772827095 }, "geometry": { "type": "Polygon", "coordinates": [ [ [ -91.037675843637373, 30.284117229774111 ], [ -91.018036325754096, 30.200486698590417 ], [ -91.11428201428599, 30.183432133080363 ], [ -91.133989638258527, 30.26700565824417 ], [ -91.037675843637373, 30.284117229774111 ] ] ] } },
{ "type": "Feature", "properties": { "ID": 42509, "date": "2022-12-26T00:00:00", "smokePM_pred": 6.9496164321899396 }, "geometry": { "type": "Polygon", "coordinates": [ [ [ -91.346294841156691, 30.316042396946507 ], [ -91.326368562511618, 30.232596359690362 ], [ -91.422433215903069, 30.21529906178052 ], [ -91.442426992926286, 30.29868744646479 ], [ -91.346294841156691, 30.316042396946507 ] ] ] } },
{ "type": "Feature", "properties": { "ID": 42510, "date": "2022-12-26T00:00:00", "smokePM_pred": 6.9884414672851598 }, "geometry": { "type": "Polygon", "coordinates": [ [ [ -91.250079121356478, 30.33333546750946 ], [ -91.230220624192413, 30.249831963429802 ], [ -91.326368562511618, 30.232596359690362 ], [ -91.346294841156691, 30.316042396946507 ], [ -91.250079121356478, 30.33333546750946 ] ] ] } },
{ "type": "Feature", "properties": { "ID": 42511, "date": "2022-12-26T00:00:00", "smokePM_pred": 6.80265235900879 }, "geometry": { "type": "Polygon", "coordinates": [ [ [ -91.153780071187441, 30.350566442490319 ], [ -91.133989638258527, 30.26700565824417 ], [ -91.230220624192413, 30.249831963429802 ], [ -91.250079121356478, 30.33333546750946 ], [ -91.153780071187441, 30.350566442490319 ] ] ] } },
{ "type": "Feature", "properties": { "ID": 43051, "date": "2022-12-26T00:00:00", "smokePM_pred": 4.0297255516052202 }, "geometry": { "type": "Polygon", "coordinates": [ [ [ -88.738024584517561, 30.845456491695039 ], [ -88.719949856598333, 30.760537668692482 ], [ -88.818250176858811, 30.744927904222333 ], [ -88.836400176519248, 30.829794322310551 ], [ -88.738024584517561, 30.845456491695039 ] ] ] } },
{ "type": "Feature", "properties": { "ID": 43110, "date": "2022-12-26T00:00:00", "smokePM_pred": 4.4021506309509304 }, "geometry": { "type": "Polygon", "coordinates": [ [ [ -82.808260391165632, 31.642942640221857 ], [ -82.795082235113156, 31.555333038430618 ], [ -82.897368266471346, 31.544033947701109 ], [ -82.910636367411712, 31.631604982074592 ], [ -82.808260391165632, 31.642942640221857 ] ] ] } },
{ "type": "Feature", "properties": { "ID": 43111, "date": "2022-12-26T00:00:00", "smokePM_pred": 4.32800245285034 }, "geometry": { "type": "Polygon", "coordinates": [ [ [ -82.705826878699568, 31.654201712544594 ], [ -82.692738886293668, 31.566553801571263 ], [ -82.795082235113156, 31.555333038430618 ], [ -82.808260391165632, 31.642942640221857 ], [ -82.705826878699568, 31.654201712544594 ] ] ] } },
{ "type": "Feature", "properties": { "ID": 43112, "date": "2022-12-26T00:00:00", "smokePM_pred": 4.1428480148315403 }, "geometry": { "type": "Polygon", "coordinates": [ [ [ -82.603336202076576, 31.665382039918626 ], [ -82.590338590878503, 31.577696078723982 ], [ -82.692738886293668, 31.566553801571263 ], [ -82.705826878699568, 31.654201712544594 ], [ -82.603336202076576, 31.665382039918626 ] ] ] } },
{ "type": "Feature", "properties": { "ID": 43566, "date": "2022-12-26T00:00:00", "smokePM_pred": 3.7133829593658398 }, "geometry": { "type": "Polygon", "coordinates": [ [ [ -88.756176166217557, 30.930364603031691 ], [ -88.738024584517561, 30.845456491695039 ], [ -88.836400176519248, 30.829794322310551 ], [ -88.854627310358211, 30.914649944392927 ], [ -88.756176166217557, 30.930364603031691 ] ] ] } },
{ "type": "Feature", "properties": { "ID": 43567, "date": "2022-12-26T00:00:00", "smokePM_pred": 3.7026419639587398 }, "geometry": { "type": "Polygon", "coordinates": [ [ [ -88.657647895005553, 30.946011296012518 ], [ -88.639572139004869, 30.86105090570662 ], [ -88.738024584517561, 30.845456491695039 ], [ -88.756176166217557, 30.930364603031691 ], [ -88.657647895005553, 30.946011296012518 ] ] ] } },
{ "type": "Feature", "properties": { "ID": 43626, "date": "2022-12-26T00:00:00", "smokePM_pred": 4.7659645080566397 }, "geometry": { "type": "Polygon", "coordinates": [ [ [ -82.718972035492982, 31.741843542387674 ], [ -82.705826878699568, 31.654201712544594 ], [ -82.808260391165632, 31.642942640221857 ], [ -82.821496083669757, 31.73054609260938 ], [ -82.718972035492982, 31.741843542387674 ] ] ] } },
{ "type": "Feature", "properties": { "ID": 43627, "date": "2022-12-26T00:00:00", "smokePM_pred": 4.7472486495971697 }, "geometry": { "type": "Polygon", "coordinates": [ [ [ -82.61639060421443, 31.753061987888238 ], [ -82.603336202076576, 31.665382039918626 ], [ -82.705826878699568, 31.654201712544594 ], [ -82.718972035492982, 31.741843542387674 ], [ -82.61639060421443, 31.753061987888238 ] ] ] } },
{ "type": "Feature", "properties": { "ID": 43639, "date": "2022-12-26T00:00:00", "smokePM_pred": 5.7283306121826199 }, "geometry": { "type": "Polygon", "coordinates": [ [ [ -81.381075297893844, 31.881464116883631 ], [ -81.369126578174487, 31.793347238908304 ], [ -81.472273706742897, 31.783123915410108 ], [ -81.484315711109431, 31.871205842606848 ], [ -81.381075297893844, 31.881464116883631 ] ] ] } },
{ "type": "Feature", "properties": { "ID": 43640, "date": "2022-12-26T00:00:00", "smokePM_pred": 3.6451170444488499 }, "geometry": { "type": "Polygon", "coordinates": [ [ [ -81.277782478385731, 31.891641396600146 ], [ -81.265927245750362, 31.803489836287184 ], [ -81.369126578174487, 31.793347238908304 ], [ -81.381075297893844, 31.881464116883631 ], [ -81.277782478385731, 31.891641396600146 ] ] ] } },
{ "type": "Feature", "properties": { "ID": 43641, "date": "2022-12-26T00:00:00", "smokePM_pred": 3.2719390392303498 }, "geometry": { "type": "Polygon", "coordinates": [ [ [ -81.174437644737466, 31.901737535609815 ], [ -81.16267610028828, 31.813551562072448 ], [ -81.265927245750362, 31.803489836287184 ], [ -81.277782478385731, 31.891641396600146 ], [ -81.174437644737466, 31.901737535609815 ] ] ] } },
{ "type": "Feature", "properties": { "ID": 43642, "date": "2022-12-26T00:00:00", "smokePM_pred": 2.0952053070068399 }, "geometry": { "type": "Polygon", "coordinates": [ [ [ -81.071041190396528, 31.911752388786972 ], [ -81.059373533891971, 31.823532271806496 ], [ -81.16267610028828, 31.813551562072448 ], [ -81.174437644737466, 31.901737535609815 ], [ -81.071041190396528, 31.911752388786972 ] ] ] } },
{ "type": "Feature", "properties": { "ID": 43643, "date": "2022-12-26T00:00:00", "smokePM_pred": 1.9251447916030899 }, "geometry": { "type": "Polygon", "coordinates": [ [ [ -80.967593510097885, 31.921685812032393 ], [ -80.956019939943715, 31.833431822053818 ], [ -81.059373533891971, 31.823532271806496 ], [ -81.071041190396528, 31.911752388786972 ], [ -80.967593510097885, 31.921685812032393 ] ] ] } },
{ "type": "Feature", "properties": { "ID": 44081, "date": "2022-12-26T00:00:00", "smokePM_pred": 3.7253727912902801 }, "geometry": { "type": "Polygon", "coordinates": [ [ [ -88.774404875260345, 31.015261951889496 ], [ -88.756176166217557, 30.930364603031691 ], [ -88.854627310358211, 30.914649944392927 ], [ -88.872931852540063, 30.99949471924959 ], [ -88.774404875260345, 31.015261951889496 ] ] ] } },
{ "type": "Feature", "properties": { "ID": 44082, "date": "2022-12-26T00:00:00", "smokePM_pred": 3.8890802860260001 }, "geometry": { "type": "Polygon", "coordinates": [ [ [ -88.675800495720097, 31.030961008417609 ], [ -88.657647895005553, 30.946011296012518 ], [ -88.756176166217557, 30.930364603031691 ], [ -88.774404875260345, 31.015261951889496 ], [ -88.675800495720097, 31.030961008417609 ] ] ] } },
{ "type": "Feature", "properties": { "ID": 44093, "date": "2022-12-26T00:00:00", "smokePM_pred": 3.43073606491089 }, "geometry": { "type": "Polygon", "coordinates": [ [ [ -87.586125947569855, 31.199092682329862 ], [ -87.568828518118536, 31.113581113854302 ], [ -87.668186176464147, 31.098695411511461 ], [ -87.685562698573193, 31.184156989721142 ], [ -87.586125947569855, 31.199092682329862 ] ] ] } },
{ "type": "Feature", "properties": { "ID": 44137, "date": "2022-12-26T00:00:00", "smokePM_pred": 5.1739449501037598 }, "geometry": { "type": "Polygon", "coordinates": [ [ [ -83.142285045885103, 31.783661706736023 ], [ -83.128720203924772, 31.696181320807305 ], [ -83.231011001052622, 31.684569461773847 ], [ -83.244665858634562, 31.772010370175845 ], [ -83.142285045885103, 31.783661706736023 ] ] ] } },
{ "type": "Feature", "properties": { "ID": 44138, "date": "2022-12-26T00:00:00", "smokePM_pred": 4.1656689643859899 }, "geometry": { "type": "Polygon", "coordinates": [ [ [ -83.039845140268213, 31.795234427270458 ], [ -83.026370539050049, 31.707714820565627 ], [ -83.128720203924772, 31.696181320807305 ], [ -83.142285045885103, 31.783661706736023 ], [ -83.039845140268213, 31.795234427270458 ] ] ] } },
{ "type": "Feature", "properties": { "ID": 44139, "date": "2022-12-26T00:00:00", "smokePM_pred": 4.3087568283081099 }, "geometry": { "type": "Polygon", "coordinates": [ [ [ -82.937346512014358, 31.806728368393657 ], [ -82.923962375477885, 31.719169798405865 ], [ -83.026370539050049, 31.707714820565627 ], [ -83.039845140268213, 31.795234427270458 ], [ -82.937346512014358, 31.806728368393657 ] ] ] } },
{ "type": "Feature", "properties": { "ID": 44153, "date": "2022-12-26T00:00:00", "smokePM_pred": 5.1769967079162598 }, "geometry": { "type": "Polygon", "coordinates": [ [ [ -81.496410512836576, 31.959282454875641 ], [ -81.484315711109431, 31.871205842606848 ], [ -81.587503327182773, 31.860866720931817 ], [ -81.5996915993356, 31.948908050673829 ], [ -81.496410512836576, 31.959282454875641 ] ] ] } },
{ "type": "Feature", "properties": { "ID": 44154, "date": "2022-12-26T00:00:00", "smokePM_pred": 5.1321463584899902 }, "geometry": { "type": "Polygon", "coordinates": [ [ [ -81.393076424122839, 31.969575743507772 ], [ -81.381075297893844, 31.881464116883631 ], [ -81.484315711109431, 31.871205842606848 ], [ -81.496410512836576, 31.959282454875641 ], [ -81.393076424122839, 31.969575743507772 ] ] ] } },
{ "type": "Feature", "properties": { "ID": 44155, "date": "2022-12-26T00:00:00", "smokePM_pred": 5.7317485809326199 }, "geometry": { "type": "Polygon", "coordinates": [ [ [ -81.289689725377102, 31.979787768728624 ], [ -81.277782478385731, 31.891641396600146 ], [ -81.381075297893844, 31.881464116883631 ], [ -81.393076424122839, 31.969575743507772 ], [ -81.289689725377102, 31.979787768728624 ] ] ] } },
{ "type": "Feature", "properties": { "ID": 44156, "date": "2022-12-26T00:00:00", "smokePM_pred": 5.1133170127868697 }, "geometry": { "type": "Polygon", "coordinates": [ [ [ -81.18625081009391, 31.989918383716304 ], [ -81.174437644737466, 31.901737535609815 ], [ -81.277782478385731, 31.891641396600146 ], [ -81.289689725377102, 31.979787768728624 ], [ -81.18625081009391, 31.989918383716304 ] ] ] } },
{ "type": "Feature", "properties": { "ID": 44157, "date": "2022-12-26T00:00:00", "smokePM_pred": 5.5744276046752903 }, "geometry": { "type": "Polygon", "coordinates": [ [ [ -81.08276007307208, 31.999967442674166 ], [ -81.071041190396528, 31.911752388786972 ], [ -81.174437644737466, 31.901737535609815 ], [ -81.18625081009391, 31.989918383716304 ], [ -81.08276007307208, 31.999967442674166 ] ] ] } },
{ "type": "Feature", "properties": { "ID": 44158, "date": "2022-12-26T00:00:00", "smokePM_pred": 3.3283278942108199 }, "geometry": { "type": "Polygon", "coordinates": [ [ [ -80.979217910406987, 32.009934800836206 ], [ -80.967593510097885, 31.921685812032393 ], [ -81.071041190396528, 31.911752388786972 ], [ -81.08276007307208, 31.999967442674166 ], [ -80.979217910406987, 32.009934800836206 ] ] ] } },
{ "type": "Feature", "properties": { "ID": 44608, "date": "2022-12-26T00:00:00", "smokePM_pred": 3.5833609104156499 }, "geometry": { "type": "Polygon", "coordinates": [ [ [ -87.603497272956972, 31.284594444980989 ], [ -87.586125947569855, 31.199092682329862 ], [ -87.685562698573193, 31.184156989721142 ], [ -87.703013417772368, 31.269608679204321 ], [ -87.603497272956972, 31.284594444980989 ] ] ] } },
{ "type": "Feature", "properties": { "ID": 44609, "date": "2022-12-26T00:00:00", "smokePM_pred": 4.1459670066833496 }, "geometry": { "type": "Polygon", "coordinates": [ [ [ -87.503906963707919, 31.299509387963663 ], [ -87.486615300899985, 31.213957773360463 ], [ -87.586125947569855, 31.199092682329862 ], [ -87.603497272956972, 31.284594444980989 ], [ -87.503906963707919, 31.299509387963663 ] ] ] } },
{ "type": "Feature", "properties": { "ID": 44625, "date": "2022-12-26T00:00:00", "smokePM_pred": 4.1052560806274396 }, "geometry": { "type": "Polygon", "coordinates": [ [ [ -85.900628259607345, 31.528356282730407 ], [ -85.884647116139817, 31.442037826207898 ], [ -85.98529782649716, 31.428328841681427 ], [ -86.001362825353155, 31.514601102651238 ], [ -85.900628259607345, 31.528356282730407 ] ] ] } },
{ "type": "Feature", "properties": { "ID": 44626, "date": "2022-12-26T00:00:00", "smokePM_pred": 4.2467274665832502 }, "geometry": { "type": "Polygon", "coordinates": [ [ [ -85.799824907919501, 31.54203735105926 ], [ -85.783927874647844, 31.455672934700303 ], [ -85.884647116139817, 31.442037826207898 ], [ -85.900628259607345, 31.528356282730407 ], [ -85.799824907919501, 31.54203735105926 ] ] ] } },
{ "type": "Feature", "properties": { "ID": 44650, "date": "2022-12-26T00:00:00", "smokePM_pred": 4.8162522315979004 }, "geometry": { "type": "Polygon", "coordinates": [ [ [ -83.360791685904132, 31.847675200963955 ], [ -83.346987209714101, 31.760280581897469 ], [ -83.449248731755233, 31.748472507124429 ], [ -83.463143135751025, 31.835827066260475 ], [ -83.360791685904132, 31.847675200963955 ] ] ] } },
{ "type": "Feature", "properties": { "ID": 44651, "date": "2022-12-26T00:00:00", "smokePM_pred": 5.1602582931518599 }, "geometry": { "type": "Polygon", "coordinates": [ [ [ -83.258380178125449, 31.859444793566269 ], [ -83.244665858634562, 31.772010370175845 ], [ -83.346987209714101, 31.760280581897469 ], [ -83.360791685904132, 31.847675200963955 ], [ -83.258380178125449, 31.859444793566269 ] ] ] } },
{ "type": "Feature", "properties": { "ID": 44652, "date": "2022-12-26T00:00:00", "smokePM_pred": 5.1555914878845197 }, "geometry": { "type": "Polygon", "coordinates": [ [ [ -83.155908980950883, 31.871135678090777 ], [ -83.142285045885103, 31.783661706736023 ], [ -83.244665858634562, 31.772010370175845 ], [ -83.258380178125449, 31.859444793566269 ], [ -83.155908980950883, 31.871135678090777 ] ] ] } },
{ "type": "Feature", "properties": { "ID": 44653, "date": "2022-12-26T00:00:00", "smokePM_pred": 4.0964884757995597 }, "geometry": { "type": "Polygon", "coordinates": [ [ [ -83.053378464360321, 31.882747689480482 ], [ -83.039845140268213, 31.795234427270458 ], [ -83.142285045885103, 31.783661706736023 ], [ -83.155908980950883, 31.871135678090777 ], [ -83.053378464360321, 31.882747689480482 ] ] ] } },
{ "type": "Feature", "properties": { "ID": 44654, "date": "2022-12-26T00:00:00", "smokePM_pred": 4.02823734283447 }, "geometry": { "type": "Polygon", "coordinates": [ [ [ -82.950788999771447, 31.894280663604018 ], [ -82.937346512014358, 31.806728368393657 ], [ -83.039845140268213, 31.795234427270458 ], [ -83.053378464360321, 31.882747689480482 ], [ -82.950788999771447, 31.894280663604018 ] ] ] } },
{ "type": "Feature", "properties": { "ID": 44669, "date": "2022-12-26T00:00:00", "smokePM_pred": 4.9673938751220703 }, "geometry": { "type": "Polygon", "coordinates": [ [ [ -81.405130160602468, 32.057682095542276 ], [ -81.393076424122839, 31.969575743507772 ], [ -81.496410512836576, 31.959282454875641 ], [ -81.508558316998361, 32.047353728643898 ], [ -81.405130160602468, 32.057682095542276 ] ] ] } },
{ "type": "Feature", "properties": { "ID": 44670, "date": "2022-12-26T00:00:00", "smokePM_pred": 5.3693714141845703 }, "geometry": { "type": "Polygon", "coordinates": [ [ [ -81.301649189123282, 32.06792892976646 ], [ -81.289689725377102, 31.979787768728624 ], [ -81.393076424122839, 31.969575743507772 ], [ -81.405130160602468, 32.057682095542276 ], [ -81.301649189123282, 32.06792892976646 ] ] ] } },
{ "type": "Feature", "properties": { "ID": 44671, "date": "2022-12-26T00:00:00", "smokePM_pred": 5.9279212951660201 }, "geometry": { "type": "Polygon", "coordinates": [ [ [ -81.198115797405094, 32.078094083816211 ], [ -81.18625081009391, 31.989918383716304 ], [ -81.289689725377102, 31.979787768728624 ], [ -81.301649189123282, 32.06792892976646 ], [ -81.198115797405094, 32.078094083816211 ] ] ] } },
{ "type": "Feature", "properties": { "ID": 44672, "date": "2022-12-26T00:00:00", "smokePM_pred": 5.6565895080566397 }, "geometry": { "type": "Polygon", "coordinates": [ [ [ -81.094530381605693, 32.088177411220848 ], [ -81.08276007307208, 31.999967442674166 ], [ -81.18625081009391, 31.989918383716304 ], [ -81.198115797405094, 32.078094083816211 ], [ -81.094530381605693, 32.088177411220848 ] ] ] } },
{ "type": "Feature", "properties": { "ID": 44673, "date": "2022-12-26T00:00:00", "smokePM_pred": 3.3865740299224898 }, "geometry": { "type": "Polygon", "coordinates": [ [ [ -80.990893339188602, 32.098178766544684 ], [ -80.979217910406987, 32.009934800836206 ], [ -81.08276007307208, 31.999967442674166 ], [ -81.094530381605693, 32.088177411220848 ], [ -80.990893339188602, 32.098178766544684 ] ] ] } },
{ "type": "Feature", "properties": { "ID": 45123, "date": "2022-12-26T00:00:00", "smokePM_pred": 3.6563487052917498 }, "geometry": { "type": "Polygon", "coordinates": [ [ [ -87.620942763048703, 31.370086355415367 ], [ -87.603497272956972, 31.284594444980989 ], [ -87.703013417772368, 31.269608679204321 ], [ -87.720538603558779, 31.355050433162113 ], [ -87.620942763048703, 31.370086355415367 ] ] ] } },
{ "type": "Feature", "properties": { "ID": 45124, "date": "2022-12-26T00:00:00", "smokePM_pred": 4.3491883277893102 }, "geometry": { "type": "Polygon", "coordinates": [ [ [ -87.521272487711983, 31.385051233448259 ], [ -87.503906963707919, 31.299509387963663 ], [ -87.603497272956972, 31.284594444980989 ], [ -87.620942763048703, 31.370086355415367 ], [ -87.521272487711983, 31.385051233448259 ] ] ] } },
{ "type": "Feature", "properties": { "ID": 45140, "date": "2022-12-26T00:00:00", "smokePM_pred": 4.0913443565368697 }, "geometry": { "type": "Polygon", "coordinates": [ [ [ -85.916678189279025, 31.614666268256457 ], [ -85.900628259607345, 31.528356282730407 ], [ -86.001362825353155, 31.514601102651238 ], [ -86.0174969395445, 31.600864813364254 ], [ -85.916678189279025, 31.614666268256457 ] ] ] } },
{ "type": "Feature", "properties": { "ID": 45141, "date": "2022-12-26T00:00:00", "smokePM_pred": 4.3023614883422896 }, "geometry": { "type": "Polygon", "coordinates": [ [ [ -85.81579039669144, 31.628393375412934 ], [ -85.799824907919501, 31.54203735105926 ], [ -85.900628259607345, 31.528356282730407 ], [ -85.916678189279025, 31.614666268256457 ], [ -85.81579039669144, 31.628393375412934 ] ] ] } },
{ "type": "Feature", "properties": { "ID": 45142, "date": "2022-12-26T00:00:00", "smokePM_pred": 4.1307601928710902 }, "geometry": { "type": "Polygon", "coordinates": [ [ [ -85.714833893402869, 31.642045947036852 ], [ -85.69895310099281, 31.555644120675517 ], [ -85.799824907919501, 31.54203735105926 ], [ -85.81579039669144, 31.628393375412934 ], [ -85.714833893402869, 31.642045947036852 ] ] ] } },
{ "type": "Feature", "properties": { "ID": 45143, "date": "2022-12-26T00:00:00", "smokePM_pred": 4.3203721046447798 }, "geometry": { "type": "Polygon", "coordinates": [ [ [ -85.613809012613658, 31.655623796097849 ], [ -85.598013171099282, 31.569176405380652 ], [ -85.69895310099281, 31.555644120675517 ], [ -85.714833893402869, 31.642045947036852 ], [ -85.613809012613658, 31.655623796097849 ] ] ] } },
{ "type": "Feature", "properties": { "ID": 45144, "date": "2022-12-26T00:00:00", "smokePM_pred": 4.10385990142822 }, "geometry": { "type": "Polygon", "coordinates": [ [ [ -85.512716089099314, 31.66912673633842 ], [ -85.497005452075769, 31.582634019746351 ], [ -85.598013171099282, 31.569176405380652 ], [ -85.613809012613658, 31.655623796097849 ], [ -85.512716089099314, 31.66912673633842 ] ] ] } },
{ "type": "Feature", "properties": { "ID": 45146, "date": "2022-12-26T00:00:00", "smokePM_pred": 4.1663255691528303 }, "geometry": { "type": "Polygon", "coordinates": [ [ [ -85.310327460848882, 31.695907149231331 ], [ -85.294787989785732, 31.609324499635242 ], [ -85.395930279319842, 31.596016779120802 ], [ -85.411555459206497, 31.682554582280389 ], [ -85.310327460848882, 31.695907149231331 ] ] ] } },
{ "type": "Feature", "properties": { "ID": 45147, "date": "2022-12-26T00:00:00", "smokePM_pred": 4.4425621032714799 }, "geometry": { "type": "Polygon", "coordinates": [ [ [ -85.209032433502884, 31.709184253290982 ], [ -85.193578921980091, 31.62255699821019 ], [ -85.294787989785732, 31.609324499635242 ], [ -85.310327460848882, 31.695907149231331 ], [ -85.209032433502884, 31.709184253290982 ] ] ] } },
{ "type": "Feature", "properties": { "ID": 45148, "date": "2022-12-26T00:00:00", "smokePM_pred": 4.3409986495971697 }, "geometry": { "type": "Polygon", "coordinates": [ [ [ -85.107670718203323, 31.722385711357632 ], [ -85.092303415957645, 31.635714092561848 ], [ -85.193578921980091, 31.62255699821019 ], [ -85.209032433502884, 31.709184253290982 ], [ -85.107670718203323, 31.722385711357632 ] ] ] } },
{ "type": "Feature", "properties": { "ID": 45165, "date": "2022-12-26T00:00:00", "smokePM_pred": 4.7782492637634304 }, "geometry": { "type": "Polygon", "coordinates": [ [ [ -83.374656220267653, 31.935063234204254 ], [ -83.360791685904132, 31.847675200963955 ], [ -83.463143135751025, 31.835827066260475 ], [ -83.47709796500726, 31.923174968058316 ], [ -83.374656220267653, 31.935063234204254 ] ] ] } },
{ "type": "Feature", "properties": { "ID": 45166, "date": "2022-12-26T00:00:00", "smokePM_pred": 4.4746751785278303 }, "geometry": { "type": "Polygon", "coordinates": [ [ [ -83.272154187252852, 31.946872702289077 ], [ -83.258380178125449, 31.859444793566269 ], [ -83.360791685904132, 31.847675200963955 ], [ -83.374656220267653, 31.935063234204254 ], [ -83.272154187252852, 31.946872702289077 ] ] ] } },
{ "type": "Feature", "properties": { "ID": 45167, "date": "2022-12-26T00:00:00", "smokePM_pred": 4.4889020919799796 }, "geometry": { "type": "Polygon", "coordinates": [ [ [ -83.169592235672297, 31.958603205579802 ], [ -83.155908980950883, 31.871135678090777 ], [ -83.258380178125449, 31.859444793566269 ], [ -83.272154187252852, 31.946872702289077 ], [ -83.169592235672297, 31.958603205579802 ] ] ] } },
{ "type": "Feature", "properties": { "ID": 45168, "date": "2022-12-26T00:00:00", "smokePM_pred": 4.35125684738159 }, "geometry": { "type": "Polygon", "coordinates": [ [ [ -83.066970736689342, 31.970254578266662 ], [ -83.053378464360321, 31.882747689480482 ], [ -83.155908980950883, 31.871135678090777 ], [ -83.169592235672297, 31.958603205579802 ], [ -83.066970736689342, 31.970254578266662 ] ] ] } },
{ "type": "Feature", "properties": { "ID": 45657, "date": "2022-12-26T00:00:00", "smokePM_pred": 4.3249006271362296 }, "geometry": { "type": "Polygon", "coordinates": [ [ [ -85.730783063576141, 31.728439421142955 ], [ -85.714833893402869, 31.642045947036852 ], [ -85.81579039669144, 31.628393375412934 ], [ -85.831824596427552, 31.714740968397098 ], [ -85.730783063576141, 31.728439421142955 ] ] ] } },
{ "type": "Feature", "properties": { "ID": 45658, "date": "2022-12-26T00:00:00", "smokePM_pred": 4.0455904006957999 }, "geometry": { "type": "Polygon", "coordinates": [ [ [ -85.629672897115, 31.742062913397152 ], [ -85.613809012613658, 31.655623796097849 ], [ -85.714833893402869, 31.642045947036852 ], [ -85.730783063576141, 31.728439421142955 ], [ -85.629672897115, 31.742062913397152 ] ] ] } },
{ "type": "Feature", "properties": { "ID": 45659, "date": "2022-12-26T00:00:00", "smokePM_pred": 4.6216387748718297 }, "geometry": { "type": "Polygon", "coordinates": [ [ [ -85.528494432762471, 31.755611258069578 ], [ -85.512716089099314, 31.66912673633842 ], [ -85.613809012613658, 31.655623796097849 ], [ -85.629672897115, 31.742062913397152 ], [ -85.528494432762471, 31.755611258069578 ] ] ] } },
{ "type": "Feature", "properties": { "ID": 45661, "date": "2022-12-26T00:00:00", "smokePM_pred": 4.3574790954589799 }, "geometry": { "type": "Polygon", "coordinates": [ [ [ -85.325933961160175, 31.782481760225551 ], [ -85.310327460848882, 31.695907149231331 ], [ -85.411555459206497, 31.682554582280389 ], [ -85.42724800781842, 31.769084268852211 ], [ -85.325933961160175, 31.782481760225551 ] ] ] } },
{ "type": "Feature", "properties": { "ID": 45662, "date": "2022-12-26T00:00:00", "smokePM_pred": 4.2212872505187997 }, "geometry": { "type": "Polygon", "coordinates": [ [ [ -85.224552633238204, 31.795803547465106 ], [ -85.209032433502884, 31.709184253290982 ], [ -85.310327460848882, 31.695907149231331 ], [ -85.325933961160175, 31.782481760225551 ], [ -85.224552633238204, 31.795803547465106 ] ] ] } },
{ "type": "Feature", "properties": { "ID": 45663, "date": "2022-12-26T00:00:00", "smokePM_pred": 4.3303079605102504 }, "geometry": { "type": "Polygon", "coordinates": [ [ [ -85.123104366071928, 31.80904944664778 ], [ -85.107670718203323, 31.722385711357632 ], [ -85.209032433502884, 31.709184253290982 ], [ -85.224552633238204, 31.795803547465106 ], [ -85.123104366071928, 31.80904944664778 ] ] ] } },
{ "type": "Feature", "properties": { "ID": 45685, "date": "2022-12-26T00:00:00", "smokePM_pred": 4.71889400482178 }, "geometry": { "type": "Polygon", "coordinates": [ [ [ -82.875018642259676, 32.080897847248877 ], [ -82.861550588402167, 31.993319273242314 ], [ -82.964290062915083, 31.981826655469213 ], [ -82.977849927036573, 32.069366315286551 ], [ -82.875018642259676, 32.080897847248877 ] ] ] } },
{ "type": "Feature", "properties": { "ID": 45686, "date": "2022-12-26T00:00:00", "smokePM_pred": 4.1316485404968297 }, "geometry": { "type": "Polygon", "coordinates": [ [ [ -82.772128706426685, 32.092349496701431 ], [ -82.758752688638467, 32.004732268582124 ], [ -82.861550588402167, 31.993319273242314 ], [ -82.875018642259676, 32.080897847248877 ], [ -82.772128706426685, 32.092349496701431 ] ] ] } },
{ "type": "Feature", "properties": { "ID": 46131, "date": "2022-12-26T00:00:00", "smokePM_pred": 3.45030617713928 }, "geometry": { "type": "Polygon", "coordinates": [ [ [ -89.832848144753143, 31.191887732271056 ], [ -89.81355130450558, 31.107572468494691 ], [ -89.911509784057799, 31.090970483220051 ], [ -89.930880737621592, 31.175230768548278 ], [ -89.832848144753143, 31.191887732271056 ] ] ] } },
{ "type": "Feature", "properties": { "ID": 46132, "date": "2022-12-26T00:00:00", "smokePM_pred": 3.96841645240784 }, "geometry": { "type": "Polygon", "coordinates": [ [ [ -89.73473426785408, 31.208477796608229 ], [ -89.715511828357762, 31.124107756411465 ], [ -89.81355130450558, 31.107572468494691 ], [ -89.832848144753143, 31.191887732271056 ], [ -89.73473426785408, 31.208477796608229 ] ] ] } },
{ "type": "Feature", "properties": { "ID": 46198, "date": "2022-12-26T00:00:00", "smokePM_pred": 4.3253273963928196 }, "geometry": { "type": "Polygon", "coordinates": [ [ [ -83.094333034678257, 32.145249119166465 ], [ -83.080622184049915, 32.057755064563203 ], [ -83.183335038037413, 32.046064259772656 ], [ -83.19713761748207, 32.133518811099187 ], [ -83.094333034678257, 32.145249119166465 ] ] ] } },
{ "type": "Feature", "properties": { "ID": 46199, "date": "2022-12-26T00:00:00", "smokePM_pred": 4.0805234909057599 }, "geometry": { "type": "Polygon", "coordinates": [ [ [ -82.991468819162506, 32.15689961421738 ], [ -82.977849927036573, 32.069366315286551 ], [ -83.080622184049915, 32.057755064563203 ], [ -83.094333034678257, 32.145249119166465 ], [ -82.991468819162506, 32.15689961421738 ] ] ] } },
{ "type": "Feature", "properties": { "ID": 46200, "date": "2022-12-26T00:00:00", "smokePM_pred": 4.4897274971008301 }, "geometry": { "type": "Polygon", "coordinates": [ [ [ -82.888545347413086, 32.16847013080617 ], [ -82.875018642259676, 32.080897847248877 ], [ -82.977849927036573, 32.069366315286551 ], [ -82.991468819162506, 32.15689961421738 ], [ -82.888545347413086, 32.16847013080617 ] ] ] } },
{ "type": "Feature", "properties": { "ID": 46201, "date": "2022-12-26T00:00:00", "smokePM_pred": 3.6845841407775901 }, "geometry": { "type": "Polygon", "coordinates": [ [ [ -82.785562997363456, 32.179960504435861 ], [ -82.772128706426685, 32.092349496701431 ], [ -82.875018642259676, 32.080897847248877 ], [ -82.888545347413086, 32.16847013080617 ], [ -82.785562997363456, 32.179960504435861 ] ] ] } },
{ "type": "Feature", "properties": { "ID": 46202, "date": "2022-12-26T00:00:00", "smokePM_pred": 3.45628714561462 }, "geometry": { "type": "Polygon", "coordinates": [ [ [ -82.682522148395918, 32.191370571564285 ], [ -82.669180497683826, 32.103721100846464 ], [ -82.772128706426685, 32.092349496701431 ], [ -82.785562997363456, 32.179960504435861 ], [ -82.682522148395918, 32.191370571564285 ] ] ] } },
{ "type": "Feature", "properties": { "ID": 46203, "date": "2022-12-26T00:00:00", "smokePM_pred": 3.6730384826660201 }, "geometry": { "type": "Polygon", "coordinates": [ [ [ -82.579423181335002, 32.202700169610132 ], [ -82.56617439560965, 32.115012497843296 ], [ -82.669180497683826, 32.103721100846464 ], [ -82.682522148395918, 32.191370571564285 ], [ -82.579423181335002, 32.202700169610132 ] ] ] } },
{ "type": "Feature", "properties": { "ID": 46204, "date": "2022-12-26T00:00:00", "smokePM_pred": 3.4879422187805198 }, "geometry": { "type": "Polygon", "coordinates": [ [ [ -82.476266478440863, 32.213949136958981 ], [ -82.463110781208286, 32.126223526814222 ], [ -82.56617439560965, 32.115012497843296 ], [ -82.579423181335002, 32.202700169610132 ], [ -82.476266478440863, 32.213949136958981 ] ] ] } },
{ "type": "Feature", "properties": { "ID": 46646, "date": "2022-12-26T00:00:00", "smokePM_pred": 3.62055587768555 }, "geometry": { "type": "Polygon", "coordinates": [ [ [ -89.852226269313093, 31.276191100704686 ], [ -89.832848144753143, 31.191887732271056 ], [ -89.930880737621592, 31.175230768548278 ], [ -89.950333242666147, 31.259479070218166 ], [ -89.852226269313093, 31.276191100704686 ] ] ] } },
{ "type": "Feature", "properties": { "ID": 46647, "date": "2022-12-26T00:00:00", "smokePM_pred": 4.5087046623229998 }, "geometry": { "type": "Polygon", "coordinates": [ [ [ -89.754037722803915, 31.292836029642718 ], [ -89.73473426785408, 31.208477796608229 ], [ -89.832848144753143, 31.191887732271056 ], [ -89.852226269313093, 31.276191100704686 ], [ -89.754037722803915, 31.292836029642718 ] ] ] } },
{ "type": "Feature", "properties": { "ID": 46713, "date": "2022-12-26T00:00:00", "smokePM_pred": 4.2269411087036097 }, "geometry": { "type": "Polygon", "coordinates": [ [ [ -83.108103518262112, 32.23273671273369 ], [ -83.094333034678257, 32.145249119166465 ], [ -83.19713761748207, 32.133518811099187 ], [ -83.211000204899918, 32.220966829848223 ], [ -83.108103518262112, 32.23273671273369 ] ] ] } },
{ "type": "Feature", "properties": { "ID": 46714, "date": "2022-12-26T00:00:00", "smokePM_pred": 3.3783864974975599 }, "geometry": { "type": "Polygon", "coordinates": [ [ [ -83.005146967764688, 32.244426523285867 ], [ -82.991468819162506, 32.15689961421738 ], [ -83.094333034678257, 32.145249119166465 ], [ -83.108103518262112, 32.23273671273369 ], [ -83.005146967764688, 32.244426523285867 ] ] ] } },
{ "type": "Feature", "properties": { "ID": 46715, "date": "2022-12-26T00:00:00", "smokePM_pred": 3.4140667915344198 }, "geometry": { "type": "Polygon", "coordinates": [ [ [ -82.902130931108175, 32.25603609530372 ], [ -82.888545347413086, 32.16847013080617 ], [ -82.991468819162506, 32.15689961421738 ], [ -83.005146967764688, 32.244426523285867 ], [ -82.902130931108175, 32.25603609530372 ] ] ] } },
{ "type": "Feature", "properties": { "ID": 46716, "date": "2022-12-26T00:00:00", "smokePM_pred": 3.5450422763824498 }, "geometry": { "type": "Polygon", "coordinates": [ [ [ -82.799055787458556, 32.267565263538742 ], [ -82.785562997363456, 32.179960504435861 ], [ -82.888545347413086, 32.16847013080617 ], [ -82.902130931108175, 32.25603609530372 ], [ -82.799055787458556, 32.267565263538742 ] ] ] } },
{ "type": "Feature", "properties": { "ID": 46717, "date": "2022-12-26T00:00:00", "smokePM_pred": 3.3818340301513699 }, "geometry": { "type": "Polygon", "coordinates": [ [ [ -82.695921917440671, 32.279013863701046 ], [ -82.682522148395918, 32.191370571564285 ], [ -82.785562997363456, 32.179960504435861 ], [ -82.799055787458556, 32.267565263538742 ], [ -82.695921917440671, 32.279013863701046 ] ] ] } },
{ "type": "Feature", "properties": { "ID": 46718, "date": "2022-12-26T00:00:00", "smokePM_pred": 3.6453108787536599 }, "geometry": { "type": "Polygon", "coordinates": [ [ [ -82.59272970313171, 32.290381732465455 ], [ -82.579423181335002, 32.202700169610132 ], [ -82.682522148395918, 32.191370571564285 ], [ -82.695921917440671, 32.279013863701046 ], [ -82.59272970313171, 32.290381732465455 ] ] ] } },
{ "type": "Feature", "properties": { "ID": 46719, "date": "2022-12-26T00:00:00", "smokePM_pred": 3.5284681320190399 }, "geometry": { "type": "Polygon", "coordinates": [ [ [ -82.489479528054545, 32.301668707477482 ], [ -82.476266478440863, 32.213949136958981 ], [ -82.579423181335002, 32.202700169610132 ], [ -82.59272970313171, 32.290381732465455 ], [ -82.489479528054545, 32.301668707477482 ] ] ] } },
{ "type": "Feature", "properties": { "ID": 47198, "date": "2022-12-26T00:00:00", "smokePM_pred": 4.7284507751464799 }, "geometry": { "type": "Polygon", "coordinates": [ [ [ -86.183818099695699, 31.931770890403758 ], [ -86.167319688888441, 31.845588616308625 ], [ -86.268252337856424, 31.831498316829318 ], [ -86.284835730512626, 31.917633523491475 ], [ -86.183818099695699, 31.931770890403758 ] ] ] } },
{ "type": "Feature", "properties": { "ID": 47199, "date": "2022-12-26T00:00:00", "smokePM_pred": 4.76310157775879 }, "geometry": { "type": "Polygon", "coordinates": [ [ [ -86.082729719316802, 31.945833347574478 ], [ -86.066316554969006, 31.859604241412086 ], [ -86.167319688888441, 31.845588616308625 ], [ -86.183818099695699, 31.931770890403758 ], [ -86.082729719316802, 31.945833347574478 ] ] ] } },
{ "type": "Feature", "properties": { "ID": 47229, "date": "2022-12-26T00:00:00", "smokePM_pred": 3.3795635700225799 }, "geometry": { "type": "Polygon", "coordinates": [ [ [ -83.018884602770157, 32.331947013377942 ], [ -83.005146967764688, 32.244426523285867 ], [ -83.108103518262112, 32.23273671273369 ], [ -83.121933865950908, 32.320217815782016 ], [ -83.018884602770157, 32.331947013377942 ] ] ] } },
{ "type": "Feature", "properties": { "ID": 47230, "date": "2022-12-26T00:00:00", "smokePM_pred": 3.3798813819885298 }, "geometry": { "type": "Polygon", "coordinates": [ [ [ -82.915775622039533, 32.343595711994702 ], [ -82.902130931108175, 32.25603609530372 ], [ -83.005146967764688, 32.244426523285867 ], [ -83.018884602770157, 32.331947013377942 ], [ -82.915775622039533, 32.343595711994702 ] ] ] } },
{ "type": "Feature", "properties": { "ID": 47231, "date": "2022-12-26T00:00:00", "smokePM_pred": 3.4772591590881299 }, "geometry": { "type": "Polygon", "coordinates": [ [ [ -82.812607304163961, 32.355163745628936 ], [ -82.799055787458556, 32.267565263538742 ], [ -82.902130931108175, 32.25603609530372 ], [ -82.915775622039533, 32.343595711994702 ], [ -82.812607304163961, 32.355163745628936 ] ] ] } },
{ "type": "Feature", "properties": { "ID": 47233, "date": "2022-12-26T00:00:00", "smokePM_pred": 3.5823287963867201 }, "geometry": { "type": "Polygon", "coordinates": [ [ [ -82.606094185936442, 32.378057158754693 ], [ -82.59272970313171, 32.290381732465455 ], [ -82.695921917440671, 32.279013863701046 ], [ -82.709380031017417, 32.36665094923972 ], [ -82.606094185936442, 32.378057158754693 ] ] ] } },
{ "type": "Feature", "properties": { "ID": 47234, "date": "2022-12-26T00:00:00", "smokePM_pred": 3.53997755050659 }, "geometry": { "type": "Polygon", "coordinates": [ [ [ -82.502750153713322, 32.389382211076054 ], [ -82.489479528054545, 32.301668707477482 ], [ -82.59272970313171, 32.290381732465455 ], [ -82.606094185936442, 32.378057158754693 ], [ -82.502750153713322, 32.389382211076054 ] ] ] } },
{ "type": "Feature", "properties": { "ID": 47235, "date": "2022-12-26T00:00:00", "smokePM_pred": 3.4582321643829301 }, "geometry": { "type": "Polygon", "coordinates": [ [ [ -82.399348320589439, 32.400625944086698 ], [ -82.386171777171, 32.312874627359449 ], [ -82.489479528054545, 32.301668707477482 ], [ -82.502750153713322, 32.389382211076054 ], [ -82.399348320589439, 32.400625944086698 ] ] ] } },
{ "type": "Feature", "properties": { "ID": 47713, "date": "2022-12-26T00:00:00", "smokePM_pred": 4.6909031867981001 }, "geometry": { "type": "Polygon", "coordinates": [ [ [ -86.200387260337081, 32.017944329965417 ], [ -86.183818099695699, 31.931770890403758 ], [ -86.284835730512626, 31.917633523491475 ], [ -86.301490203447585, 32.003759813817226 ], [ -86.200387260337081, 32.017944329965417 ] ] ] } },
{ "type": "Feature", "properties": { "ID": 47714, "date": "2022-12-26T00:00:00", "smokePM_pred": 4.7606201171875 }, "geometry": { "type": "Polygon", "coordinates": [ [ [ -86.099213301421045, 32.03205370074005 ], [ -86.082729719316802, 31.945833347574478 ], [ -86.183818099695699, 31.931770890403758 ], [ -86.200387260337081, 32.017944329965417 ], [ -86.099213301421045, 32.03205370074005 ] ] ] } },
{ "type": "Feature", "properties": { "ID": 47715, "date": "2022-12-26T00:00:00", "smokePM_pred": 4.8108925819396999 }, "geometry": { "type": "Polygon", "coordinates": [ [ [ -85.997968659692361, 32.046087732579601 ], [ -85.981570921453027, 31.959820702299442 ], [ -86.082729719316802, 31.945833347574478 ], [ -86.099213301421045, 32.03205370074005 ], [ -85.997968659692361, 32.046087732579601 ] ] ] } },
{ "type": "Feature", "properties": { "ID": 47748, "date": "2022-12-26T00:00:00", "smokePM_pred": 3.2491085529327401 }, "geometry": { "type": "Polygon", "coordinates": [ [ [ -82.619516856124818, 32.465726420691539 ], [ -82.606094185936442, 32.378057158754693 ], [ -82.709380031017417, 32.36665094923972 ], [ -82.722896716771274, 32.454281800029634 ], [ -82.619516856124818, 32.465726420691539 ] ] ] } },
{ "type": "Feature", "properties": { "ID": 47749, "date": "2022-12-26T00:00:00", "smokePM_pred": 3.4396095275878902 }, "geometry": { "type": "Polygon", "coordinates": [ [ [ -82.516078580513252, 32.477089620331093 ], [ -82.502750153713322, 32.389382211076054 ], [ -82.606094185936442, 32.378057158754693 ], [ -82.619516856124818, 32.465726420691539 ], [ -82.516078580513252, 32.477089620331093 ] ] ] } },
{ "type": "Feature", "properties": { "ID": 47750, "date": "2022-12-26T00:00:00", "smokePM_pred": 3.3051345348358199 }, "geometry": { "type": "Polygon", "coordinates": [ [ [ -82.412582277464338, 32.488371236088447 ], [ -82.399348320589439, 32.400625944086698 ], [ -82.502750153713322, 32.389382211076054 ], [ -82.516078580513252, 32.477089620331093 ], [ -82.412582277464338, 32.488371236088447 ] ] ] } },
{ "type": "Feature", "properties": { "ID": 51226, "date": "2022-12-26T00:00:00", "smokePM_pred": 3.3144764900207502 }, "geometry": { "type": "Polygon", "coordinates": [ [ [ -95.331699082092641, 30.991755976273346 ], [ -95.307814637680465, 30.910911027383296 ], [ -95.401540028019852, 30.890330951475725 ], [ -95.425484022047485, 30.971110317537345 ], [ -95.331699082092641, 30.991755976273346 ] ] ] } },
{ "type": "Feature", "properties": { "ID": 51227, "date": "2022-12-26T00:00:00", "smokePM_pred": 2.8683567047119101 }, "geometry": { "type": "Polygon", "coordinates": [ [ [ -95.237817565310863, 31.012345620958325 ], [ -95.213992987953674, 30.931435239566831 ], [ -95.307814637680465, 30.910911027383296 ], [ -95.331699082092641, 30.991755976273346 ], [ -95.237817565310863, 31.012345620958325 ] ] ] } },
{ "type": "Feature", "properties": { "ID": 51228, "date": "2022-12-26T00:00:00", "smokePM_pred": 2.8115491867065399 }, "geometry": { "type": "Polygon", "coordinates": [ [ [ -95.143839648367518, 31.032879009511049 ], [ -95.120075255537984, 30.951903346905443 ], [ -95.213992987953674, 30.931435239566831 ], [ -95.237817565310863, 31.012345620958325 ], [ -95.143839648367518, 31.032879009511049 ] ] ] } },
{ "type": "Feature", "properties": { "ID": 51230, "date": "2022-12-26T00:00:00", "smokePM_pred": 2.7944414615631099 }, "geometry": { "type": "Polygon", "coordinates": [ [ [ -94.955595329217118, 31.073776050678553 ], [ -94.931952257948637, 30.992670283351618 ], [ -95.026061618834177, 30.97231510843444 ], [ -95.049765509639229, 31.053355900005769 ], [ -94.955595329217118, 31.073776050678553 ] ] ] } },
{ "type": "Feature", "properties": { "ID": 51231, "date": "2022-12-26T00:00:00", "smokePM_pred": 3.2382481098175 }, "geometry": { "type": "Polygon", "coordinates": [ [ [ -94.861329288910156, 31.09413921993351 ], [ -94.837747354696504, 31.012968631023483 ], [ -94.931952257948637, 30.992670283351618 ], [ -94.955595329217118, 31.073776050678553 ], [ -94.861329288910156, 31.09413921993351 ] ] ] } },
{ "type": "Feature", "properties": { "ID": 51232, "date": "2022-12-26T00:00:00", "smokePM_pred": 3.3744678497314502 }, "geometry": { "type": "Polygon", "coordinates": [ [ [ -94.766967572248248, 31.114445166349082 ], [ -94.743447092604796, 31.033209910991452 ], [ -94.837747354696504, 31.012968631023483 ], [ -94.861329288910156, 31.09413921993351 ], [ -94.766967572248248, 31.114445166349082 ] ] ] } },
{ "type": "Feature", "properties": { "ID": 51740, "date": "2022-12-26T00:00:00", "smokePM_pred": 2.6714408397674601 }, "geometry": { "type": "Polygon", "coordinates": [ [ [ -95.449524768143576, 31.051871922684743 ], [ -95.425484022047485, 30.971110317537345 ], [ -95.519172210217974, 30.950408886980888 ], [ -95.543272361784432, 31.031104665363163 ], [ -95.449524768143576, 31.051871922684743 ] ] ] } },
{ "type": "Feature", "properties": { "ID": 51741, "date": "2022-12-26T00:00:00", "smokePM_pred": 2.80842232704163 }, "geometry": { "type": "Polygon", "coordinates": [ [ [ -95.355680103616365, 31.07258325887241 ], [ -95.331699082092641, 30.991755976273346 ], [ -95.425484022047485, 30.971110317537345 ], [ -95.449524768143576, 31.051871922684743 ], [ -95.355680103616365, 31.07258325887241 ] ] ] } },
{ "type": "Feature", "properties": { "ID": 51742, "date": "2022-12-26T00:00:00", "smokePM_pred": 2.9358654022216801 }, "geometry": { "type": "Polygon", "coordinates": [ [ [ -95.261738543114816, 31.09323843073301 ], [ -95.237817565310863, 31.012345620958325 ], [ -95.331699082092641, 30.991755976273346 ], [ -95.355680103616365, 31.07258325887241 ], [ -95.261738543114816, 31.09323843073301 ] ] ] } },
{ "type": "Feature", "properties": { "ID": 51743, "date": "2022-12-26T00:00:00", "smokePM_pred": 2.8973081111907999 }, "geometry": { "type": "Polygon", "coordinates": [ [ [ -95.16770026326779, 31.113837195221887 ], [ -95.143839648367518, 31.032879009511049 ], [ -95.237817565310863, 31.012345620958325 ], [ -95.261738543114816, 31.09323843073301 ], [ -95.16770026326779, 31.113837195221887 ] ] ] } },
{ "type": "Feature", "properties": { "ID": 51744, "date": "2022-12-26T00:00:00", "smokePM_pred": 2.9621524810790998 }, "geometry": { "type": "Polygon", "coordinates": [ [ [ -95.073565442424368, 31.134379309449265 ], [ -95.049765509639229, 31.053355900005769 ], [ -95.143839648367518, 31.032879009511049 ], [ -95.16770026326779, 31.113837195221887 ], [ -95.073565442424368, 31.134379309449265 ] ] ] } },
{ "type": "Feature", "properties": { "ID": 51745, "date": "2022-12-26T00:00:00", "smokePM_pred": 2.6928656101226802 }, "geometry": { "type": "Polygon", "coordinates": [ [ [ -94.979334260657282, 31.154864530686392 ], [ -94.955595329217118, 31.073776050678553 ], [ -95.049765509639229, 31.053355900005769 ], [ -95.073565442424368, 31.134379309449265 ], [ -94.979334260657282, 31.154864530686392 ] ] ] } },
{ "type": "Feature", "properties": { "ID": 51746, "date": "2022-12-26T00:00:00", "smokePM_pred": 3.0953075885772701 }, "geometry": { "type": "Polygon", "coordinates": [ [ [ -94.885006899766068, 31.175292616371966 ], [ -94.861329288910156, 31.09413921993351 ], [ -94.955595329217118, 31.073776050678553 ], [ -94.979334260657282, 31.154864530686392 ], [ -94.885006899766068, 31.175292616371966 ] ] ] } },
{ "type": "Feature", "properties": { "ID": 51747, "date": "2022-12-26T00:00:00", "smokePM_pred": 3.3075079917907702 }, "geometry": { "type": "Polygon", "coordinates": [ [ [ -94.790583543280434, 31.195663324118339 ], [ -94.766967572248248, 31.114445166349082 ], [ -94.861329288910156, 31.09413921993351 ], [ -94.885006899766068, 31.175292616371966 ], [ -94.790583543280434, 31.195663324118339 ] ] ] } },
{ "type": "Feature", "properties": { "ID": 52258, "date": "2022-12-26T00:00:00", "smokePM_pred": 2.8171031475067099 }, "geometry": { "type": "Polygon", "coordinates": [ [ [ -95.191657419451715, 31.194777822284134 ], [ -95.16770026326779, 31.113837195221887 ], [ -95.261738543114816, 31.09323843073301 ], [ -95.285756240550967, 31.174113586734396 ], [ -95.191657419451715, 31.194777822284134 ] ] ] } },
{ "type": "Feature", "properties": { "ID": 52259, "date": "2022-12-26T00:00:00", "smokePM_pred": 2.9582922458648699 }, "geometry": { "type": "Polygon", "coordinates": [ [ [ -95.097461736421039, 31.215385255414795 ], [ -95.073565442424368, 31.134379309449265 ], [ -95.16770026326779, 31.113837195221887 ], [ -95.191657419451715, 31.194777822284134 ], [ -95.097461736421039, 31.215385255414795 ] ] ] } },
{ "type": "Feature", "properties": { "ID": 52260, "date": "2022-12-26T00:00:00", "smokePM_pred": 2.7851810455322301 }, "geometry": { "type": "Polygon", "coordinates": [ [ [ -95.003169371509912, 31.235935642429833 ], [ -94.979334260657282, 31.154864530686392 ], [ -95.073565442424368, 31.134379309449265 ], [ -95.097461736421039, 31.215385255414795 ], [ -95.003169371509912, 31.235935642429833 ] ] ] } },
{ "type": "Feature", "properties": { "ID": 52261, "date": "2022-12-26T00:00:00", "smokePM_pred": 2.9331603050231898 }, "geometry": { "type": "Polygon", "coordinates": [ [ [ -94.908780506505295, 31.256428739799404 ], [ -94.885006899766068, 31.175292616371966 ], [ -94.979334260657282, 31.154864530686392 ], [ -95.003169371509912, 31.235935642429833 ], [ -94.908780506505295, 31.256428739799404 ] ] ] } },
{ "type": "Feature", "properties": { "ID": 52262, "date": "2022-12-26T00:00:00", "smokePM_pred": 3.1219072341918901 }, "geometry": { "type": "Polygon", "coordinates": [ [ [ -94.814295324933454, 31.276864304166711 ], [ -94.790583543280434, 31.195663324118339 ], [ -94.885006899766068, 31.175292616371966 ], [ -94.908780506505295, 31.256428739799404 ], [ -94.814295324933454, 31.276864304166711 ] ] ] } },
{ "type": "Feature", "properties": { "ID": 52383, "date": "2022-12-26T00:00:00", "smokePM_pred": 3.2189261913299601 }, "geometry": { "type": "Polygon", "coordinates": [ [ [ -82.74297739750223, 33.254467730865862 ], [ -82.729020611458012, 33.166855220778423 ], [ -82.833166603778579, 33.155100732305421 ], [ -82.847220926783933, 33.242674180960137 ], [ -82.74297739750223, 33.254467730865862 ] ] ] } },
{ "type": "Feature", "properties": { "ID": 52384, "date": "2022-12-26T00:00:00", "smokePM_pred": 3.1130957603454599 }, "geometry": { "type": "Polygon", "coordinates": [ [ [ -82.638673335929994, 33.266177467577734 ], [ -82.624814328180818, 33.178526163448922 ], [ -82.729020611458012, 33.166855220778423 ], [ -82.74297739750223, 33.254467730865862 ], [ -82.638673335929994, 33.266177467577734 ] ] ] } },
{ "type": "Feature", "properties": { "ID": 52385, "date": "2022-12-26T00:00:00", "smokePM_pred": 3.1576020717620801 }, "geometry": { "type": "Polygon", "coordinates": [ [ [ -82.534309141487313, 33.277803221398777 ], [ -82.520548152017355, 33.190113391393481 ], [ -82.624814328180818, 33.178526163448922 ], [ -82.638673335929994, 33.266177467577734 ], [ -82.534309141487313, 33.277803221398777 ] ] ] } },
{ "type": "Feature", "properties": { "ID": 52897, "date": "2022-12-26T00:00:00", "smokePM_pred": 3.0166976451873802 }, "geometry": { "type": "Polygon", "coordinates": [ [ [ -82.861336180205242, 33.330241105757516 ], [ -82.847220926783933, 33.242674180960137 ], [ -82.95140352591001, 33.230796988578078 ], [ -82.965616469923845, 33.3183245107804 ], [ -82.861336180205242, 33.330241105757516 ] ] ] } },
{ "type": "Feature", "properties": { "ID": 52898, "date": "2022-12-26T00:00:00", "smokePM_pred": 3.0548617839813201 }, "geometry": { "type": "Polygon", "coordinates": [ [ [ -82.756994716096187, 33.342073791243912 ], [ -82.74297739750223, 33.254467730865862 ], [ -82.847220926783933, 33.242674180960137 ], [ -82.861336180205242, 33.330241105757516 ], [ -82.756994716096187, 33.342073791243912 ] ] ] } },
{ "type": "Feature", "properties": { "ID": 52899, "date": "2022-12-26T00:00:00", "smokePM_pred": 2.8466784954071001 }, "geometry": { "type": "Polygon", "coordinates": [ [ [ -82.652592476807584, 33.353822395740913 ], [ -82.638673335929994, 33.266177467577734 ], [ -82.74297739750223, 33.254467730865862 ], [ -82.756994716096187, 33.342073791243912 ], [ -82.652592476807584, 33.353822395740913 ] ] ] } },
{ "type": "Feature", "properties": { "ID": 52900, "date": "2022-12-26T00:00:00", "smokePM_pred": 2.9935252666473402 }, "geometry": { "type": "Polygon", "coordinates": [ [ [ -82.5481298631165, 33.365486748774394 ], [ -82.534309141487313, 33.277803221398777 ], [ -82.638673335929994, 33.266177467577734 ], [ -82.652592476807584, 33.353822395740913 ], [ -82.5481298631165, 33.365486748774394 ] ] ] } },
{ "type": "Feature", "properties": { "ID": 52901, "date": "2022-12-26T00:00:00", "smokePM_pred": 3.0989544391632098 }, "geometry": { "type": "Polygon", "coordinates": [ [ [ -82.443607277358979, 33.377066680901265 ], [ -82.429885215142178, 33.289344823658929 ], [ -82.534309141487313, 33.277803221398777 ], [ -82.5481298631165, 33.365486748774394 ], [ -82.443607277358979, 33.377066680901265 ] ] ] } },
{ "type": "Feature", "properties": { "ID": 53414, "date": "2022-12-26T00:00:00", "smokePM_pred": 3.3062889575958301 }, "geometry": { "type": "Polygon", "coordinates": [ [ [ -82.666571992347471, 33.441460919012556 ], [ -82.652592476807584, 33.353822395740913 ], [ -82.756994716096187, 33.342073791243912 ], [ -82.771072810130732, 33.42967337260216 ], [ -82.666571992347471, 33.441460919012556 ] ] ] } },
{ "type": "Feature", "properties": { "ID": 53415, "date": "2022-12-26T00:00:00", "smokePM_pred": 3.4740054607391402 }, "geometry": { "type": "Polygon", "coordinates": [ [ [ -82.562010557070749, 33.453163944977227 ], [ -82.5481298631165, 33.365486748774394 ], [ -82.652592476807584, 33.353822395740913 ], [ -82.666571992347471, 33.441460919012556 ], [ -82.562010557070749, 33.453163944977227 ] ] ] } },
{ "type": "Feature", "properties": { "ID": 53416, "date": "2022-12-26T00:00:00", "smokePM_pred": 3.5029423236846902 }, "geometry": { "type": "Polygon", "coordinates": [ [ [ -82.45738890801195, 33.464782280276495 ], [ -82.443607277358979, 33.377066680901265 ], [ -82.5481298631165, 33.365486748774394 ], [ -82.562010557070749, 33.453163944977227 ], [ -82.45738890801195, 33.464782280276495 ] ] ] } },
{ "type": "Feature", "properties": { "ID": 102019, "date": "2022-12-26T00:00:00", "smokePM_pred": 2.9950942993164098 }, "geometry": { "type": "Polygon", "coordinates": [ [ [ -114.964468529198172, 32.687948121793056 ], [ -114.92305830967922, 32.625306466160239 ], [ -114.997045596121566, 32.59031235897082 ], [ -115.038452155380483, 32.652870199924713 ], [ -114.964468529198172, 32.687948121793056 ] ] ] } },
{ "type": "Feature", "properties": { "ID": 102533, "date": "2022-12-26T00:00:00", "smokePM_pred": 3.1024372577667201 }, "geometry": { "type": "Polygon", "coordinates": [ [ [ -115.079987077719181, 32.715380606562626 ], [ -115.038452155380483, 32.652870199924713 ], [ -115.112307418569927, 32.617781661647903 ], [ -115.153838244381689, 32.680208241274755 ], [ -115.079987077719181, 32.715380606562626 ] ] ] } },
{ "type": "Feature", "properties": { "ID": 102534, "date": "2022-12-26T00:00:00", "smokePM_pred": 3.5186009407043501 }, "geometry": { "type": "Polygon", "coordinates": [ [ [ -115.00600727845152, 32.75054239496523 ], [ -114.964468529198228, 32.68794812179312 ], [ -115.03845215538054, 32.65287019992477 ], [ -115.07998707771921, 32.71538060656269 ], [ -115.00600727845152, 32.75054239496523 ] ] ] } }
]
}
