{
"type": "FeatureCollection",
"name": "geo_2022-12-23",
"crs": { "type": "name", "properties": { "name": "urn:ogc:def:crs:OGC:1.3:CRS84" } },
"features": [
{ "type": "Feature", "properties": { "ID": 43538, "date": "2022-12-23T00:00:00", "smokePM_pred": 5.0872173309326199 }, "geometry": { "type": "Polygon", "coordinates": [ [ [ -91.48266624505834, 30.465424965464329 ], [ -91.462504574289156, 30.38206276833542 ], [ -91.558620371341107, 30.364588229266193 ], [ -91.578849726207082, 30.44789241395917 ], [ -91.48266624505834, 30.465424965464329 ] ] ] } },
{ "type": "Feature", "properties": { "ID": 43539, "date": "2022-12-23T00:00:00", "smokePM_pred": 4.9174704551696804 }, "geometry": { "type": "Polygon", "coordinates": [ [ [ -91.386398388078049, 30.482895483195463 ], [ -91.366304688102929, 30.399475458623055 ], [ -91.462504574289156, 30.38206276833542 ], [ -91.48266624505834, 30.465424965464329 ], [ -91.386398388078049, 30.482895483195463 ] ] ] } },
{ "type": "Feature", "properties": { "ID": 43540, "date": "2022-12-23T00:00:00", "smokePM_pred": 4.7786850929260298 }, "geometry": { "type": "Polygon", "coordinates": [ [ [ -91.290046391982173, 30.500303749271357 ], [ -91.270020949159928, 30.416826083163549 ], [ -91.366304688102929, 30.399475458623055 ], [ -91.386398388078049, 30.482895483195463 ], [ -91.290046391982173, 30.500303749271357 ] ] ] } },
{ "type": "Feature", "properties": { "ID": 44053, "date": "2022-12-23T00:00:00", "smokePM_pred": 5.22347164154053 }, "geometry": { "type": "Polygon", "coordinates": [ [ [ -91.502912291932716, 30.548773975637062 ], [ -91.48266624505834, 30.465424965464329 ], [ -91.578849726207082, 30.44789241395917 ], [ -91.599163692252489, 30.531183323577089 ], [ -91.502912291932716, 30.548773975637062 ] ] ] } },
{ "type": "Feature", "properties": { "ID": 44054, "date": "2022-12-23T00:00:00", "smokePM_pred": 5.5589103698730504 }, "geometry": { "type": "Polygon", "coordinates": [ [ [ -91.406576227442443, 30.566302408854405 ], [ -91.386398388078049, 30.482895483195463 ], [ -91.48266624505834, 30.465424965464329 ], [ -91.502912291932716, 30.548773975637062 ], [ -91.406576227442443, 30.566302408854405 ] ] ] } },
{ "type": "Feature", "properties": { "ID": 44055, "date": "2022-12-23T00:00:00", "smokePM_pred": 5.4315538406372097 }, "geometry": { "type": "Polygon", "coordinates": [ [ [ -91.310155735835608, 30.583768404429048 ], [ -91.290046391982173, 30.500303749271357 ], [ -91.386398388078049, 30.482895483195463 ], [ -91.406576227442443, 30.566302408854405 ], [ -91.310155735835608, 30.583768404429048 ] ] ] } },
{ "type": "Feature", "properties": { "ID": 44568, "date": "2022-12-23T00:00:00", "smokePM_pred": 6.6619462966918999 }, "geometry": { "type": "Polygon", "coordinates": [ [ [ -91.523243003252816, 30.63210973635087 ], [ -91.502912291932716, 30.548773975637062 ], [ -91.599163692252489, 30.531183323577089 ], [ -91.619562558146328, 30.614460895210804 ], [ -91.523243003252816, 30.63210973635087 ] ] ] } },
{ "type": "Feature", "properties": { "ID": 44569, "date": "2022-12-23T00:00:00", "smokePM_pred": 5.5502347946167001 }, "geometry": { "type": "Polygon", "coordinates": [ [ [ -91.426838494198662, 30.649696173503884 ], [ -91.406576227442443, 30.566302408854405 ], [ -91.502912291932716, 30.548773975637062 ], [ -91.523243003252816, 30.63210973635087 ], [ -91.426838494198662, 30.649696173503884 ] ] ] } },
{ "type": "Feature", "properties": { "ID": 45084, "date": "2022-12-23T00:00:00", "smokePM_pred": 6.6547179222106898 }, "geometry": { "type": "Polygon", "coordinates": [ [ [ -91.447185478000961, 30.73307671475909 ], [ -91.426838494198662, 30.649696173503884 ], [ -91.523243003252816, 30.63210973635087 ], [ -91.543658669010313, 30.715432184812595 ], [ -91.447185478000961, 30.73307671475909 ] ] ] } },
{ "type": "Feature", "properties": { "ID": 72747, "date": "2022-12-23T00:00:00", "smokePM_pred": 3.1490142345428498 }, "geometry": { "type": "Polygon", "coordinates": [ [ [ -106.256655995676368, 31.504553425413654 ], [ -106.223371012711624, 31.432787949158133 ], [ -106.307027986714445, 31.404283141324132 ], [ -106.340339825318097, 31.475968770592466 ], [ -106.256655995676368, 31.504553425413654 ] ] ] } },
{ "type": "Feature", "properties": { "ID": 72748, "date": "2022-12-23T00:00:00", "smokePM_pred": 3.4787242412567099 }, "geometry": { "type": "Polygon", "coordinates": [ [ [ -106.172853104246542, 31.533106124031189 ], [ -106.139595299603769, 31.461260842395806 ], [ -106.223371012711624, 31.432787949158133 ], [ -106.256655995676368, 31.504553425413654 ], [ -106.172853104246542, 31.533106124031189 ] ] ] } },
{ "type": "Feature", "properties": { "ID": 73262, "date": "2022-12-23T00:00:00", "smokePM_pred": 3.02091383934021 }, "geometry": { "type": "Polygon", "coordinates": [ [ [ -106.290060040640654, 31.57628643563412 ], [ -106.256655995676368, 31.504553425413654 ], [ -106.340339825318097, 31.475968770592466 ], [ -106.373770708268566, 31.547621849838897 ], [ -106.290060040640654, 31.57628643563412 ] ] ] } },
{ "type": "Feature", "properties": { "ID": 73263, "date": "2022-12-23T00:00:00", "smokePM_pred": 3.4051640033721902 }, "geometry": { "type": "Polygon", "coordinates": [ [ [ -106.206229987272735, 31.60491902398077 ], [ -106.172853104246542, 31.533106124031189 ], [ -106.256655995676368, 31.504553425413654 ], [ -106.290060040640654, 31.57628643563412 ], [ -106.206229987272735, 31.60491902398077 ] ] ] } },
{ "type": "Feature", "properties": { "ID": 73264, "date": "2022-12-23T00:00:00", "smokePM_pred": 3.1713075637817401 }, "geometry": { "type": "Polygon", "coordinates": [ [ [ -106.12228053078961, 31.633519353866173 ], [ -106.088931134646231, 31.561626606238416 ], [ -106.172853104246542, 31.533106124031189 ], [ -106.206229987272735, 31.60491902398077 ], [ -106.12228053078961, 31.633519353866173 ] ] ] } },
{ "type": "Feature", "properties": { "ID": 73265, "date": "2022-12-23T00:00:00", "smokePM_pred": 2.9267880916595499 }, "geometry": { "type": "Polygon", "coordinates": [ [ [ -106.038211655096148, 31.662087163785568 ], [ -106.004890071770149, 31.590114611339917 ], [ -106.088931134646231, 31.561626606238416 ], [ -106.12228053078961, 31.633519353866173 ], [ -106.038211655096148, 31.662087163785568 ] ] ] } },
{ "type": "Feature", "properties": { "ID": 73777, "date": "2022-12-23T00:00:00", "smokePM_pred": 2.8279397487640399 }, "geometry": { "type": "Polygon", "coordinates": [ [ [ -106.323583471556915, 31.647986841883441 ], [ -106.290060040640654, 31.57628643563412 ], [ -106.373770708268566, 31.547621849838897 ], [ -106.407320958522646, 31.619242240917053 ], [ -106.323583471556915, 31.647986841883441 ] ] ] } },
{ "type": "Feature", "properties": { "ID": 73778, "date": "2022-12-23T00:00:00", "smokePM_pred": 2.4908516407012899 }, "geometry": { "type": "Polygon", "coordinates": [ [ [ -106.239726273627511, 31.676699404521049 ], [ -106.206229987272735, 31.60491902398077 ], [ -106.290060040640654, 31.57628643563412 ], [ -106.323583471556915, 31.647986841883441 ], [ -106.239726273627511, 31.676699404521049 ] ] ] } },
{ "type": "Feature", "properties": { "ID": 73779, "date": "2022-12-23T00:00:00", "smokePM_pred": 2.3208913803100599 }, "geometry": { "type": "Polygon", "coordinates": [ [ [ -106.15574934635805, 31.705379667010245 ], [ -106.12228053078961, 31.633519353866173 ], [ -106.206229987272735, 31.60491902398077 ], [ -106.239726273627511, 31.676699404521049 ], [ -106.15574934635805, 31.705379667010245 ] ] ] } },
{ "type": "Feature", "properties": { "ID": 73780, "date": "2022-12-23T00:00:00", "smokePM_pred": 2.7955522537231401 }, "geometry": { "type": "Polygon", "coordinates": [ [ [ -106.071652672655134, 31.734027367035811 ], [ -106.038211655096148, 31.662087163785568 ], [ -106.12228053078961, 31.633519353866173 ], [ -106.15574934635805, 31.705379667010245 ], [ -106.071652672655134, 31.734027367035811 ] ] ] } },
{ "type": "Feature", "properties": { "ID": 74292, "date": "2022-12-23T00:00:00", "smokePM_pred": 2.9108095169067401 }, "geometry": { "type": "Polygon", "coordinates": [ [ [ -106.357226613649246, 31.719654505677035 ], [ -106.323583471556915, 31.647986841883441 ], [ -106.407320958522646, 31.619242240917053 ], [ -106.440990900300406, 31.690829805132619 ], [ -106.357226613649246, 31.719654505677035 ] ] ] } },
{ "type": "Feature", "properties": { "ID": 74293, "date": "2022-12-23T00:00:00", "smokePM_pred": 2.06498146057129 }, "geometry": { "type": "Polygon", "coordinates": [ [ [ -106.273342289536188, 31.748447127379627 ], [ -106.239726273627511, 31.676699404521049 ], [ -106.323583471556915, 31.647986841883441 ], [ -106.357226613649246, 31.719654505677035 ], [ -106.273342289536188, 31.748447127379627 ] ] ] } },
{ "type": "Feature", "properties": { "ID": 74294, "date": "2022-12-23T00:00:00", "smokePM_pred": 2.5199599266052202 }, "geometry": { "type": "Polygon", "coordinates": [ [ [ -106.189337908575212, 31.777207407612682 ], [ -106.15574934635805, 31.705379667010245 ], [ -106.239726273627511, 31.676699404521049 ], [ -106.273342289536188, 31.748447127379627 ], [ -106.189337908575212, 31.777207407612682 ] ] ] } },
{ "type": "Feature", "properties": { "ID": 74295, "date": "2022-12-23T00:00:00", "smokePM_pred": 2.9008009433746298 }, "geometry": { "type": "Polygon", "coordinates": [ [ [ -106.105213452666078, 31.805935083249594 ], [ -106.071652672655134, 31.734027367035811 ], [ -106.15574934635805, 31.705379667010245 ], [ -106.189337908575212, 31.777207407612682 ], [ -106.105213452666078, 31.805935083249594 ] ] ] } },
{ "type": "Feature", "properties": { "ID": 74806, "date": "2022-12-23T00:00:00", "smokePM_pred": 3.1732811927795401 }, "geometry": { "type": "Polygon", "coordinates": [ [ [ -106.474780859088042, 31.762384403240457 ], [ -106.440990900300406, 31.690829805132619 ], [ -106.524635170153203, 31.661973287871849 ], [ -106.558451581206768, 31.733447662447603 ], [ -106.474780859088042, 31.762384403240457 ] ] ] } },
{ "type": "Feature", "properties": { "ID": 74807, "date": "2022-12-23T00:00:00", "smokePM_pred": 3.31909275054932 }, "geometry": { "type": "Polygon", "coordinates": [ [ [ -106.390989793416324, 31.791289287979019 ], [ -106.357226613649246, 31.719654505677035 ], [ -106.440990900300406, 31.690829805132619 ], [ -106.474780859088042, 31.762384403240457 ], [ -106.390989793416324, 31.791289287979019 ] ] ] } },
{ "type": "Feature", "properties": { "ID": 74808, "date": "2022-12-23T00:00:00", "smokePM_pred": 4.0598683357238796 }, "geometry": { "type": "Polygon", "coordinates": [ [ [ -106.307078362507156, 31.820162053732197 ], [ -106.273342289536188, 31.748447127379627 ], [ -106.357226613649246, 31.719654505677035 ], [ -106.390989793416324, 31.791289287979019 ], [ -106.307078362507156, 31.820162053732197 ] ] ] } },
{ "type": "Feature", "properties": { "ID": 74809, "date": "2022-12-23T00:00:00", "smokePM_pred": 3.0386123657226598 }, "geometry": { "type": "Polygon", "coordinates": [ [ [ -106.223046545956223, 31.849002437063238 ], [ -106.189337908575212, 31.777207407612682 ], [ -106.273342289536188, 31.748447127379627 ], [ -106.307078362507156, 31.820162053732197 ], [ -106.223046545956223, 31.849002437063238 ] ] ] } },
{ "type": "Feature", "properties": { "ID": 74810, "date": "2022-12-23T00:00:00", "smokePM_pred": 2.9632766246795699 }, "geometry": { "type": "Polygon", "coordinates": [ [ [ -106.138894324648035, 31.877810174033069 ], [ -106.105213452666078, 31.805935083249594 ], [ -106.189337908575212, 31.777207407612682 ], [ -106.223046545956223, 31.849002437063238 ], [ -106.138894324648035, 31.877810174033069 ] ] ] } },
{ "type": "Feature", "properties": { "ID": 74811, "date": "2022-12-23T00:00:00", "smokePM_pred": 2.9459545612335201 }, "geometry": { "type": "Polygon", "coordinates": [ [ [ -106.05462168076447, 31.906585000203709 ], [ -106.020968905003159, 31.834629890668278 ], [ -106.105213452666078, 31.805935083249594 ], [ -106.138894324648035, 31.877810174033069 ], [ -106.05462168076447, 31.906585000203709 ] ] ] } },
{ "type": "Feature", "properties": { "ID": 75320, "date": "2022-12-23T00:00:00", "smokePM_pred": 2.9462399482727002 }, "geometry": { "type": "Polygon", "coordinates": [ [ [ -106.592388313067758, 31.804888846664859 ], [ -106.558451581206768, 31.733447662447603 ], [ -106.642001982728658, 31.704479328022462 ], [ -106.675964816904255, 31.775840166093772 ], [ -106.592388313067758, 31.804888846664859 ] ] ] } },
{ "type": "Feature", "properties": { "ID": 75321, "date": "2022-12-23T00:00:00", "smokePM_pred": 3.0323255062103298 }, "geometry": { "type": "Polygon", "coordinates": [ [ [ -106.508691161640556, 31.833905895441749 ], [ -106.474780859088042, 31.762384403240457 ], [ -106.558451581206768, 31.733447662447603 ], [ -106.592388313067758, 31.804888846664859 ], [ -106.508691161640556, 31.833905895441749 ] ] ] } },
{ "type": "Feature", "properties": { "ID": 75322, "date": "2022-12-23T00:00:00", "smokePM_pred": 3.1095271110534699 }, "geometry": { "type": "Polygon", "coordinates": [ [ [ -106.424873338634228, 31.862891049199298 ], [ -106.390989793416324, 31.791289287979019 ], [ -106.474780859088042, 31.762384403240457 ], [ -106.508691161640556, 31.833905895441749 ], [ -106.424873338634228, 31.862891049199298 ] ] ] } },
{ "type": "Feature", "properties": { "ID": 75323, "date": "2022-12-23T00:00:00", "smokePM_pred": 3.27069139480591 }, "geometry": { "type": "Polygon", "coordinates": [ [ [ -106.340934821334685, 31.891844044199814 ], [ -106.307078362507156, 31.820162053732197 ], [ -106.390989793416324, 31.791289287979019 ], [ -106.424873338634228, 31.862891049199298 ], [ -106.340934821334685, 31.891844044199814 ] ] ] } },
{ "type": "Feature", "properties": { "ID": 75324, "date": "2022-12-23T00:00:00", "smokePM_pred": 3.25939869880676 }, "geometry": { "type": "Polygon", "coordinates": [ [ [ -106.256875588310749, 31.920764616196472 ], [ -106.223046545956223, 31.849002437063238 ], [ -106.307078362507156, 31.820162053732197 ], [ -106.340934821334685, 31.891844044199814 ], [ -106.256875588310749, 31.920764616196472 ] ] ] } },
{ "type": "Feature", "properties": { "ID": 75325, "date": "2022-12-23T00:00:00", "smokePM_pred": 3.2209019660949698 }, "geometry": { "type": "Polygon", "coordinates": [ [ [ -106.172695619423024, 31.949652500436699 ], [ -106.138894324648035, 31.877810174033069 ], [ -106.223046545956223, 31.849002437063238 ], [ -106.256875588310749, 31.920764616196472 ], [ -106.172695619423024, 31.949652500436699 ] ] ] } },
{ "type": "Feature", "properties": { "ID": 75326, "date": "2022-12-23T00:00:00", "smokePM_pred": 3.2806801795959499 }, "geometry": { "type": "Polygon", "coordinates": [ [ [ -106.088394895832309, 31.978507431665594 ], [ -106.05462168076447, 31.906585000203709 ], [ -106.138894324648035, 31.877810174033069 ], [ -106.172695619423024, 31.949652500436699 ], [ -106.088394895832309, 31.978507431665594 ] ] ] } },
{ "type": "Feature", "properties": { "ID": 75835, "date": "2022-12-23T00:00:00", "smokePM_pred": 2.5791399478912398 }, "geometry": { "type": "Polygon", "coordinates": [ [ [ -106.626445692730385, 31.876296699962563 ], [ -106.592388313067758, 31.804888846664859 ], [ -106.675964816904255, 31.775840166093772 ], [ -106.710048273625929, 31.847167588964052 ], [ -106.626445692730385, 31.876296699962563 ] ] ] } },
{ "type": "Feature", "properties": { "ID": 75836, "date": "2022-12-23T00:00:00", "smokePM_pred": 2.54973697662354 }, "geometry": { "type": "Polygon", "coordinates": [ [ [ -106.542722135984604, 31.905394141381247 ], [ -106.508691161640556, 31.833905895441749 ], [ -106.592388313067758, 31.804888846664859 ], [ -106.626445692730385, 31.876296699962563 ], [ -106.542722135984604, 31.905394141381247 ] ] ] } },
{ "type": "Feature", "properties": { "ID": 75837, "date": "2022-12-23T00:00:00", "smokePM_pred": 3.52003073692322 }, "geometry": { "type": "Polygon", "coordinates": [ [ [ -106.458877578359221, 31.93445964919081 ], [ -106.424873338634228, 31.862891049199298 ], [ -106.508691161640556, 31.833905895441749 ], [ -106.542722135984604, 31.905394141381247 ], [ -106.458877578359221, 31.93445964919081 ] ] ] } },
{ "type": "Feature", "properties": { "ID": 75838, "date": "2022-12-23T00:00:00", "smokePM_pred": 3.4034838676452601 }, "geometry": { "type": "Polygon", "coordinates": [ [ [ -106.374911996101815, 31.963492958845976 ], [ -106.340934821334685, 31.891844044199814 ], [ -106.424873338634228, 31.862891049199298 ], [ -106.458877578359221, 31.93445964919081 ], [ -106.374911996101815, 31.963492958845976 ] ] ] } },
{ "type": "Feature", "properties": { "ID": 75839, "date": "2022-12-23T00:00:00", "smokePM_pred": 3.4490408897399898 }, "geometry": { "type": "Polygon", "coordinates": [ [ [ -106.290825366745835, 31.992493805288881 ], [ -106.256875588310749, 31.920764616196472 ], [ -106.340934821334685, 31.891844044199814 ], [ -106.374911996101815, 31.963492958845976 ], [ -106.290825366745835, 31.992493805288881 ] ] ] } },
{ "type": "Feature", "properties": { "ID": 75840, "date": "2022-12-23T00:00:00", "smokePM_pred": 3.3273446559906001 }, "geometry": { "type": "Polygon", "coordinates": [ [ [ -106.206617669119126, 32.021461922952419 ], [ -106.172695619423024, 31.949652500436699 ], [ -106.256875588310749, 31.920764616196472 ], [ -106.290825366745835, 31.992493805288881 ], [ -106.206617669119126, 32.021461922952419 ] ] ] } },
{ "type": "Feature", "properties": { "ID": 75841, "date": "2022-12-23T00:00:00", "smokePM_pred": 3.4498140811920202 }, "geometry": { "type": "Polygon", "coordinates": [ [ [ -106.122288883352837, 32.050397045763717 ], [ -106.088394895832309, 31.978507431665594 ], [ -106.172695619423024, 31.949652500436699 ], [ -106.206617669119126, 32.021461922952419 ], [ -106.122288883352837, 32.050397045763717 ] ] ] } },
{ "type": "Feature", "properties": { "ID": 76351, "date": "2022-12-23T00:00:00", "smokePM_pred": 2.5556960105896001 }, "geometry": { "type": "Polygon", "coordinates": [ [ [ -106.576874111421105, 31.976849000144263 ], [ -106.542722135984604, 31.905394141381247 ], [ -106.626445692730385, 31.876296699962563 ], [ -106.660624048454594, 31.947671081220843 ], [ -106.576874111421105, 31.976849000144263 ] ] ] } },
{ "type": "Feature", "properties": { "ID": 76352, "date": "2022-12-23T00:00:00", "smokePM_pred": 3.4325203895568799 }, "geometry": { "type": "Polygon", "coordinates": [ [ [ -106.493002842930451, 32.005994947246478 ], [ -106.458877578359221, 31.93445964919081 ], [ -106.542722135984604, 31.905394141381247 ], [ -106.576874111421105, 31.976849000144263 ], [ -106.493002842930451, 32.005994947246478 ] ] ] } },
{ "type": "Feature", "properties": { "ID": 76353, "date": "2022-12-23T00:00:00", "smokePM_pred": 2.8843455314636199 }, "geometry": { "type": "Polygon", "coordinates": [ [ [ -106.409010218183312, 32.03510865717368 ], [ -106.374911996101815, 31.963492958845976 ], [ -106.458877578359221, 31.93445964919081 ], [ -106.493002842930451, 32.005994947246478 ], [ -106.409010218183312, 32.03510865717368 ] ] ] } },
{ "type": "Feature", "properties": { "ID": 76354, "date": "2022-12-23T00:00:00", "smokePM_pred": 3.4902229309082 }, "geometry": { "type": "Polygon", "coordinates": [ [ [ -106.32489621366885, 32.064189864055955 ], [ -106.290825366745835, 31.992493805288881 ], [ -106.374911996101815, 31.963492958845976 ], [ -106.409010218183312, 32.03510865717368 ], [ -106.32489621366885, 32.064189864055955 ] ] ] } },
{ "type": "Feature", "properties": { "ID": 76355, "date": "2022-12-23T00:00:00", "smokePM_pred": 3.4262456893920898 }, "geometry": { "type": "Polygon", "coordinates": [ [ [ -106.240660807173498, 32.093238301510645 ], [ -106.206617669119126, 32.021461922952419 ], [ -106.290825366745835, 31.992493805288881 ], [ -106.32489621366885, 32.064189864055955 ], [ -106.240660807173498, 32.093238301510645 ] ] ] } },
{ "type": "Feature", "properties": { "ID": 76866, "date": "2022-12-23T00:00:00", "smokePM_pred": 2.28358125686646 }, "geometry": { "type": "Polygon", "coordinates": [ [ [ -106.611147418528034, 32.048270330253871 ], [ -106.576874111421105, 31.976849000144263 ], [ -106.660624048454594, 31.947671081220843 ], [ -106.694923709768702, 32.019011848758147 ], [ -106.611147418528034, 32.048270330253871 ] ] ] } },
{ "type": "Feature", "properties": { "ID": 76867, "date": "2022-12-23T00:00:00", "smokePM_pred": 2.6488294601440399 }, "geometry": { "type": "Polygon", "coordinates": [ [ [ -106.527249463972964, 32.077496802096491 ], [ -106.493002842930451, 32.005994947246478 ], [ -106.576874111421105, 31.976849000144263 ], [ -106.611147418528034, 32.048270330253871 ], [ -106.527249463972964, 32.077496802096491 ] ] ] } },
{ "type": "Feature", "properties": { "ID": 76868, "date": "2022-12-23T00:00:00", "smokePM_pred": 2.87508273124695 }, "geometry": { "type": "Polygon", "coordinates": [ [ [ -106.443229820248376, 32.106690998122637 ], [ -106.409010218183312, 32.03510865717368 ], [ -106.493002842930451, 32.005994947246478 ], [ -106.527249463972964, 32.077496802096491 ], [ -106.443229820248376, 32.106690998122637 ] ] ] } },
{ "type": "Feature", "properties": { "ID": 76869, "date": "2022-12-23T00:00:00", "smokePM_pred": 3.2215559482574498 }, "geometry": { "type": "Polygon", "coordinates": [ [ [ -106.35908846279041, 32.135852651649344 ], [ -106.32489621366885, 32.064189864055955 ], [ -106.409010218183312, 32.03510865717368 ], [ -106.443229820248376, 32.106690998122637 ], [ -106.35908846279041, 32.135852651649344 ] ] ] } },
{ "type": "Feature", "properties": { "ID": 76870, "date": "2022-12-23T00:00:00", "smokePM_pred": 3.3178308010101301 }, "geometry": { "type": "Polygon", "coordinates": [ [ [ -106.274825368335271, 32.164981495477427 ], [ -106.240660807173498, 32.093238301510645 ], [ -106.32489621366885, 32.064189864055955 ], [ -106.35908846279041, 32.135852651649344 ], [ -106.274825368335271, 32.164981495477427 ] ] ] } },
{ "type": "Feature", "properties": { "ID": 77382, "date": "2022-12-23T00:00:00", "smokePM_pred": 2.6041605472564702 }, "geometry": { "type": "Polygon", "coordinates": [ [ [ -106.561617774400204, 32.148965071905309 ], [ -106.527249463972964, 32.077496802096491 ], [ -106.611147418528034, 32.048270330253871 ], [ -106.645542389163069, 32.11965798966807 ], [ -106.561617774400204, 32.148965071905309 ] ] ] } },
{ "type": "Feature", "properties": { "ID": 77383, "date": "2022-12-23T00:00:00", "smokePM_pred": 3.11173295974731 }, "geometry": { "type": "Polygon", "coordinates": [ [ [ -106.477571136263521, 32.178239840066247 ], [ -106.443229820248376, 32.106690998122637 ], [ -106.527249463972964, 32.077496802096491 ], [ -106.561617774400204, 32.148965071905309 ], [ -106.477571136263521, 32.178239840066247 ] ] ] } },
{ "type": "Feature", "properties": { "ID": 77384, "date": "2022-12-23T00:00:00", "smokePM_pred": 3.5275959968566899 }, "geometry": { "type": "Polygon", "coordinates": [ [ [ -106.393402449127279, 32.207482026653871 ], [ -106.35908846279041, 32.135852651649344 ], [ -106.443229820248376, 32.106690998122637 ], [ -106.477571136263521, 32.178239840066247 ], [ -106.393402449127279, 32.207482026653871 ] ] ] } }
]
}
