{
"type": "FeatureCollection",
"name": "geo_2022-12-04",
"crs": { "type": "name", "properties": { "name": "urn:ogc:def:crs:OGC:1.3:CRS84" } },
"features": [
{ "type": "Feature", "properties": { "ID": 12210, "date": "2022-12-04T00:00:00", "smokePM_pred": 2.2184686660766602 }, "geometry": { "type": "Polygon", "coordinates": [ [ [ -82.112205819183046, 26.376421761216541 ], [ -82.102124720353757, 26.288489962648615 ], [ -82.199650767486816, 26.279391771617348 ], [ -82.209801534358832, 26.367288531923563 ], [ -82.112205819183046, 26.376421761216541 ] ] ] } },
{ "type": "Feature", "properties": { "ID": 12724, "date": "2022-12-04T00:00:00", "smokePM_pred": 2.4667632579803498 }, "geometry": { "type": "Polygon", "coordinates": [ [ [ -82.219999177790825, 26.455180565633238 ], [ -82.209801534358832, 26.367288531923563 ], [ -82.307350373132223, 26.35809173914275 ], [ -82.317617842122829, 26.445948445692856 ], [ -82.219999177790825, 26.455180565633238 ] ] ] } },
{ "type": "Feature", "properties": { "ID": 12725, "date": "2022-12-04T00:00:00", "smokePM_pred": 2.4900357723236102 }, "geometry": { "type": "Polygon", "coordinates": [ [ [ -82.122333485054753, 26.464348883385988 ], [ -82.112205819183046, 26.376421761216541 ], [ -82.209801534358832, 26.367288531923563 ], [ -82.219999177790825, 26.455180565633238 ], [ -82.122333485054753, 26.464348883385988 ] ] ] } },
{ "type": "Feature", "properties": { "ID": 13239, "date": "2022-12-04T00:00:00", "smokePM_pred": 2.4877619743347199 }, "geometry": { "type": "Polygon", "coordinates": [ [ [ -82.230243849785396, 26.543067850722746 ], [ -82.219999177790825, 26.455180565633238 ], [ -82.317617842122829, 26.445948445692856 ], [ -82.327932649107538, 26.533800352879073 ], [ -82.230243849785396, 26.543067850722746 ] ] ] } },
{ "type": "Feature", "properties": { "ID": 13240, "date": "2022-12-04T00:00:00", "smokePM_pred": 2.3831970691680899 }, "geometry": { "type": "Polygon", "coordinates": [ [ [ -82.132507869106362, 26.5522713073997 ], [ -82.122333485054753, 26.464348883385988 ], [ -82.219999177790825, 26.455180565633238 ], [ -82.230243849785396, 26.543067850722746 ], [ -82.132507869106362, 26.5522713073997 ] ] ] } },
{ "type": "Feature", "properties": { "ID": 13250, "date": "2022-12-04T00:00:00", "smokePM_pred": 2.8889510631561302 }, "geometry": { "type": "Polygon", "coordinates": [ [ [ -81.152622030555946, 26.640757056221371 ], [ -81.143158744087174, 26.552496512489157 ], [ -81.241277495318087, 26.543972793023485 ], [ -81.250812550457184, 26.632200618906467 ], [ -81.152622030555946, 26.640757056221371 ] ] ] } },
{ "type": "Feature", "properties": { "ID": 13251, "date": "2022-12-04T00:00:00", "smokePM_pred": 2.8930983543396001 }, "geometry": { "type": "Polygon", "coordinates": [ [ [ -81.054387804625676, 26.649248147344842 ], [ -81.044996429893757, 26.560955130926942 ], [ -81.143158744087174, 26.552496512489157 ], [ -81.152622030555946, 26.640757056221371 ], [ -81.054387804625676, 26.649248147344842 ] ] ] } },
{ "type": "Feature", "properties": { "ID": 13252, "date": "2022-12-04T00:00:00", "smokePM_pred": 8.0731277465820295 }, "geometry": { "type": "Polygon", "coordinates": [ [ [ -80.956110194118679, 26.657673778193775 ], [ -80.946790873257214, 26.569348534795946 ], [ -81.044996429893757, 26.560955130926942 ], [ -81.054387804625676, 26.649248147344842 ], [ -80.956110194118679, 26.657673778193775 ] ] ] } },
{ "type": "Feature", "properties": { "ID": 13253, "date": "2022-12-04T00:00:00", "smokePM_pred": 7.5995512008667001 }, "geometry": { "type": "Polygon", "coordinates": [ [ [ -80.85778952138358, 26.666033835461391 ], [ -80.848542395587771, 26.57767661132813 ], [ -80.946790873257214, 26.569348534795946 ], [ -80.956110194118679, 26.657673778193775 ], [ -80.85778952138358, 26.666033835461391 ] ] ] } },
{ "type": "Feature", "properties": { "ID": 13254, "date": "2022-12-04T00:00:00", "smokePM_pred": 10.6222543716431 }, "geometry": { "type": "Polygon", "coordinates": [ [ [ -80.759426109660012, 26.674328206621063 ], [ -80.750251319181103, 26.585939248532121 ], [ -80.848542395587771, 26.57767661132813 ], [ -80.85778952138358, 26.666033835461391 ], [ -80.759426109660012, 26.674328206621063 ] ] ] } },
{ "type": "Feature", "properties": { "ID": 13255, "date": "2022-12-04T00:00:00", "smokePM_pred": 5.0815668106079102 }, "geometry": { "type": "Polygon", "coordinates": [ [ [ -80.661020283073256, 26.682556779930138 ], [ -80.651917967213009, 26.594136335197042 ], [ -80.750251319181103, 26.585939248532121 ], [ -80.759426109660012, 26.674328206621063 ], [ -80.661020283073256, 26.682556779930138 ] ] ] } },
{ "type": "Feature", "properties": { "ID": 13256, "date": "2022-12-04T00:00:00", "smokePM_pred": 6.3613958358764604 }, "geometry": { "type": "Polygon", "coordinates": [ [ [ -80.562572366628714, 26.690719444433785 ], [ -80.553542663733907, 26.60226776089635 ], [ -80.651917967213009, 26.594136335197042 ], [ -80.661020283073256, 26.682556779930138 ], [ -80.562572366628714, 26.690719444433785 ] ] ] } },
{ "type": "Feature", "properties": { "ID": 13754, "date": "2022-12-04T00:00:00", "smokePM_pred": 2.5337891578674299 }, "geometry": { "type": "Polygon", "coordinates": [ [ [ -82.240535703296345, 26.630950365086786 ], [ -82.230243849785396, 26.543067850722746 ], [ -82.327932649107538, 26.533800352879073 ], [ -82.338294947904188, 26.621647438327233 ], [ -82.240535703296345, 26.630950365086786 ] ] ] } },
{ "type": "Feature", "properties": { "ID": 13755, "date": "2022-12-04T00:00:00", "smokePM_pred": 2.5787658691406201 }, "geometry": { "type": "Polygon", "coordinates": [ [ [ -82.142729123421773, 26.640189011419942 ], [ -82.132507869106362, 26.5522713073997 ], [ -82.230243849785396, 26.543067850722746 ], [ -82.240535703296345, 26.630950365086786 ], [ -82.142729123421773, 26.640189011419942 ] ] ] } },
{ "type": "Feature", "properties": { "ID": 13764, "date": "2022-12-04T00:00:00", "smokePM_pred": 2.8472433090210001 }, "geometry": { "type": "Polygon", "coordinates": [ [ [ -81.260391632327043, 26.720424168411963 ], [ -81.250812550457184, 26.632200618906467 ], [ -81.348959043778876, 26.623578950255602 ], [ -81.358610069969828, 26.711769489181172 ], [ -81.260391632327043, 26.720424168411963 ] ] ] } },
{ "type": "Feature", "properties": { "ID": 13765, "date": "2022-12-04T00:00:00", "smokePM_pred": 2.48632740974426 }, "geometry": { "type": "Polygon", "coordinates": [ [ [ -81.162129023203988, 26.729013371387506 ], [ -81.152622030555946, 26.640757056221371 ], [ -81.250812550457184, 26.632200618906467 ], [ -81.260391632327043, 26.720424168411963 ], [ -81.162129023203988, 26.729013371387506 ] ] ] } },
{ "type": "Feature", "properties": { "ID": 13766, "date": "2022-12-04T00:00:00", "smokePM_pred": 3.2650132179260298 }, "geometry": { "type": "Polygon", "coordinates": [ [ [ -81.063822564083765, 26.737536982704704 ], [ -81.054387804625676, 26.649248147344842 ], [ -81.152622030555946, 26.640757056221371 ], [ -81.162129023203988, 26.729013371387506 ], [ -81.063822564083765, 26.737536982704704 ] ] ] } },
{ "type": "Feature", "properties": { "ID": 13767, "date": "2022-12-04T00:00:00", "smokePM_pred": 4.2630524635314897 }, "geometry": { "type": "Polygon", "coordinates": [ [ [ -80.965472577356778, 26.745994887736284 ], [ -80.956110194118679, 26.657673778193775 ], [ -81.054387804625676, 26.649248147344842 ], [ -81.063822564083765, 26.737536982704704 ], [ -80.965472577356778, 26.745994887736284 ] ] ] } },
{ "type": "Feature", "properties": { "ID": 13768, "date": "2022-12-04T00:00:00", "smokePM_pred": 4.0772423744201696 }, "geometry": { "type": "Polygon", "coordinates": [ [ [ -80.867079386315453, 26.754386972634705 ], [ -80.85778952138358, 26.666033835461391 ], [ -80.956110194118679, 26.657673778193775 ], [ -80.965472577356778, 26.745994887736284 ], [ -80.867079386315453, 26.754386972634705 ] ] ] } },
{ "type": "Feature", "properties": { "ID": 13769, "date": "2022-12-04T00:00:00", "smokePM_pred": 5.3227434158325204 }, "geometry": { "type": "Polygon", "coordinates": [ [ [ -80.768643315148807, 26.762713124336059 ], [ -80.759426109660012, 26.674328206621063 ], [ -80.85778952138358, 26.666033835461391 ], [ -80.867079386315453, 26.754386972634705 ], [ -80.768643315148807, 26.762713124336059 ] ] ] } },
{ "type": "Feature", "properties": { "ID": 13770, "date": "2022-12-04T00:00:00", "smokePM_pred": 3.9263355731964098 }, "geometry": { "type": "Polygon", "coordinates": [ [ [ -80.670164688937049, 26.770973230563964 ], [ -80.661020283073256, 26.682556779930138 ], [ -80.759426109660012, 26.674328206621063 ], [ -80.768643315148807, 26.762713124336059 ], [ -80.670164688937049, 26.770973230563964 ] ] ] } },
{ "type": "Feature", "properties": { "ID": 13771, "date": "2022-12-04T00:00:00", "smokePM_pred": 5.3773031234741202 }, "geometry": { "type": "Polygon", "coordinates": [ [ [ -80.571643833646078, 26.779167179833326 ], [ -80.562572366628714, 26.690719444433785 ], [ -80.661020283073256, 26.682556779930138 ], [ -80.670164688937049, 26.770973230563964 ], [ -80.571643833646078, 26.779167179833326 ] ] ] } },
{ "type": "Feature", "properties": { "ID": 14268, "date": "2022-12-04T00:00:00", "smokePM_pred": 2.66239333152771 }, "geometry": { "type": "Polygon", "coordinates": [ [ [ -82.348704893292378, 26.70948967957958 ], [ -82.338294947904188, 26.621647438327233 ], [ -82.436006546081771, 26.612280354815201 ], [ -82.446487092173712, 26.700086876913353 ], [ -82.348704893292378, 26.70948967957958 ] ] ] } },
{ "type": "Feature", "properties": { "ID": 14269, "date": "2022-12-04T00:00:00", "smokePM_pred": 2.8734207153320299 }, "geometry": { "type": "Polygon", "coordinates": [ [ [ -82.250874892234478, 26.718828086537673 ], [ -82.240535703296345, 26.630950365086786 ], [ -82.338294947904188, 26.621647438327233 ], [ -82.348704893292378, 26.70948967957958 ], [ -82.250874892234478, 26.718828086537673 ] ] ] } },
{ "type": "Feature", "properties": { "ID": 14270, "date": "2022-12-04T00:00:00", "smokePM_pred": 2.5561170578002899 }, "geometry": { "type": "Polygon", "coordinates": [ [ [ -82.152997401037098, 26.728101973527828 ], [ -82.142729123421773, 26.640189011419942 ], [ -82.240535703296345, 26.630950365086786 ], [ -82.250874892234478, 26.718828086537673 ], [ -82.152997401037098, 26.728101973527828 ] ] ] } },
{ "type": "Feature", "properties": { "ID": 14279, "date": "2022-12-04T00:00:00", "smokePM_pred": 2.2837488651275599 }, "geometry": { "type": "Polygon", "coordinates": [ [ [ -81.270014885829255, 26.808643421979607 ], [ -81.260391632327043, 26.720424168411963 ], [ -81.358610069969828, 26.711769489181172 ], [ -81.36830558836445, 26.799955683799698 ], [ -81.270014885829255, 26.808643421979607 ] ] ] } },
{ "type": "Feature", "properties": { "ID": 14280, "date": "2022-12-04T00:00:00", "smokePM_pred": 2.75632667541504 }, "geometry": { "type": "Polygon", "coordinates": [ [ [ -81.171679866000446, 26.817265438682266 ], [ -81.162129023203988, 26.729013371387506 ], [ -81.260391632327043, 26.720424168411963 ], [ -81.270014885829255, 26.808643421979607 ], [ -81.171679866000446, 26.817265438682266 ] ] ] } },
{ "type": "Feature", "properties": { "ID": 14281, "date": "2022-12-04T00:00:00", "smokePM_pred": 2.7354245185852002 }, "geometry": { "type": "Polygon", "coordinates": [ [ [ -81.073300851298939, 26.82582161795488 ], [ -81.063822564083765, 26.737536982704704 ], [ -81.162129023203988, 26.729013371387506 ], [ -81.171679866000446, 26.817265438682266 ], [ -81.073300851298939, 26.82582161795488 ] ] ] } },
{ "type": "Feature", "properties": { "ID": 14282, "date": "2022-12-04T00:00:00", "smokePM_pred": 3.2702655792236301 }, "geometry": { "type": "Polygon", "coordinates": [ [ [ -80.974878165058641, 26.834311844623951 ], [ -80.965472577356778, 26.745994887736284 ], [ -81.063822564083765, 26.737536982704704 ], [ -81.073300851298939, 26.82582161795488 ], [ -80.974878165058641, 26.834311844623951 ] ] ] } },
{ "type": "Feature", "properties": { "ID": 14283, "date": "2022-12-04T00:00:00", "smokePM_pred": 3.4288861751556401 }, "geometry": { "type": "Polygon", "coordinates": [ [ [ -80.876412131521164, 26.842736004299191 ], [ -80.867079386315453, 26.754386972634705 ], [ -80.965472577356778, 26.745994887736284 ], [ -80.974878165058641, 26.834311844623951 ], [ -80.876412131521164, 26.842736004299191 ] ] ] } },
{ "type": "Feature", "properties": { "ID": 14284, "date": "2022-12-04T00:00:00", "smokePM_pred": 8.2857809066772496 }, "geometry": { "type": "Polygon", "coordinates": [ [ [ -80.777903075830324, 26.851093983377435 ], [ -80.768643315148807, 26.762713124336059 ], [ -80.867079386315453, 26.754386972634705 ], [ -80.876412131521164, 26.842736004299191 ], [ -80.777903075830324, 26.851093983377435 ] ] ] } },
{ "type": "Feature", "properties": { "ID": 14285, "date": "2022-12-04T00:00:00", "smokePM_pred": 6.7446007728576696 }, "geometry": { "type": "Polygon", "coordinates": [ [ [ -80.679351324026754, 26.859385669046503 ], [ -80.670164688937049, 26.770973230563964 ], [ -80.768643315148807, 26.762713124336059 ], [ -80.777903075830324, 26.851093983377435 ], [ -80.679351324026754, 26.859385669046503 ] ] ] } },
{ "type": "Feature", "properties": { "ID": 14286, "date": "2022-12-04T00:00:00", "smokePM_pred": 3.5021104812622101 }, "geometry": { "type": "Polygon", "coordinates": [ [ [ -80.580757203042353, 26.867610949289102 ], [ -80.571643833646078, 26.779167179833326 ], [ -80.670164688937049, 26.770973230563964 ], [ -80.679351324026754, 26.859385669046503 ], [ -80.580757203042353, 26.867610949289102 ] ] ] } },
{ "type": "Feature", "properties": { "ID": 14783, "date": "2022-12-04T00:00:00", "smokePM_pred": 2.70027375221252 }, "geometry": { "type": "Polygon", "coordinates": [ [ [ -82.359162641019424, 26.797327054094129 ], [ -82.348704893292378, 26.70948967957958 ], [ -82.446487092173712, 26.700086876913353 ], [ -82.457015751668706, 26.787888480438731 ], [ -82.359162641019424, 26.797327054094129 ] ] ] } },
{ "type": "Feature", "properties": { "ID": 14784, "date": "2022-12-04T00:00:00", "smokePM_pred": 2.3836297988891602 }, "geometry": { "type": "Polygon", "coordinates": [ [ [ -82.261261571473582, 26.806700992804736 ], [ -82.250874892234478, 26.718828086537673 ], [ -82.348704893292378, 26.70948967957958 ], [ -82.359162641019424, 26.797327054094129 ], [ -82.261261571473582, 26.806700992804736 ] ] ] } },
{ "type": "Feature", "properties": { "ID": 14785, "date": "2022-12-04T00:00:00", "smokePM_pred": 2.5908496379852299 }, "geometry": { "type": "Polygon", "coordinates": [ [ [ -82.1633128559466, 26.816010171722677 ], [ -82.152997401037098, 26.728101973527828 ], [ -82.250874892234478, 26.718828086537673 ], [ -82.261261571473582, 26.806700992804736 ], [ -82.1633128559466, 26.816010171722677 ] ] ] } },
{ "type": "Feature", "properties": { "ID": 14795, "date": "2022-12-04T00:00:00", "smokePM_pred": 3.60076808929443 }, "geometry": { "type": "Polygon", "coordinates": [ [ [ -81.181274703821785, 26.905513238730602 ], [ -81.171679866000446, 26.817265438682266 ], [ -81.270014885829255, 26.808643421979607 ], [ -81.279682456778147, 26.896858359978122 ], [ -81.181274703821785, 26.905513238730602 ] ] ] } },
{ "type": "Feature", "properties": { "ID": 14796, "date": "2022-12-04T00:00:00", "smokePM_pred": 3.21850633621216 }, "geometry": { "type": "Polygon", "coordinates": [ [ [ -81.082822810204178, 26.914102033975102 ], [ -81.073300851298939, 26.82582161795488 ], [ -81.171679866000446, 26.817265438682266 ], [ -81.181274703821785, 26.905513238730602 ], [ -81.082822810204178, 26.914102033975102 ] ] ] } },
{ "type": "Feature", "properties": { "ID": 14797, "date": "2022-12-04T00:00:00", "smokePM_pred": 7.5904631614685103 }, "geometry": { "type": "Polygon", "coordinates": [ [ [ -80.984327100208077, 26.922624629989862 ], [ -80.974878165058641, 26.834311844623951 ], [ -81.073300851298939, 26.82582161795488 ], [ -81.082822810204178, 26.914102033975102 ], [ -80.984327100208077, 26.922624629989862 ] ] ] } },
{ "type": "Feature", "properties": { "ID": 14798, "date": "2022-12-04T00:00:00", "smokePM_pred": 6.9038395881652797 }, "geometry": { "type": "Polygon", "coordinates": [ [ [ -80.88578789902968, 26.931080911839789 ], [ -80.876412131521164, 26.842736004299191 ], [ -80.974878165058641, 26.834311844623951 ], [ -80.984327100208077, 26.922624629989862 ], [ -80.88578789902968, 26.931080911839789 ] ] ] } },
{ "type": "Feature", "properties": { "ID": 14799, "date": "2022-12-04T00:00:00", "smokePM_pred": 5.70985651016235 }, "geometry": { "type": "Polygon", "coordinates": [ [ [ -80.787205532773115, 26.939470765380428 ], [ -80.777903075830324, 26.851093983377435 ], [ -80.876412131521164, 26.842736004299191 ], [ -80.88578789902968, 26.931080911839789 ], [ -80.787205532773115, 26.939470765380428 ] ] ] } },
{ "type": "Feature", "properties": { "ID": 14800, "date": "2022-12-04T00:00:00", "smokePM_pred": 7.3429760932922399 }, "geometry": { "type": "Polygon", "coordinates": [ [ [ -80.6885803284449, 26.94779407726184 ], [ -80.679351324026754, 26.859385669046503 ], [ -80.777903075830324, 26.851093983377435 ], [ -80.787205532773115, 26.939470765380428 ], [ -80.6885803284449, 26.94779407726184 ] ] ] } },
{ "type": "Feature", "properties": { "ID": 14801, "date": "2022-12-04T00:00:00", "smokePM_pred": 8.1460247039794904 }, "geometry": { "type": "Polygon", "coordinates": [ [ [ -80.589912613948528, 26.956050734932504 ], [ -80.580757203042353, 26.867610949289102 ], [ -80.679351324026754, 26.859385669046503 ], [ -80.6885803284449, 26.94779407726184 ], [ -80.589912613948528, 26.956050734932504 ] ] ] } },
{ "type": "Feature", "properties": { "ID": 15298, "date": "2022-12-04T00:00:00", "smokePM_pred": 2.4069166183471702 }, "geometry": { "type": "Polygon", "coordinates": [ [ [ -82.369668347806311, 26.885159539243968 ], [ -82.359162641019424, 26.797327054094129 ], [ -82.457015751668706, 26.787888480438731 ], [ -82.467592682160074, 26.875685142490553 ], [ -82.369668347806311, 26.885159539243968 ] ] ] } },
{ "type": "Feature", "properties": { "ID": 15299, "date": "2022-12-04T00:00:00", "smokePM_pred": 2.2900049686431898 }, "geometry": { "type": "Polygon", "coordinates": [ [ [ -82.271695896856301, 26.894569061533602 ], [ -82.261261571473582, 26.806700992804736 ], [ -82.359162641019424, 26.797327054094129 ], [ -82.369668347806311, 26.885159539243968 ], [ -82.271695896856301, 26.894569061533602 ] ] ] } },
{ "type": "Feature", "properties": { "ID": 15310, "date": "2022-12-04T00:00:00", "smokePM_pred": 4.1967396736145002 }, "geometry": { "type": "Polygon", "coordinates": [ [ [ -81.190913682457534, 26.993756752087137 ], [ -81.181274703821785, 26.905513238730602 ], [ -81.279682456778147, 26.896858359978122 ], [ -81.28939449190635, 26.985068962704684 ], [ -81.190913682457534, 26.993756752087137 ] ] ] } },
{ "type": "Feature", "properties": { "ID": 15311, "date": "2022-12-04T00:00:00", "smokePM_pred": 3.4607117176055899 }, "geometry": { "type": "Polygon", "coordinates": [ [ [ -81.092388585640109, 27.002378211575977 ], [ -81.082822810204178, 26.914102033975102 ], [ -81.181274703821785, 26.905513238730602 ], [ -81.190913682457534, 26.993756752087137 ], [ -81.092388585640109, 27.002378211575977 ] ] ] } },
{ "type": "Feature", "properties": { "ID": 15312, "date": "2022-12-04T00:00:00", "smokePM_pred": 3.4333846569061302 }, "geometry": { "type": "Polygon", "coordinates": [ [ [ -80.993819526691126, 27.010933224899105 ], [ -80.984327100208077, 26.922624629989862 ], [ -81.082822810204178, 26.914102033975102 ], [ -81.092388585640109, 27.002378211575977 ], [ -80.993819526691126, 27.010933224899105 ] ] ] } },
{ "type": "Feature", "properties": { "ID": 15313, "date": "2022-12-04T00:00:00", "smokePM_pred": 5.6606354713439897 }, "geometry": { "type": "Polygon", "coordinates": [ [ [ -80.895206831766814, 27.019421676574609 ], [ -80.88578789902968, 26.931080911839789 ], [ -80.984327100208077, 26.922624629989862 ], [ -80.993819526691126, 27.010933224899105 ], [ -80.895206831766814, 27.019421676574609 ] ] ] } },
{ "type": "Feature", "properties": { "ID": 15314, "date": "2022-12-04T00:00:00", "smokePM_pred": 5.2769370079040501 }, "geometry": { "type": "Polygon", "coordinates": [ [ [ -80.796550827937011, 27.027843451914688 ], [ -80.787205532773115, 26.939470765380428 ], [ -80.88578789902968, 26.931080911839789 ], [ -80.895206831766814, 27.019421676574609 ], [ -80.796550827937011, 27.027843451914688 ] ] ] } },
{ "type": "Feature", "properties": { "ID": 15315, "date": "2022-12-04T00:00:00", "smokePM_pred": 6.3972673416137704 }, "geometry": { "type": "Polygon", "coordinates": [ [ [ -80.697851843179777, 27.036198437029611 ], [ -80.6885803284449, 26.94779407726184 ], [ -80.787205532773115, 26.939470765380428 ], [ -80.796550827937011, 27.027843451914688 ], [ -80.697851843179777, 27.036198437029611 ] ] ] } },
{ "type": "Feature", "properties": { "ID": 15316, "date": "2022-12-04T00:00:00", "smokePM_pred": 4.9814424514770499 }, "geometry": { "type": "Polygon", "coordinates": [ [ [ -80.599110206375698, 27.044486518831611 ], [ -80.589912613948528, 26.956050734932504 ], [ -80.6885803284449, 26.94779407726184 ], [ -80.697851843179777, 27.036198437029611 ], [ -80.599110206375698, 27.044486518831611 ] ] ] } },
{ "type": "Feature", "properties": { "ID": 15812, "date": "2022-12-04T00:00:00", "smokePM_pred": 2.7303504943847701 }, "geometry": { "type": "Polygon", "coordinates": [ [ [ -82.478218042225564, 26.963476840081245 ], [ -82.467592682160074, 26.875685142490553 ], [ -82.565468587104789, 26.866145997448324 ], [ -82.576165324121021, 26.953901580350074 ], [ -82.478218042225564, 26.963476840081245 ] ] ] } },
{ "type": "Feature", "properties": { "ID": 15813, "date": "2022-12-04T00:00:00", "smokePM_pred": 2.4362385272979701 }, "geometry": { "type": "Polygon", "coordinates": [ [ [ -82.380222171353765, 26.972987112316581 ], [ -82.369668347806311, 26.885159539243968 ], [ -82.467592682160074, 26.875685142490553 ], [ -82.478218042225564, 26.963476840081245 ], [ -82.380222171353765, 26.972987112316581 ] ] ] } },
{ "type": "Feature", "properties": { "ID": 15814, "date": "2022-12-04T00:00:00", "smokePM_pred": 2.13463163375854 }, "geometry": { "type": "Polygon", "coordinates": [ [ [ -82.28217802520021, 26.98243227028555 ], [ -82.271695896856301, 26.894569061533602 ], [ -82.369668347806311, 26.885159539243968 ], [ -82.380222171353765, 26.972987112316581 ], [ -82.28217802520021, 26.98243227028555 ] ] ] } },
{ "type": "Feature", "properties": { "ID": 15829, "date": "2022-12-04T00:00:00", "smokePM_pred": 4.3019652366638201 }, "geometry": { "type": "Polygon", "coordinates": [ [ [ -80.805939104178805, 27.116212024483694 ], [ -80.796550827937011, 27.027843451914688 ], [ -80.895206831766814, 27.019421676574609 ], [ -80.904669073560754, 27.107758279754453 ], [ -80.805939104178805, 27.116212024483694 ] ] ] } },
{ "type": "Feature", "properties": { "ID": 15830, "date": "2022-12-04T00:00:00", "smokePM_pred": 6.0195903778076199 }, "geometry": { "type": "Polygon", "coordinates": [ [ [ -80.707166010110996, 27.12459873010447 ], [ -80.697851843179777, 27.036198437029611 ], [ -80.796550827937011, 27.027843451914688 ], [ -80.805939104178805, 27.116212024483694 ], [ -80.707166010110996, 27.12459873010447 ] ] ] } },
{ "type": "Feature", "properties": { "ID": 16327, "date": "2022-12-04T00:00:00", "smokePM_pred": 2.7181768417358398 }, "geometry": { "type": "Polygon", "coordinates": [ [ [ -82.488891991433519, 27.051263550135662 ], [ -82.478218042225564, 26.963476840081245 ], [ -82.576165324121021, 26.953901580350074 ], [ -82.586910962978379, 27.041652122772607 ], [ -82.488891991433519, 27.051263550135662 ] ] ] } },
{ "type": "Feature", "properties": { "ID": 16328, "date": "2022-12-04T00:00:00", "smokePM_pred": 2.1623682975768999 }, "geometry": { "type": "Polygon", "coordinates": [ [ [ -82.390824270348276, 27.060809750513162 ], [ -82.380222171353765, 26.972987112316581 ], [ -82.478218042225564, 26.963476840081245 ], [ -82.488891991433519, 27.051263550135662 ], [ -82.390824270348276, 27.060809750513162 ] ] ] } },
{ "type": "Feature", "properties": { "ID": 16329, "date": "2022-12-04T00:00:00", "smokePM_pred": 2.0134680271148699 }, "geometry": { "type": "Polygon", "coordinates": [ [ [ -82.292708114303878, 27.070290596536825 ], [ -82.28217802520021, 26.98243227028555 ], [ -82.380222171353765, 26.972987112316581 ], [ -82.390824270348276, 27.060809750513162 ], [ -82.292708114303878, 27.070290596536825 ] ] ] } },
{ "type": "Feature", "properties": { "ID": 16842, "date": "2022-12-04T00:00:00", "smokePM_pred": 3.1746711730957 }, "geometry": { "type": "Polygon", "coordinates": [ [ [ -82.499614690349006, 27.139045249490387 ], [ -82.488891991433519, 27.051263550135662 ], [ -82.586910962978379, 27.041652122772607 ], [ -82.597705665122419, 27.129397601273645 ], [ -82.499614690349006, 27.139045249490387 ] ] ] } },
{ "type": "Feature", "properties": { "ID": 16843, "date": "2022-12-04T00:00:00", "smokePM_pred": 2.09482002258301 }, "geometry": { "type": "Polygon", "coordinates": [ [ [ -82.401474804468265, 27.148627430947908 ], [ -82.390824270348276, 27.060809750513162 ], [ -82.488891991433519, 27.051263550135662 ], [ -82.499614690349006, 27.139045249490387 ], [ -82.401474804468265, 27.148627430947908 ] ] ] } },
{ "type": "Feature", "properties": { "ID": 16844, "date": "2022-12-04T00:00:00", "smokePM_pred": 1.9162728786468499 }, "geometry": { "type": "Polygon", "coordinates": [ [ [ -82.303286322952872, 27.158144017677945 ], [ -82.292708114303878, 27.070290596536825 ], [ -82.390824270348276, 27.060809750513162 ], [ -82.401474804468265, 27.148627430947908 ], [ -82.303286322952872, 27.158144017677945 ] ] ] } },
{ "type": "Feature", "properties": { "ID": 17356, "date": "2022-12-04T00:00:00", "smokePM_pred": 2.8988130092620801 }, "geometry": { "type": "Polygon", "coordinates": [ [ [ -82.608549593006288, 27.217137992320641 ], [ -82.597705665122419, 27.129397601273645 ], [ -82.69574741432497, 27.119684615008087 ], [ -82.706663496435567, 27.207388492245855 ], [ -82.608549593006288, 27.217137992320641 ] ] ] } },
{ "type": "Feature", "properties": { "ID": 17357, "date": "2022-12-04T00:00:00", "smokePM_pred": 3.0039930343627899 }, "geometry": { "type": "Polygon", "coordinates": [ [ [ -82.510386300540048, 27.226821914893083 ], [ -82.499614690349006, 27.139045249490387 ], [ -82.597705665122419, 27.129397601273645 ], [ -82.608549593006288, 27.217137992320641 ], [ -82.510386300540048, 27.226821914893083 ] ] ] } },
{ "type": "Feature", "properties": { "ID": 17358, "date": "2022-12-04T00:00:00", "smokePM_pred": 2.9270987510681201 }, "geometry": { "type": "Polygon", "coordinates": [ [ [ -82.41217393439031, 27.236440130647367 ], [ -82.401474804468265, 27.148627430947908 ], [ -82.499614690349006, 27.139045249490387 ], [ -82.510386300540048, 27.226821914893083 ], [ -82.41217393439031, 27.236440130647367 ] ] ] } },
{ "type": "Feature", "properties": { "ID": 17359, "date": "2022-12-04T00:00:00", "smokePM_pred": 2.5998158454895002 }, "geometry": { "type": "Polygon", "coordinates": [ [ [ -82.313912810926084, 27.245992511013025 ], [ -82.303286322952872, 27.158144017677945 ], [ -82.401474804468265, 27.148627430947908 ], [ -82.41217393439031, 27.236440130647367 ], [ -82.313912810926084, 27.245992511013025 ] ] ] } },
{ "type": "Feature", "properties": { "ID": 17871, "date": "2022-12-04T00:00:00", "smokePM_pred": 3.2099349498748802 }, "geometry": { "type": "Polygon", "coordinates": [ [ [ -82.619442910097206, 27.304873272290127 ], [ -82.608549593006288, 27.217137992320641 ], [ -82.706663496435567, 27.207388492245855 ], [ -82.717629282087216, 27.295087204338373 ], [ -82.619442910097206, 27.304873272290127 ] ] ] } },
{ "type": "Feature", "properties": { "ID": 17872, "date": "2022-12-04T00:00:00", "smokePM_pred": 3.1383428573608398 }, "geometry": { "type": "Polygon", "coordinates": [ [ [ -82.521206984583799, 27.31459352300169 ], [ -82.510386300540048, 27.226821914893083 ], [ -82.608549593006288, 27.217137992320641 ], [ -82.619442910097206, 27.304873272290127 ], [ -82.521206984583799, 27.31459352300169 ] ] ] } },
{ "type": "Feature", "properties": { "ID": 17873, "date": "2022-12-04T00:00:00", "smokePM_pred": 3.0892784595489502 }, "geometry": { "type": "Polygon", "coordinates": [ [ [ -82.422921821795285, 27.324247826549652 ], [ -82.41217393439031, 27.236440130647367 ], [ -82.510386300540048, 27.226821914893083 ], [ -82.521206984583799, 27.31459352300169 ], [ -82.422921821795285, 27.324247826549652 ] ] ] } },
{ "type": "Feature", "properties": { "ID": 17874, "date": "2022-12-04T00:00:00", "smokePM_pred": 3.0536096096038801 }, "geometry": { "type": "Polygon", "coordinates": [ [ [ -82.324587739001814, 27.333836053759072 ], [ -82.313912810926084, 27.245992511013025 ], [ -82.41217393439031, 27.236440130647367 ], [ -82.422921821795285, 27.324247826549652 ], [ -82.324587739001814, 27.333836053759072 ] ] ] } },
{ "type": "Feature", "properties": { "ID": 18385, "date": "2022-12-04T00:00:00", "smokePM_pred": 3.1859002113342298 }, "geometry": { "type": "Polygon", "coordinates": [ [ [ -82.728644936655797, 27.382780727286431 ], [ -82.717629282087216, 27.295087204338373 ], [ -82.815765785332189, 27.285235449813982 ], [ -82.826854057277643, 27.372892111123004 ], [ -82.728644936655797, 27.382780727286431 ] ] ] } },
{ "type": "Feature", "properties": { "ID": 18386, "date": "2022-12-04T00:00:00", "smokePM_pred": 3.0423986911773699 }, "geometry": { "type": "Polygon", "coordinates": [ [ [ -82.630385780882619, 27.392603417466894 ], [ -82.619442910097206, 27.304873272290127 ], [ -82.717629282087216, 27.295087204338373 ], [ -82.728644936655797, 27.382780727286431 ], [ -82.630385780882619, 27.392603417466894 ] ] ] } },
{ "type": "Feature", "properties": { "ID": 18387, "date": "2022-12-04T00:00:00", "smokePM_pred": 3.1597034931182901 }, "geometry": { "type": "Polygon", "coordinates": [ [ [ -82.532076906072945, 27.402360050383802 ], [ -82.521206984583799, 27.31459352300169 ], [ -82.619442910097206, 27.304873272290127 ], [ -82.630385780882619, 27.392603417466894 ], [ -82.532076906072945, 27.402360050383802 ] ] ] } },
{ "type": "Feature", "properties": { "ID": 18388, "date": "2022-12-04T00:00:00", "smokePM_pred": 3.2378339767456099 }, "geometry": { "type": "Polygon", "coordinates": [ [ [ -82.43371862937471, 27.41205049550382 ], [ -82.422921821795285, 27.324247826549652 ], [ -82.521206984583799, 27.31459352300169 ], [ -82.532076906072945, 27.402360050383802 ], [ -82.43371862937471, 27.41205049550382 ] ] ] } },
{ "type": "Feature", "properties": { "ID": 18389, "date": "2022-12-04T00:00:00", "smokePM_pred": 3.19736671447754 }, "geometry": { "type": "Polygon", "coordinates": [ [ [ -82.335311268964091, 27.421674623045266 ], [ -82.324587739001814, 27.333836053759072 ], [ -82.422921821795285, 27.324247826549652 ], [ -82.43371862937471, 27.41205049550382 ], [ -82.335311268964091, 27.421674623045266 ] ] ] } },
{ "type": "Feature", "properties": { "ID": 18900, "date": "2022-12-04T00:00:00", "smokePM_pred": 3.3895289897918701 }, "geometry": { "type": "Polygon", "coordinates": [ [ [ -82.7397106265487, 27.470469036997081 ], [ -82.728644936655797, 27.382780727286431 ], [ -82.826854057277643, 27.372892111123004 ], [ -82.837992679625131, 27.460543504272984 ], [ -82.7397106265487, 27.470469036997081 ] ] ] } },
{ "type": "Feature", "properties": { "ID": 18901, "date": "2022-12-04T00:00:00", "smokePM_pred": 2.8991146087646502 }, "geometry": { "type": "Polygon", "coordinates": [ [ [ -82.641378370876723, 27.480328404043355 ], [ -82.630385780882619, 27.392603417466894 ], [ -82.728644936655797, 27.382780727286431 ], [ -82.7397106265487, 27.470469036997081 ], [ -82.641378370876723, 27.480328404043355 ] ] ] } },
{ "type": "Feature", "properties": { "ID": 18902, "date": "2022-12-04T00:00:00", "smokePM_pred": 3.02529740333557 }, "geometry": { "type": "Polygon", "coordinates": [ [ [ -82.542996229622034, 27.49012147351586 ], [ -82.532076906072945, 27.402360050383802 ], [ -82.630385780882619, 27.392603417466894 ], [ -82.641378370876723, 27.480328404043355 ], [ -82.542996229622034, 27.49012147351586 ] ] ] } },
{ "type": "Feature", "properties": { "ID": 18903, "date": "2022-12-04T00:00:00", "smokePM_pred": 3.0793793201446502 }, "geometry": { "type": "Polygon", "coordinates": [ [ [ -82.444564520837062, 27.499848114269064 ], [ -82.43371862937471, 27.41205049550382 ], [ -82.532076906072945, 27.402360050383802 ], [ -82.542996229622034, 27.49012147351586 ], [ -82.444564520837062, 27.499848114269064 ] ] ] } },
{ "type": "Feature", "properties": { "ID": 19414, "date": "2022-12-04T00:00:00", "smokePM_pred": 3.3063256740570099 }, "geometry": { "type": "Polygon", "coordinates": [ [ [ -82.849181820711451, 27.548189604788558 ], [ -82.837992679625131, 27.460543504272984 ], [ -82.936224214137596, 27.450551938513051 ], [ -82.947486434262814, 27.538160827898558 ], [ -82.849181820711451, 27.548189604788558 ] ] ] } },
{ "type": "Feature", "properties": { "ID": 19415, "date": "2022-12-04T00:00:00", "smokePM_pred": 3.2638287544250502 }, "geometry": { "type": "Polygon", "coordinates": [ [ [ -82.750826519211216, 27.558152109282865 ], [ -82.7397106265487, 27.470469036997081 ], [ -82.837992679625131, 27.460543504272984 ], [ -82.849181820711451, 27.548189604788558 ], [ -82.750826519211216, 27.558152109282865 ] ] ] } },
{ "type": "Feature", "properties": { "ID": 19416, "date": "2022-12-04T00:00:00", "smokePM_pred": 2.68559050559998 }, "geometry": { "type": "Polygon", "coordinates": [ [ [ -82.652420846626796, 27.568048208118725 ], [ -82.641378370876723, 27.480328404043355 ], [ -82.7397106265487, 27.470469036997081 ], [ -82.750826519211216, 27.558152109282865 ], [ -82.652420846626796, 27.568048208118725 ] ] ] } },
{ "type": "Feature", "properties": { "ID": 19417, "date": "2022-12-04T00:00:00", "smokePM_pred": 2.9918460845947301 }, "geometry": { "type": "Polygon", "coordinates": [ [ [ -82.553965120873855, 27.577877768782479 ], [ -82.542996229622034, 27.49012147351586 ], [ -82.641378370876723, 27.480328404043355 ], [ -82.652420846626796, 27.568048208118725 ], [ -82.553965120873855, 27.577877768782479 ] ] ] } },
{ "type": "Feature", "properties": { "ID": 19418, "date": "2022-12-04T00:00:00", "smokePM_pred": 2.8052392005920401 }, "geometry": { "type": "Polygon", "coordinates": [ [ [ -82.455459660914187, 27.587640659514097 ], [ -82.444564520837062, 27.499848114269064 ], [ -82.542996229622034, 27.49012147351586 ], [ -82.553965120873855, 27.577877768782479 ], [ -82.455459660914187, 27.587640659514097 ] ] ] } },
{ "type": "Feature", "properties": { "ID": 19929, "date": "2022-12-04T00:00:00", "smokePM_pred": 3.26885938644409 }, "geometry": { "type": "Polygon", "coordinates": [ [ [ -82.8604216499226, 27.63583038809778 ], [ -82.849181820711451, 27.548189604788558 ], [ -82.947486434262814, 27.538160827898558 ], [ -82.958799658322562, 27.625764344294176 ], [ -82.8604216499226, 27.63583038809778 ] ] ] } },
{ "type": "Feature", "properties": { "ID": 19930, "date": "2022-12-04T00:00:00", "smokePM_pred": 2.9055039882659899 }, "geometry": { "type": "Polygon", "coordinates": [ [ [ -82.761992783133081, 27.645829919861136 ], [ -82.750826519211216, 27.558152109282865 ], [ -82.849181820711451, 27.548189604788558 ], [ -82.8604216499226, 27.63583038809778 ], [ -82.761992783133081, 27.645829919861136 ] ] ] } },
{ "type": "Feature", "properties": { "ID": 19931, "date": "2022-12-04T00:00:00", "smokePM_pred": 2.7405219078064 }, "geometry": { "type": "Polygon", "coordinates": [ [ [ -82.663513375719759, 27.655762805698313 ], [ -82.652420846626796, 27.568048208118725 ], [ -82.750826519211216, 27.558152109282865 ], [ -82.761992783133081, 27.645829919861136 ], [ -82.663513375719759, 27.655762805698313 ] ] ] } },
{ "type": "Feature", "properties": { "ID": 19932, "date": "2022-12-04T00:00:00", "smokePM_pred": 2.8839015960693399 }, "geometry": { "type": "Polygon", "coordinates": [ [ [ -82.564983746505973, 27.665628912475668 ], [ -82.553965120873855, 27.577877768782479 ], [ -82.652420846626796, 27.568048208118725 ], [ -82.663513375719759, 27.655762805698313 ], [ -82.564983746505973, 27.665628912475668 ] ] ] } },
{ "type": "Feature", "properties": { "ID": 19933, "date": "2022-12-04T00:00:00", "smokePM_pred": 2.4121866226196298 }, "geometry": { "type": "Polygon", "coordinates": [ [ [ -82.46640421536776, 27.675428107816327 ], [ -82.455459660914187, 27.587640659514097 ], [ -82.553965120873855, 27.577877768782479 ], [ -82.564983746505973, 27.665628912475668 ], [ -82.46640421536776, 27.675428107816327 ] ] ] } },
{ "type": "Feature", "properties": { "ID": 20445, "date": "2022-12-04T00:00:00", "smokePM_pred": 3.5644898414611799 }, "geometry": { "type": "Polygon", "coordinates": [ [ [ -82.773209587855007, 27.733502444353213 ], [ -82.761992783133081, 27.645829919861136 ], [ -82.8604216499226, 27.63583038809778 ], [ -82.871712337700359, 27.723465829531385 ], [ -82.773209587855007, 27.733502444353213 ] ] ] } },
{ "type": "Feature", "properties": { "ID": 20446, "date": "2022-12-04T00:00:00", "smokePM_pred": 3.4822044372558598 }, "geometry": { "type": "Polygon", "coordinates": [ [ [ -82.674656126788634, 27.743472172692783 ], [ -82.663513375719759, 27.655762805698313 ], [ -82.761992783133081, 27.645829919861136 ], [ -82.773209587855007, 27.733502444353213 ], [ -82.674656126788634, 27.743472172692783 ] ] ] } },
{ "type": "Feature", "properties": { "ID": 20447, "date": "2022-12-04T00:00:00", "smokePM_pred": 3.1243922710418701 }, "geometry": { "type": "Polygon", "coordinates": [ [ [ -82.576052274237114, 27.753374880794102 ], [ -82.564983746505973, 27.665628912475668 ], [ -82.663513375719759, 27.655762805698313 ], [ -82.674656126788634, 27.743472172692783 ], [ -82.576052274237114, 27.753374880794102 ] ] ] } },
{ "type": "Feature", "properties": { "ID": 20448, "date": "2022-12-04T00:00:00", "smokePM_pred": 2.3582499027252202 }, "geometry": { "type": "Polygon", "coordinates": [ [ [ -82.477398350995671, 27.763210435661161 ], [ -82.46640421536776, 27.675428107816327 ], [ -82.564983746505973, 27.665628912475668 ], [ -82.576052274237114, 27.753374880794102 ], [ -82.477398350995671, 27.763210435661161 ] ] ] } },
{ "type": "Feature", "properties": { "ID": 20959, "date": "2022-12-04T00:00:00", "smokePM_pred": 3.67099213600159 }, "geometry": { "type": "Polygon", "coordinates": [ [ [ -82.883054055548939, 27.811095904321974 ], [ -82.871712337700359, 27.723465829531385 ], [ -82.970164057653051, 27.713362462738758 ], [ -82.98157980465767, 27.800955158171693 ], [ -82.883054055548939, 27.811095904321974 ] ] ] } },
{ "type": "Feature", "properties": { "ID": 20960, "date": "2022-12-04T00:00:00", "smokePM_pred": 3.6612846851348899 }, "geometry": { "type": "Polygon", "coordinates": [ [ [ -82.784477103975362, 27.821169658283623 ], [ -82.773209587855007, 27.733502444353213 ], [ -82.871712337700359, 27.723465829531385 ], [ -82.883054055548939, 27.811095904321974 ], [ -82.784477103975362, 27.821169658283623 ] ] ] } },
{ "type": "Feature", "properties": { "ID": 20961, "date": "2022-12-04T00:00:00", "smokePM_pred": 3.0712981224060099 }, "geometry": { "type": "Polygon", "coordinates": [ [ [ -82.685849269519252, 27.83117628491733 ], [ -82.674656126788634, 27.743472172692783 ], [ -82.773209587855007, 27.733502444353213 ], [ -82.784477103975362, 27.821169658283623 ], [ -82.685849269519252, 27.83117628491733 ] ] ] } },
{ "type": "Feature", "properties": { "ID": 20962, "date": "2022-12-04T00:00:00", "smokePM_pred": 2.7902498245239298 }, "geometry": { "type": "Polygon", "coordinates": [ [ [ -82.587170872833923, 27.841115649842379 ], [ -82.576052274237114, 27.753374880794102 ], [ -82.674656126788634, 27.743472172692783 ], [ -82.685849269519252, 27.83117628491733 ], [ -82.587170872833923, 27.841115649842379 ] ] ] } },
{ "type": "Feature", "properties": { "ID": 20963, "date": "2022-12-04T00:00:00", "smokePM_pred": 3.0864169597625701 }, "geometry": { "type": "Polygon", "coordinates": [ [ [ -82.488442235638729, 27.850987619441266 ], [ -82.477398350995671, 27.763210435661161 ], [ -82.576052274237114, 27.753374880794102 ], [ -82.587170872833923, 27.841115649842379 ], [ -82.488442235638729, 27.850987619441266 ] ] ] } },
{ "type": "Feature", "properties": { "ID": 21474, "date": "2022-12-04T00:00:00", "smokePM_pred": 3.7466526031494101 }, "geometry": { "type": "Polygon", "coordinates": [ [ [ -82.89444697604165, 27.898720587603229 ], [ -82.883054055548939, 27.811095904321974 ], [ -82.98157980465767, 27.800955158171693 ], [ -82.993047072813695, 27.888542405432123 ], [ -82.89444697604165, 27.898720587603229 ] ] ] } },
{ "type": "Feature", "properties": { "ID": 21475, "date": "2022-12-04T00:00:00", "smokePM_pred": 2.9397380352020299 }, "geometry": { "type": "Polygon", "coordinates": [ [ [ -82.795795503156725, 27.908831537079383 ], [ -82.784477103975362, 27.821169658283623 ], [ -82.883054055548939, 27.811095904321974 ], [ -82.89444697604165, 27.898720587603229 ], [ -82.795795503156725, 27.908831537079383 ] ] ] } },
{ "type": "Feature", "properties": { "ID": 21476, "date": "2022-12-04T00:00:00", "smokePM_pred": 2.6468014717102002 }, "geometry": { "type": "Polygon", "coordinates": [ [ [ -82.697092974656769, 27.918875118090995 ], [ -82.685849269519252, 27.83117628491733 ], [ -82.784477103975362, 27.821169658283623 ], [ -82.795795503156725, 27.908831537079383 ], [ -82.697092974656769, 27.918875118090995 ] ] ] } },
{ "type": "Feature", "properties": { "ID": 21477, "date": "2022-12-04T00:00:00", "smokePM_pred": 2.6903007030487101 }, "geometry": { "type": "Polygon", "coordinates": [ [ [ -82.598339712117422, 27.928851195630269 ], [ -82.587170872833923, 27.841115649842379 ], [ -82.685849269519252, 27.83117628491733 ], [ -82.697092974656769, 27.918875118090995 ], [ -82.598339712117422, 27.928851195630269 ] ] ] } },
{ "type": "Feature", "properties": { "ID": 21478, "date": "2022-12-04T00:00:00", "smokePM_pred": 3.3765516281127899 }, "geometry": { "type": "Polygon", "coordinates": [ [ [ -82.499536038187159, 27.938759635455828 ], [ -82.488442235638729, 27.850987619441266 ], [ -82.587170872833923, 27.841115649842379 ], [ -82.598339712117422, 27.928851195630269 ], [ -82.499536038187159, 27.938759635455828 ] ] ] } },
{ "type": "Feature", "properties": { "ID": 21989, "date": "2022-12-04T00:00:00", "smokePM_pred": 3.9323027133941699 }, "geometry": { "type": "Polygon", "coordinates": [ [ [ -82.905891272827702, 27.986339854409159 ], [ -82.89444697604165, 27.898720587603229 ], [ -82.993047072813695, 27.888542405432123 ], [ -83.004566036679066, 27.976124179258086 ], [ -82.905891272827702, 27.986339854409159 ] ] ] } },
{ "type": "Feature", "properties": { "ID": 21990, "date": "2022-12-04T00:00:00", "smokePM_pred": 3.1225206851959202 }, "geometry": { "type": "Polygon", "coordinates": [ [ [ -82.807164958132759, 27.996488056069172 ], [ -82.795795503156725, 27.908831537079383 ], [ -82.89444697604165, 27.898720587603229 ], [ -82.905891272827702, 27.986339854409159 ], [ -82.807164958132759, 27.996488056069172 ] ] ] } },
{ "type": "Feature", "properties": { "ID": 21991, "date": "2022-12-04T00:00:00", "smokePM_pred": 2.2856290340423602 }, "geometry": { "type": "Polygon", "coordinates": [ [ [ -82.708387414012492, 28.006568647835849 ], [ -82.697092974656769, 27.918875118090995 ], [ -82.795795503156725, 27.908831537079383 ], [ -82.807164958132759, 27.996488056069172 ], [ -82.708387414012492, 28.006568647835849 ] ] ] } },
{ "type": "Feature", "properties": { "ID": 21992, "date": "2022-12-04T00:00:00", "smokePM_pred": 2.4934670925140399 }, "geometry": { "type": "Polygon", "coordinates": [ [ [ -82.609558962969814, 28.016581494071943 ], [ -82.598339712117422, 27.928851195630269 ], [ -82.697092974656769, 27.918875118090995 ], [ -82.708387414012492, 28.006568647835849 ], [ -82.609558962969814, 28.016581494071943 ] ] ] } },
{ "type": "Feature", "properties": { "ID": 21993, "date": "2022-12-04T00:00:00", "smokePM_pred": 2.7714874744415301 }, "geometry": { "type": "Polygon", "coordinates": [ [ [ -82.510679928587308, 28.026526459909785 ], [ -82.499536038187159, 27.938759635455828 ], [ -82.598339712117422, 27.928851195630269 ], [ -82.609558962969814, 28.016581494071943 ], [ -82.510679928587308, 28.026526459909785 ] ] ] } },
{ "type": "Feature", "properties": { "ID": 22504, "date": "2022-12-04T00:00:00", "smokePM_pred": 3.1664850711822501 }, "geometry": { "type": "Polygon", "coordinates": [ [ [ -82.917387120638949, 28.073953679673266 ], [ -82.905891272827702, 27.986339854409159 ], [ -83.004566036679066, 27.976124179258086 ], [ -83.016136871899207, 28.063700454285776 ], [ -82.917387120638949, 28.073953679673266 ] ] ] } },
{ "type": "Feature", "properties": { "ID": 22505, "date": "2022-12-04T00:00:00", "smokePM_pred": 2.5880985260009801 }, "geometry": { "type": "Polygon", "coordinates": [ [ [ -82.818585642714879, 28.084139190482524 ], [ -82.807164958132759, 27.996488056069172 ], [ -82.905891272827702, 27.986339854409159 ], [ -82.917387120638949, 28.073953679673266 ], [ -82.818585642714879, 28.084139190482524 ] ] ] } },
{ "type": "Feature", "properties": { "ID": 22506, "date": "2022-12-04T00:00:00", "smokePM_pred": 1.8914142847061199 }, "geometry": { "type": "Polygon", "coordinates": [ [ [ -82.719732760470563, 28.094256849676206 ], [ -82.708387414012492, 28.006568647835849 ], [ -82.807164958132759, 27.996488056069172 ], [ -82.818585642714879, 28.084139190482524 ], [ -82.719732760470563, 28.094256849676206 ] ] ] } },
{ "type": "Feature", "properties": { "ID": 22507, "date": "2022-12-04T00:00:00", "smokePM_pred": 1.9206615686416599 }, "geometry": { "type": "Polygon", "coordinates": [ [ [ -82.62082879734119, 28.104306520985165 ], [ -82.609558962969814, 28.016581494071943 ], [ -82.708387414012492, 28.006568647835849 ], [ -82.719732760470563, 28.094256849676206 ], [ -82.62082879734119, 28.104306520985165 ] ] ] } },
{ "type": "Feature", "properties": { "ID": 22508, "date": "2022-12-04T00:00:00", "smokePM_pred": 2.6847698688507098 }, "geometry": { "type": "Polygon", "coordinates": [ [ [ -82.521874077848366, 28.114288068913073 ], [ -82.510679928587308, 28.026526459909785 ], [ -82.609558962969814, 28.016581494071943 ], [ -82.62082879734119, 28.104306520985165 ], [ -82.521874077848366, 28.114288068913073 ] ] ] } },
{ "type": "Feature", "properties": { "ID": 23019, "date": "2022-12-04T00:00:00", "smokePM_pred": 3.4178259372711199 }, "geometry": { "type": "Polygon", "coordinates": [ [ [ -82.928934695296775, 28.161562038227757 ], [ -82.917387120638949, 28.073953679673266 ], [ -83.016136871899207, 28.063700454285776 ], [ -83.027759755213935, 28.151271205048673 ], [ -82.928934695296775, 28.161562038227757 ] ] ] } },
{ "type": "Feature", "properties": { "ID": 23020, "date": "2022-12-04T00:00:00", "smokePM_pred": 2.8224294185638401 }, "geometry": { "type": "Polygon", "coordinates": [ [ [ -82.830057731799116, 28.171784915449116 ], [ -82.818585642714879, 28.084139190482524 ], [ -82.917387120638949, 28.073953679673266 ], [ -82.928934695296775, 28.161562038227757 ], [ -82.830057731799116, 28.171784915449116 ] ] ] } },
{ "type": "Feature", "properties": { "ID": 23021, "date": "2022-12-04T00:00:00", "smokePM_pred": 2.2004251480102499 }, "geometry": { "type": "Polygon", "coordinates": [ [ [ -82.731129187994824, 28.18193969903788 ], [ -82.719732760470563, 28.094256849676206 ], [ -82.818585642714879, 28.084139190482524 ], [ -82.830057731799116, 28.171784915449116 ], [ -82.731129187994824, 28.18193969903788 ] ] ] } },
{ "type": "Feature", "properties": { "ID": 23022, "date": "2022-12-04T00:00:00", "smokePM_pred": 2.2565824985504199 }, "geometry": { "type": "Polygon", "coordinates": [ [ [ -82.632149388256209, 28.192026252090599 ], [ -82.62082879734119, 28.104306520985165 ], [ -82.719732760470563, 28.094256849676206 ], [ -82.731129187994824, 28.18193969903788 ], [ -82.632149388256209, 28.192026252090599 ] ] ] } },
{ "type": "Feature", "properties": { "ID": 23023, "date": "2022-12-04T00:00:00", "smokePM_pred": 2.9807100296020499 }, "geometry": { "type": "Polygon", "coordinates": [ [ [ -82.533118658049091, 28.202044438479867 ], [ -82.521874077848366, 28.114288068913073 ], [ -82.62082879734119, 28.104306520985165 ], [ -82.632149388256209, 28.192026252090599 ], [ -82.533118658049091, 28.202044438479867 ] ] ] } },
{ "type": "Feature", "properties": { "ID": 23534, "date": "2022-12-04T00:00:00", "smokePM_pred": 3.2368929386138898 }, "geometry": { "type": "Polygon", "coordinates": [ [ [ -82.940534173719001, 28.249164904802747 ], [ -82.928934695296775, 28.161562038227757 ], [ -83.027759755213935, 28.151271205048673 ], [ -83.039434864464354, 28.23883640597678 ], [ -82.940534173719001, 28.249164904802747 ] ] ] } },
{ "type": "Feature", "properties": { "ID": 23535, "date": "2022-12-04T00:00:00", "smokePM_pred": 3.18138551712036 }, "geometry": { "type": "Polygon", "coordinates": [ [ [ -82.841581401373077, 28.259425205997882 ], [ -82.830057731799116, 28.171784915449116 ], [ -82.928934695296775, 28.161562038227757 ], [ -82.940534173719001, 28.249164904802747 ], [ -82.841581401373077, 28.259425205997882 ] ] ] } },
{ "type": "Feature", "properties": { "ID": 23536, "date": "2022-12-04T00:00:00", "smokePM_pred": 2.37807321548462 }, "geometry": { "type": "Polygon", "coordinates": [ [ [ -82.74257687163562, 28.269617171247361 ], [ -82.731129187994824, 28.18193969903788 ], [ -82.830057731799116, 28.171784915449116 ], [ -82.841581401373077, 28.259425205997882 ], [ -82.74257687163562, 28.269617171247361 ] ] ] } },
{ "type": "Feature", "properties": { "ID": 23537, "date": "2022-12-04T00:00:00", "smokePM_pred": 2.3680675029754599 }, "geometry": { "type": "Polygon", "coordinates": [ [ [ -82.643520909821163, 28.279740663010973 ], [ -82.632149388256209, 28.192026252090599 ], [ -82.731129187994824, 28.18193969903788 ], [ -82.74257687163562, 28.269617171247361 ], [ -82.643520909821163, 28.279740663010973 ] ] ] } },
{ "type": "Feature", "properties": { "ID": 23538, "date": "2022-12-04T00:00:00", "smokePM_pred": 2.8880033493042001 }, "geometry": { "type": "Polygon", "coordinates": [ [ [ -82.544413842344682, 28.289795544527795 ], [ -82.533118658049091, 28.202044438479867 ], [ -82.632149388256209, 28.192026252090599 ], [ -82.643520909821163, 28.279740663010973 ], [ -82.544413842344682, 28.289795544527795 ] ] ] } },
{ "type": "Feature", "properties": { "ID": 24050, "date": "2022-12-04T00:00:00", "smokePM_pred": 3.6337585449218799 }, "geometry": { "type": "Polygon", "coordinates": [ [ [ -82.853156828522827, 28.34706003705622 ], [ -82.841581401373077, 28.259425205997882 ], [ -82.940534173719001, 28.249164904802747 ], [ -82.952185733926896, 28.336762254025381 ], [ -82.853156828522827, 28.34706003705622 ] ] ] } },
{ "type": "Feature", "properties": { "ID": 24051, "date": "2022-12-04T00:00:00", "smokePM_pred": 3.2955698966979998 }, "geometry": { "type": "Polygon", "coordinates": [ [ [ -82.754075987536851, 28.357289241530999 ], [ -82.74257687163562, 28.269617171247361 ], [ -82.841581401373077, 28.259425205997882 ], [ -82.853156828522827, 28.34706003705622 ], [ -82.754075987536851, 28.357289241530999 ] ] ] } },
{ "type": "Feature", "properties": { "ID": 24052, "date": "2022-12-04T00:00:00", "smokePM_pred": 2.5495355129241899 }, "geometry": { "type": "Polygon", "coordinates": [ [ [ -82.654943537230707, 28.367449729270277 ], [ -82.643520909821163, 28.279740663010973 ], [ -82.74257687163562, 28.269617171247361 ], [ -82.754075987536851, 28.357289241530999 ], [ -82.654943537230707, 28.367449729270277 ] ] ] } },
{ "type": "Feature", "properties": { "ID": 24053, "date": "2022-12-04T00:00:00", "smokePM_pred": 3.2119905948638898 }, "geometry": { "type": "Polygon", "coordinates": [ [ [ -82.555759804973661, 28.377541362877157 ], [ -82.544413842344682, 28.289795544527795 ], [ -82.643520909821163, 28.279740663010973 ], [ -82.654943537230707, 28.367449729270277 ], [ -82.555759804973661, 28.377541362877157 ] ] ] } },
{ "type": "Feature", "properties": { "ID": 24566, "date": "2022-12-04T00:00:00", "smokePM_pred": 3.3584218025207502 }, "geometry": { "type": "Polygon", "coordinates": [ [ [ -82.765626712942819, 28.444955885014249 ], [ -82.754075987536851, 28.357289241530999 ], [ -82.853156828522827, 28.34706003705622 ], [ -82.864784191439895, 28.434689383449243 ], [ -82.765626712942819, 28.444955885014249 ] ] ] } },
{ "type": "Feature", "properties": { "ID": 24567, "date": "2022-12-04T00:00:00", "smokePM_pred": 2.6617834568023699 }, "geometry": { "type": "Polygon", "coordinates": [ [ [ -82.666417446774915, 28.455153426293009 ], [ -82.654943537230707, 28.367449729270277 ], [ -82.754075987536851, 28.357289241530999 ], [ -82.765626712942819, 28.444955885014249 ], [ -82.666417446774915, 28.455153426293009 ] ] ] } },
{ "type": "Feature", "properties": { "ID": 24568, "date": "2022-12-04T00:00:00", "smokePM_pred": 3.3815665245056201 }, "geometry": { "type": "Polygon", "coordinates": [ [ [ -82.567156721264794, 28.465281869250173 ], [ -82.555759804973661, 28.377541362877157 ], [ -82.654943537230707, 28.367449729270277 ], [ -82.666417446774915, 28.455153426293009 ], [ -82.567156721264794, 28.465281869250173 ] ] ] } },
{ "type": "Feature", "properties": { "ID": 25081, "date": "2022-12-04T00:00:00", "smokePM_pred": 3.3126647472381601 }, "geometry": { "type": "Polygon", "coordinates": [ [ [ -82.777229226205378, 28.53261707672084 ], [ -82.765626712942819, 28.444955885014249 ], [ -82.864784191439895, 28.434689383449243 ], [ -82.876463669428404, 28.522313219898873 ], [ -82.777229226205378, 28.53261707672084 ] ] ] } },
{ "type": "Feature", "properties": { "ID": 25082, "date": "2022-12-04T00:00:00", "smokePM_pred": 3.18671751022339 }, "geometry": { "type": "Polygon", "coordinates": [ [ [ -82.677942815846237, 28.542851729403356 ], [ -82.666417446774915, 28.455153426293009 ], [ -82.765626712942819, 28.444955885014249 ], [ -82.777229226205378, 28.53261707672084 ], [ -82.677942815846237, 28.542851729403356 ] ] ] } },
{ "type": "Feature", "properties": { "ID": 25083, "date": "2022-12-04T00:00:00", "smokePM_pred": 3.2580595016479501 }, "geometry": { "type": "Polygon", "coordinates": [ [ [ -82.578604767644094, 28.553017039270141 ], [ -82.567156721264794, 28.465281869250173 ], [ -82.666417446774915, 28.455153426293009 ], [ -82.677942815846237, 28.542851729403356 ], [ -82.578604767644094, 28.553017039270141 ] ] ] } },
{ "type": "Feature", "properties": { "ID": 25596, "date": "2022-12-04T00:00:00", "smokePM_pred": 3.32703804969788 }, "geometry": { "type": "Polygon", "coordinates": [ [ [ -82.788883706790998, 28.620272791571956 ], [ -82.777229226205378, 28.53261707672084 ], [ -82.876463669428404, 28.522313219898873 ], [ -82.888195442912178, 28.609931521023086 ], [ -82.788883706790998, 28.620272791571956 ] ] ] } },
{ "type": "Feature", "properties": { "ID": 25597, "date": "2022-12-04T00:00:00", "smokePM_pred": 3.2797060012817401 }, "geometry": { "type": "Polygon", "coordinates": [ [ [ -82.689519822946664, 28.630544613824398 ], [ -82.677942815846237, 28.542851729403356 ], [ -82.777229226205378, 28.53261707672084 ], [ -82.788883706790998, 28.620272791571956 ], [ -82.689519822946664, 28.630544613824398 ] ] ] } },
{ "type": "Feature", "properties": { "ID": 25598, "date": "2022-12-04T00:00:00", "smokePM_pred": 2.68512964248657 }, "geometry": { "type": "Polygon", "coordinates": [ [ [ -82.590104121641929, 28.640746848460708 ], [ -82.578604767644094, 28.553017039270141 ], [ -82.677942815846237, 28.542851729403356 ], [ -82.689519822946664, 28.630544613824398 ], [ -82.590104121641929, 28.640746848460708 ] ] ] } },
{ "type": "Feature", "properties": { "ID": 26111, "date": "2022-12-04T00:00:00", "smokePM_pred": 3.2284388542175302 }, "geometry": { "type": "Polygon", "coordinates": [ [ [ -82.800590335287964, 28.707923004385368 ], [ -82.788883706790998, 28.620272791571956 ], [ -82.888195442912178, 28.609931521023086 ], [ -82.899979693441864, 28.697544261334993 ], [ -82.800590335287964, 28.707923004385368 ] ] ] } },
{ "type": "Feature", "properties": { "ID": 26112, "date": "2022-12-04T00:00:00", "smokePM_pred": 3.1644382476806601 }, "geometry": { "type": "Polygon", "coordinates": [ [ [ -82.701148647694836, 28.718232054677248 ], [ -82.689519822946664, 28.630544613824398 ], [ -82.788883706790998, 28.620272791571956 ], [ -82.800590335287964, 28.707923004385368 ], [ -82.701148647694836, 28.718232054677248 ] ] ] } },
{ "type": "Feature", "properties": { "ID": 26113, "date": "2022-12-04T00:00:00", "smokePM_pred": 3.15539622306824 }, "geometry": { "type": "Polygon", "coordinates": [ [ [ -82.601654961900024, 28.72847127224497 ], [ -82.590104121641929, 28.640746848460708 ], [ -82.689519822946664, 28.630544613824398 ], [ -82.701148647694836, 28.718232054677248 ], [ -82.601654961900024, 28.72847127224497 ] ] ] } },
{ "type": "Feature", "properties": { "ID": 26626, "date": "2022-12-04T00:00:00", "smokePM_pred": 2.9597105979919398 }, "geometry": { "type": "Polygon", "coordinates": [ [ [ -82.812349293413533, 28.795567689874702 ], [ -82.800590335287964, 28.707923004385368 ], [ -82.899979693441864, 28.697544261334993 ], [ -82.911816603702306, 28.785151415242101 ], [ -82.812349293413533, 28.795567689874702 ] ] ] } },
{ "type": "Feature", "properties": { "ID": 26627, "date": "2022-12-04T00:00:00", "smokePM_pred": 2.7837612628936799 }, "geometry": { "type": "Polygon", "coordinates": [ [ [ -82.712829470833199, 28.805914026980279 ], [ -82.701148647694836, 28.718232054677248 ], [ -82.800590335287964, 28.707923004385368 ], [ -82.812349293413533, 28.795567689874702 ], [ -82.712829470833199, 28.805914026980279 ] ] ] } },
{ "type": "Feature", "properties": { "ID": 26628, "date": "2022-12-04T00:00:00", "smokePM_pred": 3.0110132694244398 }, "geometry": { "type": "Polygon", "coordinates": [ [ [ -82.613257468178816, 28.816190285944735 ], [ -82.601654961900024, 28.72847127224497 ], [ -82.701148647694836, 28.718232054677248 ], [ -82.712829470833199, 28.805914026980279 ], [ -82.613257468178816, 28.816190285944735 ] ] ] } },
{ "type": "Feature", "properties": { "ID": 27141, "date": "2022-12-04T00:00:00", "smokePM_pred": 3.05275678634644 }, "geometry": { "type": "Polygon", "coordinates": [ [ [ -82.8241607640213, 28.883206822648475 ], [ -82.812349293413533, 28.795567689874702 ], [ -82.911816603702306, 28.785151415242101 ], [ -82.923706357519734, 28.872752957045368 ], [ -82.8241607640213, 28.883206822648475 ] ] ] } },
{ "type": "Feature", "properties": { "ID": 27142, "date": "2022-12-04T00:00:00", "smokePM_pred": 2.7957999706268302 }, "geometry": { "type": "Polygon", "coordinates": [ [ [ -82.724562474235299, 28.893590505648305 ], [ -82.712829470833199, 28.805914026980279 ], [ -82.812349293413533, 28.795567689874702 ], [ -82.8241607640213, 28.883206822648475 ], [ -82.724562474235299, 28.893590505648305 ] ] ] } },
{ "type": "Feature", "properties": { "ID": 27143, "date": "2022-12-04T00:00:00", "smokePM_pred": 2.72594165802002 }, "geometry": { "type": "Polygon", "coordinates": [ [ [ -82.624911821364506, 28.903903864779693 ], [ -82.613257468178816, 28.816190285944735 ], [ -82.712829470833199, 28.805914026980279 ], [ -82.724562474235299, 28.893590505648305 ], [ -82.624911821364506, 28.903903864779693 ] ] ] } },
{ "type": "Feature", "properties": { "ID": 27656, "date": "2022-12-04T00:00:00", "smokePM_pred": 3.3285043239593501 }, "geometry": { "type": "Polygon", "coordinates": [ [ [ -82.836024931108497, 28.970840377209377 ], [ -82.8241607640213, 28.883206822648475 ], [ -82.923706357519734, 28.872752957045368 ], [ -82.935649139869199, 28.960348860938424 ], [ -82.836024931108497, 28.970840377209377 ] ] ] } },
{ "type": "Feature", "properties": { "ID": 27657, "date": "2022-12-04T00:00:00", "smokePM_pred": 2.9945588111877401 }, "geometry": { "type": "Polygon", "coordinates": [ [ [ -82.736347840913183, 28.981261465491688 ], [ -82.724562474235299, 28.893590505648305 ], [ -82.8241607640213, 28.883206822648475 ], [ -82.836024931108497, 28.970840377209377 ], [ -82.736347840913183, 28.981261465491688 ] ] ] } },
{ "type": "Feature", "properties": { "ID": 27658, "date": "2022-12-04T00:00:00", "smokePM_pred": 2.2350988388061501 }, "geometry": { "type": "Polygon", "coordinates": [ [ [ -82.636618203476502, 28.991611983866569 ], [ -82.624911821364506, 28.903903864779693 ], [ -82.724562474235299, 28.893590505648305 ], [ -82.736347840913183, 28.981261465491688 ], [ -82.636618203476502, 28.991611983866569 ] ] ] } },
{ "type": "Feature", "properties": { "ID": 28169, "date": "2022-12-04T00:00:00", "smokePM_pred": 3.08594846725464 }, "geometry": { "type": "Polygon", "coordinates": [ [ [ -83.047294892177419, 29.037339343759381 ], [ -83.035220134160511, 28.949787059403135 ], [ -83.134737582111455, 28.939155116128404 ], [ -83.146890912858083, 29.026669200399184 ], [ -83.047294892177419, 29.037339343759381 ] ] ] } },
{ "type": "Feature", "properties": { "ID": 28170, "date": "2022-12-04T00:00:00", "smokePM_pred": 3.3883159160614 }, "geometry": { "type": "Polygon", "coordinates": [ [ [ -82.94764513688196, 29.047939101006669 ], [ -82.935649139869199, 28.960348860938424 ], [ -83.035220134160511, 28.949787059403135 ], [ -83.047294892177419, 29.037339343759381 ], [ -82.94764513688196, 29.047939101006669 ] ] ] } },
{ "type": "Feature", "properties": { "ID": 28171, "date": "2022-12-04T00:00:00", "smokePM_pred": 3.2498078346252401 }, "geometry": { "type": "Polygon", "coordinates": [ [ [ -82.847941979823375, 29.058468327953321 ], [ -82.836024931108497, 28.970840377209377 ], [ -82.935649139869199, 28.960348860938424 ], [ -82.94764513688196, 29.047939101006669 ], [ -82.847941979823375, 29.058468327953321 ] ] ] } },
{ "type": "Feature", "properties": { "ID": 28172, "date": "2022-12-04T00:00:00", "smokePM_pred": 2.8780517578125 }, "geometry": { "type": "Polygon", "coordinates": [ [ [ -82.748185755024622, 29.068926881215535 ], [ -82.736347840913183, 28.981261465491688 ], [ -82.836024931108497, 28.970840377209377 ], [ -82.847941979823375, 29.058468327953321 ], [ -82.748185755024622, 29.068926881215535 ] ] ] } },
{ "type": "Feature", "properties": { "ID": 28683, "date": "2022-12-04T00:00:00", "smokePM_pred": 3.52264451980591 }, "geometry": { "type": "Polygon", "coordinates": [ [ [ -83.159098310091707, 29.114177473256756 ], [ -83.146890912858083, 29.026669200399184 ], [ -83.246432867248714, 29.015928815912648 ], [ -83.258718978459171, 29.103398583737839 ], [ -83.159098310091707, 29.114177473256756 ] ] ] } },
{ "type": "Feature", "properties": { "ID": 28684, "date": "2022-12-04T00:00:00", "smokePM_pred": 3.1133675575256299 }, "geometry": { "type": "Polygon", "coordinates": [ [ [ -83.059423385005189, 29.124885877638022 ], [ -83.047294892177419, 29.037339343759381 ], [ -83.146890912858083, 29.026669200399184 ], [ -83.159098310091707, 29.114177473256756 ], [ -83.059423385005189, 29.124885877638022 ] ] ] } },
{ "type": "Feature", "properties": { "ID": 28685, "date": "2022-12-04T00:00:00", "smokePM_pred": 3.11688327789307 }, "geometry": { "type": "Polygon", "coordinates": [ [ [ -82.959694535853046, 29.135523651226357 ], [ -82.94764513688196, 29.047939101006669 ], [ -83.047294892177419, 29.037339343759381 ], [ -83.059423385005189, 29.124885877638022 ], [ -82.959694535853046, 29.135523651226357 ] ] ] } },
{ "type": "Feature", "properties": { "ID": 28686, "date": "2022-12-04T00:00:00", "smokePM_pred": 3.3424942493438698 }, "geometry": { "type": "Polygon", "coordinates": [ [ [ -82.859912096472769, 29.146090649168624 ], [ -82.847941979823375, 29.058468327953321 ], [ -82.94764513688196, 29.047939101006669 ], [ -82.959694535853046, 29.135523651226357 ], [ -82.859912096472769, 29.146090649168624 ] ] ] } },
{ "type": "Feature", "properties": { "ID": 28687, "date": "2022-12-04T00:00:00", "smokePM_pred": 2.70554852485657 }, "geometry": { "type": "Polygon", "coordinates": [ [ [ -82.76007640188071, 29.156586727418851 ], [ -82.748185755024622, 29.068926881215535 ], [ -82.847941979823375, 29.058468327953321 ], [ -82.859912096472769, 29.146090649168624 ], [ -82.76007640188071, 29.156586727418851 ] ] ] } },
{ "type": "Feature", "properties": { "ID": 29198, "date": "2022-12-04T00:00:00", "smokePM_pred": 3.3310620784759499 }, "geometry": { "type": "Polygon", "coordinates": [ [ [ -83.171359964242555, 29.201679907936434 ], [ -83.159098310091707, 29.114177473256756 ], [ -83.258718978459171, 29.103398583737839 ], [ -83.271059678051927, 29.190862451828171 ], [ -83.171359964242555, 29.201679907936434 ] ] ] } },
{ "type": "Feature", "properties": { "ID": 29199, "date": "2022-12-04T00:00:00", "smokePM_pred": 3.0718047618865998 }, "geometry": { "type": "Polygon", "coordinates": [ [ [ -83.071605802095931, 29.212426634590543 ], [ -83.059423385005189, 29.124885877638022 ], [ -83.159098310091707, 29.114177473256756 ], [ -83.171359964242555, 29.201679907936434 ], [ -83.071605802095931, 29.212426634590543 ] ] ] } },
{ "type": "Feature", "properties": { "ID": 29200, "date": "2022-12-04T00:00:00", "smokePM_pred": 2.4799928665161102 }, "geometry": { "type": "Polygon", "coordinates": [ [ [ -82.971797525248775, 29.223102485463851 ], [ -82.959694535853046, 29.135523651226357 ], [ -83.059423385005189, 29.124885877638022 ], [ -83.071605802095931, 29.212426634590543 ], [ -82.971797525248775, 29.223102485463851 ] ] ] } },
{ "type": "Feature", "properties": { "ID": 29201, "date": "2022-12-04T00:00:00", "smokePM_pred": 2.6081833839416499 }, "geometry": { "type": "Polygon", "coordinates": [ [ [ -82.871935468529543, 29.23370731503514 ], [ -82.859912096472769, 29.146090649168624 ], [ -82.959694535853046, 29.135523651226357 ], [ -82.971797525248775, 29.223102485463851 ], [ -82.871935468529543, 29.23370731503514 ] ] ] } },
{ "type": "Feature", "properties": { "ID": 29712, "date": "2022-12-04T00:00:00", "smokePM_pred": 3.3910751342773402 }, "geometry": { "type": "Polygon", "coordinates": [ [ [ -83.283455158622061, 29.278320392986032 ], [ -83.271059678051927, 29.190862451828171 ], [ -83.370704611084292, 29.179974413392781 ], [ -83.383179275741199, 29.267393482139607 ], [ -83.283455158622061, 29.278320392986032 ] ] ] } },
{ "type": "Feature", "properties": { "ID": 29713, "date": "2022-12-04T00:00:00", "smokePM_pred": 3.3013076782226598 }, "geometry": { "type": "Polygon", "coordinates": [ [ [ -83.183676066930133, 29.289176477559607 ], [ -83.171359964242555, 29.201679907936434 ], [ -83.271059678051927, 29.190862451828171 ], [ -83.283455158622061, 29.278320392986032 ], [ -83.183676066930133, 29.289176477559607 ] ] ] } },
{ "type": "Feature", "properties": { "ID": 29714, "date": "2022-12-04T00:00:00", "smokePM_pred": 3.13142037391663 }, "geometry": { "type": "Polygon", "coordinates": [ [ [ -83.083842334085844, 29.299961588056021 ], [ -83.071605802095931, 29.212426634590543 ], [ -83.171359964242555, 29.201679907936434 ], [ -83.183676066930133, 29.289176477559607 ], [ -83.083842334085844, 29.299961588056021 ] ] ] } },
{ "type": "Feature", "properties": { "ID": 37926, "date": "2022-12-04T00:00:00", "smokePM_pred": 1.7575442790985101 }, "geometry": { "type": "Polygon", "coordinates": [ [ [ -86.096429958468974, 30.352502482027294 ], [ -86.08100319659745, 30.266259624097259 ], [ -86.18032874928609, 30.252862573788502 ], [ -86.195834219170322, 30.339059309991097 ], [ -86.096429958468974, 30.352502482027294 ] ] ] } },
{ "type": "Feature", "properties": { "ID": 37927, "date": "2022-12-04T00:00:00", "smokePM_pred": 1.7286399602889999 }, "geometry": { "type": "Polygon", "coordinates": [ [ [ -85.996958843323739, 30.365875298787476 ], [ -85.981611028099252, 30.279586548245902 ], [ -86.08100319659745, 30.266259624097259 ], [ -86.096429958468974, 30.352502482027294 ], [ -85.996958843323739, 30.365875298787476 ] ] ] } },
{ "type": "Feature", "properties": { "ID": 38441, "date": "2022-12-04T00:00:00", "smokePM_pred": 2.1243102550506601 }, "geometry": { "type": "Polygon", "coordinates": [ [ [ -86.11192357502766, 30.438737070519579 ], [ -86.096429958468974, 30.352502482027294 ], [ -86.195834219170322, 30.339059309991097 ], [ -86.211406855601453, 30.425247701492506 ], [ -86.11192357502766, 30.438737070519579 ] ] ] } },
{ "type": "Feature", "properties": { "ID": 38442, "date": "2022-12-04T00:00:00", "smokePM_pred": 2.2748353481292698 }, "geometry": { "type": "Polygon", "coordinates": [ [ [ -86.012373199916127, 30.452155854909357 ], [ -85.996958843323739, 30.365875298787476 ], [ -86.096429958468974, 30.352502482027294 ], [ -86.11192357502766, 30.438737070519579 ], [ -86.012373199916127, 30.452155854909357 ] ] ] } },
{ "type": "Feature", "properties": { "ID": 38443, "date": "2022-12-04T00:00:00", "smokePM_pred": 2.1005101203918501 }, "geometry": { "type": "Polygon", "coordinates": [ [ [ -85.912756044416128, 30.465503874584702 ], [ -85.897421187053268, 30.379177580996284 ], [ -85.996958843323739, 30.365875298787476 ], [ -86.012373199916127, 30.452155854909357 ], [ -85.912756044416128, 30.465503874584702 ] ] ] } },
{ "type": "Feature", "properties": { "ID": 38955, "date": "2022-12-04T00:00:00", "smokePM_pred": 2.0431048870086701 }, "geometry": { "type": "Polygon", "coordinates": [ [ [ -86.227046899496102, 30.511427709013955 ], [ -86.211406855601453, 30.425247701492506 ], [ -86.31082272895712, 30.411687928607247 ], [ -86.326541863017908, 30.497821434697663 ], [ -86.227046899496102, 30.511427709013955 ] ] ] } },
{ "type": "Feature", "properties": { "ID": 38956, "date": "2022-12-04T00:00:00", "smokePM_pred": 2.07491111755371 }, "geometry": { "type": "Polygon", "coordinates": [ [ [ -86.127484286368855, 30.524963350672124 ], [ -86.11192357502766, 30.438737070519579 ], [ -86.211406855601453, 30.425247701492506 ], [ -86.227046899496102, 30.511427709013955 ], [ -86.127484286368855, 30.524963350672124 ] ] ] } },
{ "type": "Feature", "properties": { "ID": 38957, "date": "2022-12-04T00:00:00", "smokePM_pred": 2.1083519458770801 }, "geometry": { "type": "Polygon", "coordinates": [ [ [ -86.027854337141221, 30.538428178085599 ], [ -86.012373199916127, 30.452155854909357 ], [ -86.11192357502766, 30.438737070519579 ], [ -86.127484286368855, 30.524963350672124 ], [ -86.027854337141221, 30.538428178085599 ] ] ] } },
{ "type": "Feature", "properties": { "ID": 38958, "date": "2022-12-04T00:00:00", "smokePM_pred": 2.26328778266907 }, "geometry": { "type": "Polygon", "coordinates": [ [ [ -85.928157366796484, 30.551822010372284 ], [ -85.912756044416128, 30.465503874584702 ], [ -86.012373199916127, 30.452155854909357 ], [ -86.027854337141221, 30.538428178085599 ], [ -85.928157366796484, 30.551822010372284 ] ] ] } },
{ "type": "Feature", "properties": { "ID": 39470, "date": "2022-12-04T00:00:00", "smokePM_pred": 2.6808891296386701 }, "geometry": { "type": "Polygon", "coordinates": [ [ [ -86.242754593243177, 30.597599293094845 ], [ -86.227046899496102, 30.511427709013955 ], [ -86.326541863017908, 30.497821434697663 ], [ -86.342328958955036, 30.583946441085029 ], [ -86.242754593243177, 30.597599293094845 ] ] ] } },
{ "type": "Feature", "properties": { "ID": 39471, "date": "2022-12-04T00:00:00", "smokePM_pred": 2.7263240814209002 }, "geometry": { "type": "Polygon", "coordinates": [ [ [ -86.143112334056866, 30.611181283402885 ], [ -86.127484286368855, 30.524963350672124 ], [ -86.227046899496102, 30.511427709013955 ], [ -86.242754593243177, 30.597599293094845 ], [ -86.143112334056866, 30.611181283402885 ] ] ] } },
{ "type": "Feature", "properties": { "ID": 39472, "date": "2022-12-04T00:00:00", "smokePM_pred": 2.6424269676208501 }, "geometry": { "type": "Polygon", "coordinates": [ [ [ -86.043402495729183, 30.624692229611973 ], [ -86.027854337141221, 30.538428178085599 ], [ -86.127484286368855, 30.524963350672124 ], [ -86.143112334056866, 30.611181283402885 ], [ -86.043402495729183, 30.624692229611973 ] ] ] } },
{ "type": "Feature", "properties": { "ID": 39985, "date": "2022-12-04T00:00:00", "smokePM_pred": 2.5497190952300999 }, "geometry": { "type": "Polygon", "coordinates": [ [ [ -86.258530180713251, 30.683762414091238 ], [ -86.242754593243177, 30.597599293094845 ], [ -86.342328958955036, 30.583946441085029 ], [ -86.358184261457566, 30.670062907744306 ], [ -86.258530180713251, 30.683762414091238 ] ] ] } },
{ "type": "Feature", "properties": { "ID": 39986, "date": "2022-12-04T00:00:00", "smokePM_pred": 2.6545641422271702 }, "geometry": { "type": "Polygon", "coordinates": [ [ [ -86.158807961134201, 30.697390829448285 ], [ -86.143112334056866, 30.611181283402885 ], [ -86.242754593243177, 30.597599293094845 ], [ -86.258530180713251, 30.683762414091238 ], [ -86.158807961134201, 30.697390829448285 ] ] ] } }
]
}
