{
"type": "FeatureCollection",
"name": "geo_2022-12-05",
"crs": { "type": "name", "properties": { "name": "urn:ogc:def:crs:OGC:1.3:CRS84" } },
"features": [
{ "type": "Feature", "properties": { "ID": 10166, "date": "2022-12-05T00:00:00", "smokePM_pred": 4.3149771690368697 }, "geometry": { "type": "Polygon", "coordinates": [ [ [ -80.509015832661007, 26.159950740018157 ], [ -80.500233859411054, 26.07147573812717 ], [ -80.598180275198445, 26.063530793706168 ], [ -80.607032926105006, 26.151974827455483 ], [ -80.509015832661007, 26.159950740018157 ] ] ] } },
{ "type": "Feature", "properties": { "ID": 10167, "date": "2022-12-05T00:00:00", "smokePM_pred": 2.7784874439239502 }, "geometry": { "type": "Polygon", "coordinates": [ [ [ -80.410957786709105, 26.167862119123747 ], [ -80.40224662339989, 26.079356395595951 ], [ -80.500233859411054, 26.07147573812717 ], [ -80.509015832661007, 26.159950740018157 ], [ -80.410957786709105, 26.167862119123747 ] ] ] } },
{ "type": "Feature", "properties": { "ID": 10678, "date": "2022-12-05T00:00:00", "smokePM_pred": 2.7466073036193799 }, "geometry": { "type": "Polygon", "coordinates": [ [ [ -80.811978491890827, 26.224207213884963 ], [ -80.802942975513318, 26.135829830904601 ], [ -80.900835293611394, 26.127660963311961 ], [ -80.909941402904209, 26.216006596313939 ], [ -80.811978491890827, 26.224207213884963 ] ] ] } },
{ "type": "Feature", "properties": { "ID": 10679, "date": "2022-12-05T00:00:00", "smokePM_pred": 3.6265947818756099 }, "geometry": { "type": "Polygon", "coordinates": [ [ [ -80.713973534398676, 26.232343376183021 ], [ -80.705008746841472, 26.14393448847952 ], [ -80.802942975513318, 26.135829830904601 ], [ -80.811978491890827, 26.224207213884963 ], [ -80.713973534398676, 26.232343376183021 ] ] ] } },
{ "type": "Feature", "properties": { "ID": 10680, "date": "2022-12-05T00:00:00", "smokePM_pred": 3.6204016208648699 }, "geometry": { "type": "Polygon", "coordinates": [ [ [ -80.61592684985952, 26.240414974104812 ], [ -80.607032926105006, 26.151974827455483 ], [ -80.705008746841472, 26.14393448847952 ], [ -80.713973534398676, 26.232343376183021 ], [ -80.61592684985952, 26.240414974104812 ] ] ] } },
{ "type": "Feature", "properties": { "ID": 10681, "date": "2022-12-05T00:00:00", "smokePM_pred": 5.1544008255004901 }, "geometry": { "type": "Polygon", "coordinates": [ [ [ -80.517838758558398, 26.248421899317414 ], [ -80.509015832661007, 26.159950740018157 ], [ -80.607032926105006, 26.151974827455483 ], [ -80.61592684985952, 26.240414974104812 ], [ -80.517838758558398, 26.248421899317414 ] ] ] } },
{ "type": "Feature", "properties": { "ID": 10682, "date": "2022-12-05T00:00:00", "smokePM_pred": 4.92000532150269 }, "geometry": { "type": "Polygon", "coordinates": [ [ [ -80.419709581628027, 26.256364044261886 ], [ -80.410957786709105, 26.167862119123747 ], [ -80.509015832661007, 26.159950740018157 ], [ -80.517838758558398, 26.248421899317414 ], [ -80.419709581628027, 26.256364044261886 ] ] ] } },
{ "type": "Feature", "properties": { "ID": 10683, "date": "2022-12-05T00:00:00", "smokePM_pred": 4.3979821205139196 }, "geometry": { "type": "Polygon", "coordinates": [ [ [ -80.321539641043614, 26.264241302156989 ], [ -80.312859109286165, 26.175708858502627 ], [ -80.410957786709105, 26.167862119123747 ], [ -80.419709581628027, 26.256364044261886 ], [ -80.321539641043614, 26.264241302156989 ] ] ] } },
{ "type": "Feature", "properties": { "ID": 11192, "date": "2022-12-05T00:00:00", "smokePM_pred": 3.9065887928009002 }, "geometry": { "type": "Polygon", "coordinates": [ [ [ -80.919089877393091, 26.304348188466466 ], [ -80.909941402904209, 26.216006596313939 ], [ -81.007861948865468, 26.207741633339893 ], [ -81.017081197157779, 26.296051184825028 ], [ -80.919089877393091, 26.304348188466466 ] ] ] } },
{ "type": "Feature", "properties": { "ID": 11193, "date": "2022-12-05T00:00:00", "smokePM_pred": 3.31142926216125 }, "geometry": { "type": "Polygon", "coordinates": [ [ [ -80.821056054890207, 26.312580601675119 ], [ -80.811978491890827, 26.224207213884963 ], [ -80.909941402904209, 26.216006596313939 ], [ -80.919089877393091, 26.304348188466466 ], [ -80.821056054890207, 26.312580601675119 ] ] ] } },
{ "type": "Feature", "properties": { "ID": 11194, "date": "2022-12-05T00:00:00", "smokePM_pred": 4.3238935470581099 }, "geometry": { "type": "Polygon", "coordinates": [ [ [ -80.722980049145036, 26.320748314053606 ], [ -80.713973534398676, 26.232343376183021 ], [ -80.811978491890827, 26.224207213884963 ], [ -80.821056054890207, 26.312580601675119 ], [ -80.722980049145036, 26.320748314053606 ] ] ] } },
{ "type": "Feature", "properties": { "ID": 11195, "date": "2022-12-05T00:00:00", "smokePM_pred": 3.9956111907959002 }, "geometry": { "type": "Polygon", "coordinates": [ [ [ -80.624862180517354, 26.328851215974666 ], [ -80.61592684985952, 26.240414974104812 ], [ -80.713973534398676, 26.232343376183021 ], [ -80.722980049145036, 26.320748314053606 ], [ -80.624862180517354, 26.328851215974666 ] ] ] } },
{ "type": "Feature", "properties": { "ID": 11196, "date": "2022-12-05T00:00:00", "smokePM_pred": 5.5209259986877397 }, "geometry": { "type": "Polygon", "coordinates": [ [ [ -80.526702770225398, 26.336889198584817 ], [ -80.517838758558398, 26.248421899317414 ], [ -80.61592684985952, 26.240414974104812 ], [ -80.624862180517354, 26.328851215974666 ], [ -80.526702770225398, 26.336889198584817 ] ] ] } },
{ "type": "Feature", "properties": { "ID": 11197, "date": "2022-12-05T00:00:00", "smokePM_pred": 5.4448895454406703 }, "geometry": { "type": "Polygon", "coordinates": [ [ [ -80.42850214034047, 26.344862153808137 ], [ -80.419709581628027, 26.256364044261886 ], [ -80.517838758558398, 26.248421899317414 ], [ -80.526702770225398, 26.336889198584817 ], [ -80.42850214034047, 26.344862153808137 ] ] ] } },
{ "type": "Feature", "properties": { "ID": 11198, "date": "2022-12-05T00:00:00", "smokePM_pred": 4.9372644424438503 }, "geometry": { "type": "Polygon", "coordinates": [ [ [ -80.330260613781576, 26.352769974349894 ], [ -80.321539641043614, 26.264241302156989 ], [ -80.419709581628027, 26.256364044261886 ], [ -80.42850214034047, 26.344862153808137 ], [ -80.330260613781576, 26.352769974349894 ] ] ] } },
{ "type": "Feature", "properties": { "ID": 11707, "date": "2022-12-05T00:00:00", "smokePM_pred": 3.3580267429351802 }, "geometry": { "type": "Polygon", "coordinates": [ [ [ -80.928280854765063, 26.39268572129879 ], [ -80.919089877393091, 26.304348188466466 ], [ -81.017081197157779, 26.296051184825028 ], [ -81.026343266960893, 26.384356630784282 ], [ -80.928280854765063, 26.39268572129879 ] ] ] } },
{ "type": "Feature", "properties": { "ID": 11708, "date": "2022-12-05T00:00:00", "smokePM_pred": 4.1472606658935502 }, "geometry": { "type": "Polygon", "coordinates": [ [ [ -80.830175801275814, 26.400949976049269 ], [ -80.821056054890207, 26.312580601675119 ], [ -80.919089877393091, 26.304348188466466 ], [ -80.928280854765063, 26.39268572129879 ], [ -80.830175801275814, 26.400949976049269 ] ] ] } },
{ "type": "Feature", "properties": { "ID": 11709, "date": "2022-12-05T00:00:00", "smokePM_pred": 4.4737491607665998 }, "geometry": { "type": "Polygon", "coordinates": [ [ [ -80.732028426916983, 26.40914928410897 ], [ -80.722980049145036, 26.320748314053606 ], [ -80.821056054890207, 26.312580601675119 ], [ -80.830175801275814, 26.400949976049269 ], [ -80.732028426916983, 26.40914928410897 ] ] ] } },
{ "type": "Feature", "properties": { "ID": 11710, "date": "2022-12-05T00:00:00", "smokePM_pred": 4.4615335464477504 }, "geometry": { "type": "Polygon", "coordinates": [ [ [ -80.633839052981628, 26.417283535324696 ], [ -80.624862180517354, 26.328851215974666 ], [ -80.722980049145036, 26.320748314053606 ], [ -80.732028426916983, 26.40914928410897 ], [ -80.633839052981628, 26.417283535324696 ] ] ] } },
{ "type": "Feature", "properties": { "ID": 11711, "date": "2022-12-05T00:00:00", "smokePM_pred": 5.4307322502136204 }, "geometry": { "type": "Polygon", "coordinates": [ [ [ -80.535608001626642, 26.425352620320563 ], [ -80.526702770225398, 26.336889198584817 ], [ -80.624862180517354, 26.328851215974666 ], [ -80.633839052981628, 26.417283535324696 ], [ -80.535608001626642, 26.425352620320563 ] ] ] } },
{ "type": "Feature", "properties": { "ID": 11712, "date": "2022-12-05T00:00:00", "smokePM_pred": 5.7838020324706996 }, "geometry": { "type": "Polygon", "coordinates": [ [ [ -80.437335595867296, 26.433356430501696 ], [ -80.42850214034047, 26.344862153808137 ], [ -80.526702770225398, 26.336889198584817 ], [ -80.535608001626642, 26.425352620320563 ], [ -80.437335595867296, 26.433356430501696 ] ] ] } },
{ "type": "Feature", "properties": { "ID": 11713, "date": "2022-12-05T00:00:00", "smokePM_pred": 5.3210010528564498 }, "geometry": { "type": "Polygon", "coordinates": [ [ [ -80.339022159571826, 26.441294858057979 ], [ -80.330260613781576, 26.352769974349894 ], [ -80.42850214034047, 26.344862153808137 ], [ -80.437335595867296, 26.433356430501696 ], [ -80.339022159571826, 26.441294858057979 ] ] ] } },
{ "type": "Feature", "properties": { "ID": 12221, "date": "2022-12-05T00:00:00", "smokePM_pred": 3.3870918750762899 }, "geometry": { "type": "Polygon", "coordinates": [ [ [ -81.035648297753397, 26.472657952434687 ], [ -81.026343266960893, 26.384356630784282 ], [ -81.124362718313932, 26.375962816202261 ], [ -81.133739020730275, 26.464231759426951 ], [ -81.035648297753397, 26.472657952434687 ] ] ] } },
{ "type": "Feature", "properties": { "ID": 12222, "date": "2022-12-05T00:00:00", "smokePM_pred": 3.96877789497375 }, "geometry": { "type": "Polygon", "coordinates": [ [ [ -80.937514473576215, 26.481019176275495 ], [ -80.928280854765063, 26.39268572129879 ], [ -81.026343266960893, 26.384356630784282 ], [ -81.035648297753397, 26.472657952434687 ], [ -80.937514473576215, 26.481019176275495 ] ] ] } },
{ "type": "Feature", "properties": { "ID": 12223, "date": "2022-12-05T00:00:00", "smokePM_pred": 5.8945631980895996 }, "geometry": { "type": "Polygon", "coordinates": [ [ [ -80.839337868675869, 26.489315318718081 ], [ -80.830175801275814, 26.400949976049269 ], [ -80.928280854765063, 26.39268572129879 ], [ -80.937514473576215, 26.481019176275495 ], [ -80.839337868675869, 26.489315318718081 ] ] ] } },
{ "type": "Feature", "properties": { "ID": 12224, "date": "2022-12-05T00:00:00", "smokePM_pred": 5.3831620216369602 }, "geometry": { "type": "Polygon", "coordinates": [ [ [ -80.741118804409425, 26.497546268304369 ], [ -80.732028426916983, 26.40914928410897 ], [ -80.830175801275814, 26.400949976049269 ], [ -80.839337868675869, 26.489315318718081 ], [ -80.741118804409425, 26.497546268304369 ] ] ] } },
{ "type": "Feature", "properties": { "ID": 12225, "date": "2022-12-05T00:00:00", "smokePM_pred": 9.0458936691284197 }, "geometry": { "type": "Polygon", "coordinates": [ [ [ -80.642857603008622, 26.505711914353306 ], [ -80.633839052981628, 26.417283535324696 ], [ -80.732028426916983, 26.40914928410897 ], [ -80.741118804409425, 26.497546268304369 ], [ -80.642857603008622, 26.505711914353306 ] ] ] } },
{ "type": "Feature", "properties": { "ID": 12226, "date": "2022-12-05T00:00:00", "smokePM_pred": 7.4267873764038104 }, "geometry": { "type": "Polygon", "coordinates": [ [ [ -80.544554587574396, 26.513812146964643 ], [ -80.535608001626642, 26.425352620320563 ], [ -80.633839052981628, 26.417283535324696 ], [ -80.642857603008622, 26.505711914353306 ], [ -80.544554587574396, 26.513812146964643 ] ] ] } },
{ "type": "Feature", "properties": { "ID": 12227, "date": "2022-12-05T00:00:00", "smokePM_pred": 6.05407762527466 }, "geometry": { "type": "Polygon", "coordinates": [ [ [ -80.44621008207146, 26.521846857022666 ], [ -80.437335595867296, 26.433356430501696 ], [ -80.535608001626642, 26.425352620320563 ], [ -80.544554587574396, 26.513812146964643 ], [ -80.44621008207146, 26.521846857022666 ] ] ] } },
{ "type": "Feature", "properties": { "ID": 12228, "date": "2022-12-05T00:00:00", "smokePM_pred": 6.3982009887695304 }, "geometry": { "type": "Polygon", "coordinates": [ [ [ -80.347824411322847, 26.529815936199952 ], [ -80.339022159571826, 26.441294858057979 ], [ -80.437335595867296, 26.433356430501696 ], [ -80.44621008207146, 26.521846857022666 ], [ -80.347824411322847, 26.529815936199952 ] ] ] } },
{ "type": "Feature", "properties": { "ID": 12735, "date": "2022-12-05T00:00:00", "smokePM_pred": 3.93470311164856 }, "geometry": { "type": "Polygon", "coordinates": [ [ [ -81.143158744087174, 26.552496512489157 ], [ -81.133739020730275, 26.464231759426951 ], [ -81.231786322915013, 26.455740710253011 ], [ -81.241277495318087, 26.543972793023485 ], [ -81.143158744087174, 26.552496512489157 ] ] ] } },
{ "type": "Feature", "properties": { "ID": 12736, "date": "2022-12-05T00:00:00", "smokePM_pred": 4.5220179557800302 }, "geometry": { "type": "Polygon", "coordinates": [ [ [ -81.044996429893757, 26.560955130926942 ], [ -81.035648297753397, 26.472657952434687 ], [ -81.133739020730275, 26.464231759426951 ], [ -81.143158744087174, 26.552496512489157 ], [ -81.044996429893757, 26.560955130926942 ] ] ] } },
{ "type": "Feature", "properties": { "ID": 12737, "date": "2022-12-05T00:00:00", "smokePM_pred": 4.3906097412109402 }, "geometry": { "type": "Polygon", "coordinates": [ [ [ -80.946790873257214, 26.569348534795946 ], [ -80.937514473576215, 26.481019176275495 ], [ -81.035648297753397, 26.472657952434687 ], [ -81.044996429893757, 26.560955130926942 ], [ -80.946790873257214, 26.569348534795946 ] ] ] } },
{ "type": "Feature", "properties": { "ID": 12738, "date": "2022-12-05T00:00:00", "smokePM_pred": 9.5361576080322301 }, "geometry": { "type": "Polygon", "coordinates": [ [ [ -80.848542395587771, 26.57767661132813 ], [ -80.839337868675869, 26.489315318718081 ], [ -80.937514473576215, 26.481019176275495 ], [ -80.946790873257214, 26.569348534795946 ], [ -80.848542395587771, 26.57767661132813 ] ] ] } },
{ "type": "Feature", "properties": { "ID": 12739, "date": "2022-12-05T00:00:00", "smokePM_pred": 8.1416921615600604 }, "geometry": { "type": "Polygon", "coordinates": [ [ [ -80.750251319181103, 26.585939248532121 ], [ -80.741118804409425, 26.497546268304369 ], [ -80.839337868675869, 26.489315318718081 ], [ -80.848542395587771, 26.57767661132813 ], [ -80.750251319181103, 26.585939248532121 ] ] ] } },
{ "type": "Feature", "properties": { "ID": 12740, "date": "2022-12-05T00:00:00", "smokePM_pred": 8.1837720870971697 }, "geometry": { "type": "Polygon", "coordinates": [ [ [ -80.651917967213009, 26.594136335197042 ], [ -80.642857603008622, 26.505711914353306 ], [ -80.741118804409425, 26.497546268304369 ], [ -80.750251319181103, 26.585939248532121 ], [ -80.651917967213009, 26.594136335197042 ] ] ] } },
{ "type": "Feature", "properties": { "ID": 12741, "date": "2022-12-05T00:00:00", "smokePM_pred": 12.079145431518601 }, "geometry": { "type": "Polygon", "coordinates": [ [ [ -80.553542663733907, 26.60226776089635 ], [ -80.544554587574396, 26.513812146964643 ], [ -80.642857603008622, 26.505711914353306 ], [ -80.651917967213009, 26.594136335197042 ], [ -80.553542663733907, 26.60226776089635 ] ] ] } },
{ "type": "Feature", "properties": { "ID": 12742, "date": "2022-12-05T00:00:00", "smokePM_pred": 10.767068862915 }, "geometry": { "type": "Polygon", "coordinates": [ [ [ -80.455125733663451, 26.610333415991551 ], [ -80.44621008207146, 26.521846857022666 ], [ -80.544554587574396, 26.513812146964643 ], [ -80.553542663733907, 26.60226776089635 ], [ -80.455125733663451, 26.610333415991551 ] ] ] } },
{ "type": "Feature", "properties": { "ID": 12743, "date": "2022-12-05T00:00:00", "smokePM_pred": 8.1211605072021502 }, "geometry": { "type": "Polygon", "coordinates": [ [ [ -80.356667502784958, 26.618333191635987 ], [ -80.347824411322847, 26.529815936199952 ], [ -80.44621008207146, 26.521846857022666 ], [ -80.455125733663451, 26.610333415991551 ], [ -80.356667502784958, 26.618333191635987 ] ] ] } },
{ "type": "Feature", "properties": { "ID": 13250, "date": "2022-12-05T00:00:00", "smokePM_pred": 4.5617322921752903 }, "geometry": { "type": "Polygon", "coordinates": [ [ [ -81.152622030555946, 26.640757056221371 ], [ -81.143158744087174, 26.552496512489157 ], [ -81.241277495318087, 26.543972793023485 ], [ -81.250812550457184, 26.632200618906467 ], [ -81.152622030555946, 26.640757056221371 ] ] ] } },
{ "type": "Feature", "properties": { "ID": 13251, "date": "2022-12-05T00:00:00", "smokePM_pred": 4.2566089630126998 }, "geometry": { "type": "Polygon", "coordinates": [ [ [ -81.054387804625676, 26.649248147344842 ], [ -81.044996429893757, 26.560955130926942 ], [ -81.143158744087174, 26.552496512489157 ], [ -81.152622030555946, 26.640757056221371 ], [ -81.054387804625676, 26.649248147344842 ] ] ] } },
{ "type": "Feature", "properties": { "ID": 13252, "date": "2022-12-05T00:00:00", "smokePM_pred": 8.9119892120361293 }, "geometry": { "type": "Polygon", "coordinates": [ [ [ -80.956110194118679, 26.657673778193775 ], [ -80.946790873257214, 26.569348534795946 ], [ -81.044996429893757, 26.560955130926942 ], [ -81.054387804625676, 26.649248147344842 ], [ -80.956110194118679, 26.657673778193775 ] ] ] } },
{ "type": "Feature", "properties": { "ID": 13253, "date": "2022-12-05T00:00:00", "smokePM_pred": 8.2191343307495099 }, "geometry": { "type": "Polygon", "coordinates": [ [ [ -80.85778952138358, 26.666033835461391 ], [ -80.848542395587771, 26.57767661132813 ], [ -80.946790873257214, 26.569348534795946 ], [ -80.956110194118679, 26.657673778193775 ], [ -80.85778952138358, 26.666033835461391 ] ] ] } },
{ "type": "Feature", "properties": { "ID": 13254, "date": "2022-12-05T00:00:00", "smokePM_pred": 9.7259778976440394 }, "geometry": { "type": "Polygon", "coordinates": [ [ [ -80.759426109660012, 26.674328206621063 ], [ -80.750251319181103, 26.585939248532121 ], [ -80.848542395587771, 26.57767661132813 ], [ -80.85778952138358, 26.666033835461391 ], [ -80.759426109660012, 26.674328206621063 ] ] ] } },
{ "type": "Feature", "properties": { "ID": 13255, "date": "2022-12-05T00:00:00", "smokePM_pred": 6.8058714866638201 }, "geometry": { "type": "Polygon", "coordinates": [ [ [ -80.661020283073256, 26.682556779930138 ], [ -80.651917967213009, 26.594136335197042 ], [ -80.750251319181103, 26.585939248532121 ], [ -80.759426109660012, 26.674328206621063 ], [ -80.661020283073256, 26.682556779930138 ] ] ] } },
{ "type": "Feature", "properties": { "ID": 13256, "date": "2022-12-05T00:00:00", "smokePM_pred": 8.1848382949829102 }, "geometry": { "type": "Polygon", "coordinates": [ [ [ -80.562572366628714, 26.690719444433785 ], [ -80.553542663733907, 26.60226776089635 ], [ -80.651917967213009, 26.594136335197042 ], [ -80.661020283073256, 26.682556779930138 ], [ -80.562572366628714, 26.690719444433785 ] ] ] } },
{ "type": "Feature", "properties": { "ID": 13257, "date": "2022-12-05T00:00:00", "smokePM_pred": 11.2491960525513 }, "geometry": { "type": "Polygon", "coordinates": [ [ [ -80.464082686206496, 26.698816089968798 ], [ -80.455125733663451, 26.610333415991551 ], [ -80.553542663733907, 26.60226776089635 ], [ -80.562572366628714, 26.690719444433785 ], [ -80.464082686206496, 26.698816089968798 ] ] ] } },
{ "type": "Feature", "properties": { "ID": 13258, "date": "2022-12-05T00:00:00", "smokePM_pred": 3.9134328365325901 }, "geometry": { "type": "Polygon", "coordinates": [ [ [ -80.365551568555787, 26.706846607167336 ], [ -80.356667502784958, 26.618333191635987 ], [ -80.455125733663451, 26.610333415991551 ], [ -80.464082686206496, 26.698816089968798 ], [ -80.365551568555787, 26.706846607167336 ] ] ] } },
{ "type": "Feature", "properties": { "ID": 13765, "date": "2022-12-05T00:00:00", "smokePM_pred": 4.3554658889770499 }, "geometry": { "type": "Polygon", "coordinates": [ [ [ -81.162129023203988, 26.729013371387506 ], [ -81.152622030555946, 26.640757056221371 ], [ -81.250812550457184, 26.632200618906467 ], [ -81.260391632327043, 26.720424168411963 ], [ -81.162129023203988, 26.729013371387506 ] ] ] } },
{ "type": "Feature", "properties": { "ID": 13766, "date": "2022-12-05T00:00:00", "smokePM_pred": 4.01625299453735 }, "geometry": { "type": "Polygon", "coordinates": [ [ [ -81.063822564083765, 26.737536982704704 ], [ -81.054387804625676, 26.649248147344842 ], [ -81.152622030555946, 26.640757056221371 ], [ -81.162129023203988, 26.729013371387506 ], [ -81.063822564083765, 26.737536982704704 ] ] ] } },
{ "type": "Feature", "properties": { "ID": 13767, "date": "2022-12-05T00:00:00", "smokePM_pred": 6.8319621086120597 }, "geometry": { "type": "Polygon", "coordinates": [ [ [ -80.965472577356778, 26.745994887736284 ], [ -80.956110194118679, 26.657673778193775 ], [ -81.054387804625676, 26.649248147344842 ], [ -81.063822564083765, 26.737536982704704 ], [ -80.965472577356778, 26.745994887736284 ] ] ] } },
{ "type": "Feature", "properties": { "ID": 13768, "date": "2022-12-05T00:00:00", "smokePM_pred": 5.1136546134948704 }, "geometry": { "type": "Polygon", "coordinates": [ [ [ -80.867079386315453, 26.754386972634705 ], [ -80.85778952138358, 26.666033835461391 ], [ -80.956110194118679, 26.657673778193775 ], [ -80.965472577356778, 26.745994887736284 ], [ -80.867079386315453, 26.754386972634705 ] ] ] } },
{ "type": "Feature", "properties": { "ID": 13769, "date": "2022-12-05T00:00:00", "smokePM_pred": 5.8039574623107901 }, "geometry": { "type": "Polygon", "coordinates": [ [ [ -80.768643315148807, 26.762713124336059 ], [ -80.759426109660012, 26.674328206621063 ], [ -80.85778952138358, 26.666033835461391 ], [ -80.867079386315453, 26.754386972634705 ], [ -80.768643315148807, 26.762713124336059 ] ] ] } },
{ "type": "Feature", "properties": { "ID": 13770, "date": "2022-12-05T00:00:00", "smokePM_pred": 5.3945159912109402 }, "geometry": { "type": "Polygon", "coordinates": [ [ [ -80.670164688937049, 26.770973230563964 ], [ -80.661020283073256, 26.682556779930138 ], [ -80.759426109660012, 26.674328206621063 ], [ -80.768643315148807, 26.762713124336059 ], [ -80.670164688937049, 26.770973230563964 ] ] ] } },
{ "type": "Feature", "properties": { "ID": 13771, "date": "2022-12-05T00:00:00", "smokePM_pred": 7.2741279602050799 }, "geometry": { "type": "Polygon", "coordinates": [ [ [ -80.571643833646078, 26.779167179833326 ], [ -80.562572366628714, 26.690719444433785 ], [ -80.661020283073256, 26.682556779930138 ], [ -80.670164688937049, 26.770973230563964 ], [ -80.571643833646078, 26.779167179833326 ] ] ] } },
{ "type": "Feature", "properties": { "ID": 13772, "date": "2022-12-05T00:00:00", "smokePM_pred": 9.6900243759155291 }, "geometry": { "type": "Polygon", "coordinates": [ [ [ -80.473081076121957, 26.787294861454249 ], [ -80.464082686206496, 26.698816089968798 ], [ -80.562572366628714, 26.690719444433785 ], [ -80.571643833646078, 26.779167179833326 ], [ -80.473081076121957, 26.787294861454249 ] ] ] } },
{ "type": "Feature", "properties": { "ID": 13773, "date": "2022-12-05T00:00:00", "smokePM_pred": 5.0735197067260698 }, "geometry": { "type": "Polygon", "coordinates": [ [ [ -80.374476744085356, 26.795356165535779 ], [ -80.365551568555787, 26.706846607167336 ], [ -80.464082686206496, 26.698816089968798 ], [ -80.473081076121957, 26.787294861454249 ], [ -80.374476744085356, 26.795356165535779 ] ] ] } },
{ "type": "Feature", "properties": { "ID": 14280, "date": "2022-12-05T00:00:00", "smokePM_pred": 4.3139853477478001 }, "geometry": { "type": "Polygon", "coordinates": [ [ [ -81.171679866000446, 26.817265438682266 ], [ -81.162129023203988, 26.729013371387506 ], [ -81.260391632327043, 26.720424168411963 ], [ -81.270014885829255, 26.808643421979607 ], [ -81.171679866000446, 26.817265438682266 ] ] ] } },
{ "type": "Feature", "properties": { "ID": 14281, "date": "2022-12-05T00:00:00", "smokePM_pred": 4.2706427574157697 }, "geometry": { "type": "Polygon", "coordinates": [ [ [ -81.073300851298939, 26.82582161795488 ], [ -81.063822564083765, 26.737536982704704 ], [ -81.162129023203988, 26.729013371387506 ], [ -81.171679866000446, 26.817265438682266 ], [ -81.073300851298939, 26.82582161795488 ] ] ] } },
{ "type": "Feature", "properties": { "ID": 14282, "date": "2022-12-05T00:00:00", "smokePM_pred": 4.3359360694885298 }, "geometry": { "type": "Polygon", "coordinates": [ [ [ -80.974878165058641, 26.834311844623951 ], [ -80.965472577356778, 26.745994887736284 ], [ -81.063822564083765, 26.737536982704704 ], [ -81.073300851298939, 26.82582161795488 ], [ -80.974878165058641, 26.834311844623951 ] ] ] } },
{ "type": "Feature", "properties": { "ID": 14283, "date": "2022-12-05T00:00:00", "smokePM_pred": 5.1449666023254403 }, "geometry": { "type": "Polygon", "coordinates": [ [ [ -80.876412131521164, 26.842736004299191 ], [ -80.867079386315453, 26.754386972634705 ], [ -80.965472577356778, 26.745994887736284 ], [ -80.974878165058641, 26.834311844623951 ], [ -80.876412131521164, 26.842736004299191 ] ] ] } },
{ "type": "Feature", "properties": { "ID": 14284, "date": "2022-12-05T00:00:00", "smokePM_pred": 7.2364835739135698 }, "geometry": { "type": "Polygon", "coordinates": [ [ [ -80.777903075830324, 26.851093983377435 ], [ -80.768643315148807, 26.762713124336059 ], [ -80.867079386315453, 26.754386972634705 ], [ -80.876412131521164, 26.842736004299191 ], [ -80.777903075830324, 26.851093983377435 ] ] ] } },
{ "type": "Feature", "properties": { "ID": 14285, "date": "2022-12-05T00:00:00", "smokePM_pred": 9.0524711608886701 }, "geometry": { "type": "Polygon", "coordinates": [ [ [ -80.679351324026754, 26.859385669046503 ], [ -80.670164688937049, 26.770973230563964 ], [ -80.768643315148807, 26.762713124336059 ], [ -80.777903075830324, 26.851093983377435 ], [ -80.679351324026754, 26.859385669046503 ] ] ] } },
{ "type": "Feature", "properties": { "ID": 14286, "date": "2022-12-05T00:00:00", "smokePM_pred": 6.0427074432373002 }, "geometry": { "type": "Polygon", "coordinates": [ [ [ -80.580757203042353, 26.867610949289102 ], [ -80.571643833646078, 26.779167179833326 ], [ -80.670164688937049, 26.770973230563964 ], [ -80.679351324026754, 26.859385669046503 ], [ -80.580757203042353, 26.867610949289102 ] ] ] } },
{ "type": "Feature", "properties": { "ID": 14287, "date": "2022-12-05T00:00:00", "smokePM_pred": 10.7825469970703 }, "geometry": { "type": "Polygon", "coordinates": [ [ [ -80.482121040694764, 26.875769712886665 ], [ -80.473081076121957, 26.787294861454249 ], [ -80.571643833646078, 26.779167179833326 ], [ -80.580757203042353, 26.867610949289102 ], [ -80.482121040694764, 26.875769712886665 ] ] ] } },
{ "type": "Feature", "properties": { "ID": 14288, "date": "2022-12-05T00:00:00", "smokePM_pred": 7.1160311698913601 }, "geometry": { "type": "Polygon", "coordinates": [ [ [ -80.383443165681683, 26.883861849423127 ], [ -80.374476744085356, 26.795356165535779 ], [ -80.473081076121957, 26.787294861454249 ], [ -80.482121040694764, 26.875769712886665 ], [ -80.383443165681683, 26.883861849423127 ] ] ] } },
{ "type": "Feature", "properties": { "ID": 14796, "date": "2022-12-05T00:00:00", "smokePM_pred": 4.28995561599731 }, "geometry": { "type": "Polygon", "coordinates": [ [ [ -81.082822810204178, 26.914102033975102 ], [ -81.073300851298939, 26.82582161795488 ], [ -81.171679866000446, 26.817265438682266 ], [ -81.181274703821785, 26.905513238730602 ], [ -81.082822810204178, 26.914102033975102 ] ] ] } },
{ "type": "Feature", "properties": { "ID": 14801, "date": "2022-12-05T00:00:00", "smokePM_pred": 10.1189422607422 }, "geometry": { "type": "Polygon", "coordinates": [ [ [ -80.589912613948528, 26.956050734932504 ], [ -80.580757203042353, 26.867610949289102 ], [ -80.679351324026754, 26.859385669046503 ], [ -80.6885803284449, 26.94779407726184 ], [ -80.589912613948528, 26.956050734932504 ] ] ] } },
{ "type": "Feature", "properties": { "ID": 14802, "date": "2022-12-05T00:00:00", "smokePM_pred": 8.4341516494750994 }, "geometry": { "type": "Polygon", "coordinates": [ [ [ -80.491202718078767, 26.964240626643164 ], [ -80.482121040694764, 26.875769712886665 ], [ -80.580757203042353, 26.867610949289102 ], [ -80.589912613948528, 26.956050734932504 ], [ -80.491202718078767, 26.964240626643164 ] ] ] } },
{ "type": "Feature", "properties": { "ID": 14803, "date": "2022-12-05T00:00:00", "smokePM_pred": 7.0326595306396502 }, "geometry": { "type": "Polygon", "coordinates": [ [ [ -80.39245097051608, 26.972363641450734 ], [ -80.383443165681683, 26.883861849423127 ], [ -80.482121040694764, 26.875769712886665 ], [ -80.491202718078767, 26.964240626643164 ], [ -80.39245097051608, 26.972363641450734 ] ] ] } },
{ "type": "Feature", "properties": { "ID": 15316, "date": "2022-12-05T00:00:00", "smokePM_pred": 7.7254161834716797 }, "geometry": { "type": "Polygon", "coordinates": [ [ [ -80.599110206375698, 27.044486518831611 ], [ -80.589912613948528, 26.956050734932504 ], [ -80.6885803284449, 26.94779407726184 ], [ -80.697851843179777, 27.036198437029611 ], [ -80.599110206375698, 27.044486518831611 ] ] ] } },
{ "type": "Feature", "properties": { "ID": 15317, "date": "2022-12-05T00:00:00", "smokePM_pred": 5.1992020606994602 }, "geometry": { "type": "Polygon", "coordinates": [ [ [ -80.50032624730234, 27.052707585038792 ], [ -80.491202718078767, 26.964240626643164 ], [ -80.589912613948528, 26.956050734932504 ], [ -80.599110206375698, 27.044486518831611 ], [ -80.50032624730234, 27.052707585038792 ] ] ] } },
{ "type": "Feature", "properties": { "ID": 15831, "date": "2022-12-05T00:00:00", "smokePM_pred": 6.2244806289672896 }, "geometry": { "type": "Polygon", "coordinates": [ [ [ -80.608350121220681, 27.132918282990726 ], [ -80.599110206375698, 27.044486518831611 ], [ -80.697851843179777, 27.036198437029611 ], [ -80.707166010110996, 27.12459873010447 ], [ -80.608350121220681, 27.132918282990726 ] ] ] } },
{ "type": "Feature", "properties": { "ID": 15832, "date": "2022-12-05T00:00:00", "smokePM_pred": 3.2768440246582 }, "geometry": { "type": "Polygon", "coordinates": [ [ [ -80.509491768273932, 27.141170570325887 ], [ -80.50032624730234, 27.052707585038792 ], [ -80.599110206375698, 27.044486518831611 ], [ -80.608350121220681, 27.132918282990726 ], [ -80.509491768273932, 27.141170570325887 ] ] ] } },
{ "type": "Feature", "properties": { "ID": 195269, "date": "2022-12-05T00:00:00", "smokePM_pred": 8.0367307662963903 }, "geometry": { "type": "Polygon", "coordinates": [ [ [ -122.335872134244227, 44.825423833949344 ], [ -122.264384277511553, 44.771667756590773 ], [ -122.339812832346951, 44.72081351310463 ], [ -122.411244350598011, 44.774474800356003 ], [ -122.335872134244227, 44.825423833949344 ] ] ] } },
{ "type": "Feature", "properties": { "ID": 195270, "date": "2022-12-05T00:00:00", "smokePM_pred": 6.8541545867919904 }, "geometry": { "type": "Polygon", "coordinates": [ [ [ -122.260299449465421, 44.876367731786125 ], [ -122.188755601774147, 44.822516707805462 ], [ -122.264384277511553, 44.771667756590773 ], [ -122.335872134244227, 44.825423833949344 ], [ -122.260299449465421, 44.876367731786125 ] ] ] } },
{ "type": "Feature", "properties": { "ID": 195783, "date": "2022-12-05T00:00:00", "smokePM_pred": 6.05399513244629 }, "geometry": { "type": "Polygon", "coordinates": [ [ [ -122.482875708286997, 44.82804549560786 ], [ -122.41124435059794, 44.774474800355947 ], [ -122.486416727279334, 44.723520983623679 ], [ -122.557990775476128, 44.776997031249699 ], [ -122.482875708286997, 44.82804549560786 ] ] ] } },
{ "type": "Feature", "properties": { "ID": 195784, "date": "2022-12-05T00:00:00", "smokePM_pred": 6.26456642150879 }, "geometry": { "type": "Polygon", "coordinates": [ [ [ -122.407560459169261, 44.879089334414935 ], [ -122.33587213424417, 44.825423833949294 ], [ -122.41124435059794, 44.774474800355947 ], [ -122.482875708286997, 44.82804549560786 ], [ -122.407560459169261, 44.879089334414935 ] ] ] } },
{ "type": "Feature", "properties": { "ID": 195785, "date": "2022-12-05T00:00:00", "smokePM_pred": 6.8953337669372603 }, "geometry": { "type": "Polygon", "coordinates": [ [ [ -122.332044395499466, 44.930128194945176 ], [ -122.260299449465421, 44.876367731786125 ], [ -122.335872134244227, 44.825423833949344 ], [ -122.407560459169346, 44.879089334414999 ], [ -122.332044395499466, 44.930128194945176 ] ] ] } }
]
}
