{
"type": "FeatureCollection",
"name": "geo_2022-11-26",
"crs": { "type": "name", "properties": { "name": "urn:ogc:def:crs:OGC:1.3:CRS84" } },
"features": [
{ "type": "Feature", "properties": { "ID": 13254, "date": "2022-11-26T00:00:00", "smokePM_pred": 7.9838914871215803 }, "geometry": { "type": "Polygon", "coordinates": [ [ [ -80.759426109660012, 26.674328206621063 ], [ -80.750251319181103, 26.585939248532121 ], [ -80.848542395587771, 26.57767661132813 ], [ -80.85778952138358, 26.666033835461391 ], [ -80.759426109660012, 26.674328206621063 ] ] ] } },
{ "type": "Feature", "properties": { "ID": 13255, "date": "2022-11-26T00:00:00", "smokePM_pred": 3.8892700672149698 }, "geometry": { "type": "Polygon", "coordinates": [ [ [ -80.661020283073256, 26.682556779930138 ], [ -80.651917967213009, 26.594136335197042 ], [ -80.750251319181103, 26.585939248532121 ], [ -80.759426109660012, 26.674328206621063 ], [ -80.661020283073256, 26.682556779930138 ] ] ] } },
{ "type": "Feature", "properties": { "ID": 13256, "date": "2022-11-26T00:00:00", "smokePM_pred": 4.8382720947265598 }, "geometry": { "type": "Polygon", "coordinates": [ [ [ -80.562572366628714, 26.690719444433785 ], [ -80.553542663733907, 26.60226776089635 ], [ -80.651917967213009, 26.594136335197042 ], [ -80.661020283073256, 26.682556779930138 ], [ -80.562572366628714, 26.690719444433785 ] ] ] } },
{ "type": "Feature", "properties": { "ID": 13762, "date": "2022-11-26T00:00:00", "smokePM_pred": 1.99237585067749 }, "geometry": { "type": "Polygon", "coordinates": [ [ [ -81.45678401556188, 26.703049449870203 ], [ -81.447061190877406, 26.614892165892787 ], [ -81.545118673021321, 26.606140382206597 ], [ -81.554913149450641, 26.694264167422016 ], [ -81.45678401556188, 26.703049449870203 ] ] ] } },
{ "type": "Feature", "properties": { "ID": 13763, "date": "2022-11-26T00:00:00", "smokePM_pred": 1.56439208984375 }, "geometry": { "type": "Polygon", "coordinates": [ [ [ -81.358610069969828, 26.711769489181172 ], [ -81.348959043778876, 26.623578950255602 ], [ -81.447061190877406, 26.614892165892787 ], [ -81.45678401556188, 26.703049449870203 ], [ -81.358610069969828, 26.711769489181172 ] ] ] } },
{ "type": "Feature", "properties": { "ID": 13767, "date": "2022-11-26T00:00:00", "smokePM_pred": 2.96413969993591 }, "geometry": { "type": "Polygon", "coordinates": [ [ [ -80.965472577356778, 26.745994887736284 ], [ -80.956110194118679, 26.657673778193775 ], [ -81.054387804625676, 26.649248147344842 ], [ -81.063822564083765, 26.737536982704704 ], [ -80.965472577356778, 26.745994887736284 ] ] ] } },
{ "type": "Feature", "properties": { "ID": 13768, "date": "2022-11-26T00:00:00", "smokePM_pred": 2.4173226356506299 }, "geometry": { "type": "Polygon", "coordinates": [ [ [ -80.867079386315453, 26.754386972634705 ], [ -80.85778952138358, 26.666033835461391 ], [ -80.956110194118679, 26.657673778193775 ], [ -80.965472577356778, 26.745994887736284 ], [ -80.867079386315453, 26.754386972634705 ] ] ] } },
{ "type": "Feature", "properties": { "ID": 13769, "date": "2022-11-26T00:00:00", "smokePM_pred": 3.8216905593872101 }, "geometry": { "type": "Polygon", "coordinates": [ [ [ -80.768643315148807, 26.762713124336059 ], [ -80.759426109660012, 26.674328206621063 ], [ -80.85778952138358, 26.666033835461391 ], [ -80.867079386315453, 26.754386972634705 ], [ -80.768643315148807, 26.762713124336059 ] ] ] } },
{ "type": "Feature", "properties": { "ID": 13770, "date": "2022-11-26T00:00:00", "smokePM_pred": 2.9222879409789999 }, "geometry": { "type": "Polygon", "coordinates": [ [ [ -80.670164688937049, 26.770973230563964 ], [ -80.661020283073256, 26.682556779930138 ], [ -80.759426109660012, 26.674328206621063 ], [ -80.768643315148807, 26.762713124336059 ], [ -80.670164688937049, 26.770973230563964 ] ] ] } },
{ "type": "Feature", "properties": { "ID": 13771, "date": "2022-11-26T00:00:00", "smokePM_pred": 4.1055846214294398 }, "geometry": { "type": "Polygon", "coordinates": [ [ [ -80.571643833646078, 26.779167179833326 ], [ -80.562572366628714, 26.690719444433785 ], [ -80.661020283073256, 26.682556779930138 ], [ -80.670164688937049, 26.770973230563964 ], [ -80.571643833646078, 26.779167179833326 ] ] ] } },
{ "type": "Feature", "properties": { "ID": 14277, "date": "2022-11-26T00:00:00", "smokePM_pred": 1.46718609333038 }, "geometry": { "type": "Polygon", "coordinates": [ [ [ -81.466551652103504, 26.79120234087063 ], [ -81.45678401556188, 26.703049449870203 ], [ -81.554913149450641, 26.694264167422016 ], [ -81.56475275646747, 26.782383510691883 ], [ -81.466551652103504, 26.79120234087063 ] ] ] } },
{ "type": "Feature", "properties": { "ID": 14278, "date": "2022-11-26T00:00:00", "smokePM_pred": 1.32047855854034 }, "geometry": { "type": "Polygon", "coordinates": [ [ [ -81.36830558836445, 26.799955683799698 ], [ -81.358610069969828, 26.711769489181172 ], [ -81.45678401556188, 26.703049449870203 ], [ -81.466551652103504, 26.79120234087063 ], [ -81.36830558836445, 26.799955683799698 ] ] ] } },
{ "type": "Feature", "properties": { "ID": 14281, "date": "2022-11-26T00:00:00", "smokePM_pred": 1.7154026031494101 }, "geometry": { "type": "Polygon", "coordinates": [ [ [ -81.073300851298939, 26.82582161795488 ], [ -81.063822564083765, 26.737536982704704 ], [ -81.162129023203988, 26.729013371387506 ], [ -81.171679866000446, 26.817265438682266 ], [ -81.073300851298939, 26.82582161795488 ] ] ] } },
{ "type": "Feature", "properties": { "ID": 14282, "date": "2022-11-26T00:00:00", "smokePM_pred": 2.1561803817749001 }, "geometry": { "type": "Polygon", "coordinates": [ [ [ -80.974878165058641, 26.834311844623951 ], [ -80.965472577356778, 26.745994887736284 ], [ -81.063822564083765, 26.737536982704704 ], [ -81.073300851298939, 26.82582161795488 ], [ -80.974878165058641, 26.834311844623951 ] ] ] } },
{ "type": "Feature", "properties": { "ID": 14283, "date": "2022-11-26T00:00:00", "smokePM_pred": 2.7080037593841602 }, "geometry": { "type": "Polygon", "coordinates": [ [ [ -80.876412131521164, 26.842736004299191 ], [ -80.867079386315453, 26.754386972634705 ], [ -80.965472577356778, 26.745994887736284 ], [ -80.974878165058641, 26.834311844623951 ], [ -80.876412131521164, 26.842736004299191 ] ] ] } },
{ "type": "Feature", "properties": { "ID": 14284, "date": "2022-11-26T00:00:00", "smokePM_pred": 7.1914854049682599 }, "geometry": { "type": "Polygon", "coordinates": [ [ [ -80.777903075830324, 26.851093983377435 ], [ -80.768643315148807, 26.762713124336059 ], [ -80.867079386315453, 26.754386972634705 ], [ -80.876412131521164, 26.842736004299191 ], [ -80.777903075830324, 26.851093983377435 ] ] ] } },
{ "type": "Feature", "properties": { "ID": 14285, "date": "2022-11-26T00:00:00", "smokePM_pred": 5.69075584411621 }, "geometry": { "type": "Polygon", "coordinates": [ [ [ -80.679351324026754, 26.859385669046503 ], [ -80.670164688937049, 26.770973230563964 ], [ -80.768643315148807, 26.762713124336059 ], [ -80.777903075830324, 26.851093983377435 ], [ -80.679351324026754, 26.859385669046503 ] ] ] } },
{ "type": "Feature", "properties": { "ID": 14286, "date": "2022-11-26T00:00:00", "smokePM_pred": 3.5579972267150901 }, "geometry": { "type": "Polygon", "coordinates": [ [ [ -80.580757203042353, 26.867610949289102 ], [ -80.571643833646078, 26.779167179833326 ], [ -80.670164688937049, 26.770973230563964 ], [ -80.679351324026754, 26.859385669046503 ], [ -80.580757203042353, 26.867610949289102 ] ] ] } },
{ "type": "Feature", "properties": { "ID": 14287, "date": "2022-11-26T00:00:00", "smokePM_pred": 7.4615745544433603 }, "geometry": { "type": "Polygon", "coordinates": [ [ [ -80.482121040694764, 26.875769712886665 ], [ -80.473081076121957, 26.787294861454249 ], [ -80.571643833646078, 26.779167179833326 ], [ -80.580757203042353, 26.867610949289102 ], [ -80.482121040694764, 26.875769712886665 ] ] ] } },
{ "type": "Feature", "properties": { "ID": 14288, "date": "2022-11-26T00:00:00", "smokePM_pred": 5.3503527641296396 }, "geometry": { "type": "Polygon", "coordinates": [ [ [ -80.383443165681683, 26.883861849423127 ], [ -80.374476744085356, 26.795356165535779 ], [ -80.473081076121957, 26.787294861454249 ], [ -80.482121040694764, 26.875769712886665 ], [ -80.383443165681683, 26.883861849423127 ] ] ] } },
{ "type": "Feature", "properties": { "ID": 14795, "date": "2022-11-26T00:00:00", "smokePM_pred": 1.71116471290588 }, "geometry": { "type": "Polygon", "coordinates": [ [ [ -81.181274703821785, 26.905513238730602 ], [ -81.171679866000446, 26.817265438682266 ], [ -81.270014885829255, 26.808643421979607 ], [ -81.279682456778147, 26.896858359978122 ], [ -81.181274703821785, 26.905513238730602 ] ] ] } },
{ "type": "Feature", "properties": { "ID": 14796, "date": "2022-11-26T00:00:00", "smokePM_pred": 1.5500864982605 }, "geometry": { "type": "Polygon", "coordinates": [ [ [ -81.082822810204178, 26.914102033975102 ], [ -81.073300851298939, 26.82582161795488 ], [ -81.171679866000446, 26.817265438682266 ], [ -81.181274703821785, 26.905513238730602 ], [ -81.082822810204178, 26.914102033975102 ] ] ] } },
{ "type": "Feature", "properties": { "ID": 14797, "date": "2022-11-26T00:00:00", "smokePM_pred": 2.9552710056304901 }, "geometry": { "type": "Polygon", "coordinates": [ [ [ -80.984327100208077, 26.922624629989862 ], [ -80.974878165058641, 26.834311844623951 ], [ -81.073300851298939, 26.82582161795488 ], [ -81.082822810204178, 26.914102033975102 ], [ -80.984327100208077, 26.922624629989862 ] ] ] } },
{ "type": "Feature", "properties": { "ID": 14798, "date": "2022-11-26T00:00:00", "smokePM_pred": 4.03053951263428 }, "geometry": { "type": "Polygon", "coordinates": [ [ [ -80.88578789902968, 26.931080911839789 ], [ -80.876412131521164, 26.842736004299191 ], [ -80.974878165058641, 26.834311844623951 ], [ -80.984327100208077, 26.922624629989862 ], [ -80.88578789902968, 26.931080911839789 ] ] ] } },
{ "type": "Feature", "properties": { "ID": 14799, "date": "2022-11-26T00:00:00", "smokePM_pred": 5.3457212448120099 }, "geometry": { "type": "Polygon", "coordinates": [ [ [ -80.787205532773115, 26.939470765380428 ], [ -80.777903075830324, 26.851093983377435 ], [ -80.876412131521164, 26.842736004299191 ], [ -80.88578789902968, 26.931080911839789 ], [ -80.787205532773115, 26.939470765380428 ] ] ] } },
{ "type": "Feature", "properties": { "ID": 14800, "date": "2022-11-26T00:00:00", "smokePM_pred": 8.2018566131591797 }, "geometry": { "type": "Polygon", "coordinates": [ [ [ -80.6885803284449, 26.94779407726184 ], [ -80.679351324026754, 26.859385669046503 ], [ -80.777903075830324, 26.851093983377435 ], [ -80.787205532773115, 26.939470765380428 ], [ -80.6885803284449, 26.94779407726184 ] ] ] } },
{ "type": "Feature", "properties": { "ID": 14801, "date": "2022-11-26T00:00:00", "smokePM_pred": 6.1822066307067898 }, "geometry": { "type": "Polygon", "coordinates": [ [ [ -80.589912613948528, 26.956050734932504 ], [ -80.580757203042353, 26.867610949289102 ], [ -80.679351324026754, 26.859385669046503 ], [ -80.6885803284449, 26.94779407726184 ], [ -80.589912613948528, 26.956050734932504 ] ] ] } },
{ "type": "Feature", "properties": { "ID": 14802, "date": "2022-11-26T00:00:00", "smokePM_pred": 5.9225311279296902 }, "geometry": { "type": "Polygon", "coordinates": [ [ [ -80.491202718078767, 26.964240626643164 ], [ -80.482121040694764, 26.875769712886665 ], [ -80.580757203042353, 26.867610949289102 ], [ -80.589912613948528, 26.956050734932504 ], [ -80.491202718078767, 26.964240626643164 ] ] ] } },
{ "type": "Feature", "properties": { "ID": 14803, "date": "2022-11-26T00:00:00", "smokePM_pred": 5.8526287078857404 }, "geometry": { "type": "Polygon", "coordinates": [ [ [ -80.39245097051608, 26.972363641450734 ], [ -80.383443165681683, 26.883861849423127 ], [ -80.482121040694764, 26.875769712886665 ], [ -80.491202718078767, 26.964240626643164 ], [ -80.39245097051608, 26.972363641450734 ] ] ] } },
{ "type": "Feature", "properties": { "ID": 15310, "date": "2022-11-26T00:00:00", "smokePM_pred": 1.5543683767318699 }, "geometry": { "type": "Polygon", "coordinates": [ [ [ -81.190913682457534, 26.993756752087137 ], [ -81.181274703821785, 26.905513238730602 ], [ -81.279682456778147, 26.896858359978122 ], [ -81.28939449190635, 26.985068962704684 ], [ -81.190913682457534, 26.993756752087137 ] ] ] } },
{ "type": "Feature", "properties": { "ID": 15311, "date": "2022-11-26T00:00:00", "smokePM_pred": 1.60253310203552 }, "geometry": { "type": "Polygon", "coordinates": [ [ [ -81.092388585640109, 27.002378211575977 ], [ -81.082822810204178, 26.914102033975102 ], [ -81.181274703821785, 26.905513238730602 ], [ -81.190913682457534, 26.993756752087137 ], [ -81.092388585640109, 27.002378211575977 ] ] ] } },
{ "type": "Feature", "properties": { "ID": 15312, "date": "2022-11-26T00:00:00", "smokePM_pred": 1.97802782058716 }, "geometry": { "type": "Polygon", "coordinates": [ [ [ -80.993819526691126, 27.010933224899105 ], [ -80.984327100208077, 26.922624629989862 ], [ -81.082822810204178, 26.914102033975102 ], [ -81.092388585640109, 27.002378211575977 ], [ -80.993819526691126, 27.010933224899105 ] ] ] } },
{ "type": "Feature", "properties": { "ID": 15313, "date": "2022-11-26T00:00:00", "smokePM_pred": 3.2998249530792201 }, "geometry": { "type": "Polygon", "coordinates": [ [ [ -80.895206831766814, 27.019421676574609 ], [ -80.88578789902968, 26.931080911839789 ], [ -80.984327100208077, 26.922624629989862 ], [ -80.993819526691126, 27.010933224899105 ], [ -80.895206831766814, 27.019421676574609 ] ] ] } },
{ "type": "Feature", "properties": { "ID": 15314, "date": "2022-11-26T00:00:00", "smokePM_pred": 3.9621653556823699 }, "geometry": { "type": "Polygon", "coordinates": [ [ [ -80.796550827937011, 27.027843451914688 ], [ -80.787205532773115, 26.939470765380428 ], [ -80.88578789902968, 26.931080911839789 ], [ -80.895206831766814, 27.019421676574609 ], [ -80.796550827937011, 27.027843451914688 ] ] ] } },
{ "type": "Feature", "properties": { "ID": 15315, "date": "2022-11-26T00:00:00", "smokePM_pred": 5.0138196945190403 }, "geometry": { "type": "Polygon", "coordinates": [ [ [ -80.697851843179777, 27.036198437029611 ], [ -80.6885803284449, 26.94779407726184 ], [ -80.787205532773115, 26.939470765380428 ], [ -80.796550827937011, 27.027843451914688 ], [ -80.697851843179777, 27.036198437029611 ] ] ] } },
{ "type": "Feature", "properties": { "ID": 15316, "date": "2022-11-26T00:00:00", "smokePM_pred": 3.5777728557586701 }, "geometry": { "type": "Polygon", "coordinates": [ [ [ -80.599110206375698, 27.044486518831611 ], [ -80.589912613948528, 26.956050734932504 ], [ -80.6885803284449, 26.94779407726184 ], [ -80.697851843179777, 27.036198437029611 ], [ -80.599110206375698, 27.044486518831611 ] ] ] } },
{ "type": "Feature", "properties": { "ID": 15317, "date": "2022-11-26T00:00:00", "smokePM_pred": 1.78137123584747 }, "geometry": { "type": "Polygon", "coordinates": [ [ [ -80.50032624730234, 27.052707585038792 ], [ -80.491202718078767, 26.964240626643164 ], [ -80.589912613948528, 26.956050734932504 ], [ -80.599110206375698, 27.044486518831611 ], [ -80.50032624730234, 27.052707585038792 ] ] ] } },
{ "type": "Feature", "properties": { "ID": 15318, "date": "2022-11-26T00:00:00", "smokePM_pred": 1.30224072933197 }, "geometry": { "type": "Polygon", "coordinates": [ [ [ -80.401500296628626, 27.060861524178971 ], [ -80.39245097051608, 26.972363641450734 ], [ -80.491202718078767, 26.964240626643164 ], [ -80.50032624730234, 27.052707585038792 ], [ -80.401500296628626, 27.060861524178971 ] ] ] } },
{ "type": "Feature", "properties": { "ID": 15825, "date": "2022-11-26T00:00:00", "smokePM_pred": 1.6033548116684 }, "geometry": { "type": "Polygon", "coordinates": [ [ [ -81.200596948615996, 27.081995959235599 ], [ -81.190913682457534, 26.993756752087137 ], [ -81.28939449190635, 26.985068962704684 ], [ -81.29915113887067, 27.073275210384367 ], [ -81.200596948615996, 27.081995959235599 ] ] ] } },
{ "type": "Feature", "properties": { "ID": 15826, "date": "2022-11-26T00:00:00", "smokePM_pred": 1.6644926071167001 }, "geometry": { "type": "Polygon", "coordinates": [ [ [ -81.101998323360789, 27.090650131498407 ], [ -81.092388585640109, 27.002378211575977 ], [ -81.190913682457534, 26.993756752087137 ], [ -81.200596948615996, 27.081995959235599 ], [ -81.101998323360789, 27.090650131498407 ] ] ] } },
{ "type": "Feature", "properties": { "ID": 15827, "date": "2022-11-26T00:00:00", "smokePM_pred": 1.80547630786896 }, "geometry": { "type": "Polygon", "coordinates": [ [ [ -81.003355589301805, 27.099237610348286 ], [ -80.993819526691126, 27.010933224899105 ], [ -81.092388585640109, 27.002378211575977 ], [ -81.101998323360789, 27.090650131498407 ], [ -81.003355589301805, 27.099237610348286 ] ] ] } },
{ "type": "Feature", "properties": { "ID": 15828, "date": "2022-11-26T00:00:00", "smokePM_pred": 2.4023272991180402 }, "geometry": { "type": "Polygon", "coordinates": [ [ [ -80.904669073560754, 27.107758279754453 ], [ -80.895206831766814, 27.019421676574609 ], [ -80.993819526691126, 27.010933224899105 ], [ -81.003355589301805, 27.099237610348286 ], [ -80.904669073560754, 27.107758279754453 ] ] ] } },
{ "type": "Feature", "properties": { "ID": 15829, "date": "2022-11-26T00:00:00", "smokePM_pred": 3.7298989295959499 }, "geometry": { "type": "Polygon", "coordinates": [ [ [ -80.805939104178805, 27.116212024483694 ], [ -80.796550827937011, 27.027843451914688 ], [ -80.895206831766814, 27.019421676574609 ], [ -80.904669073560754, 27.107758279754453 ], [ -80.805939104178805, 27.116212024483694 ] ] ] } },
{ "type": "Feature", "properties": { "ID": 15830, "date": "2022-11-26T00:00:00", "smokePM_pred": 4.3105921745300302 }, "geometry": { "type": "Polygon", "coordinates": [ [ [ -80.707166010110996, 27.12459873010447 ], [ -80.697851843179777, 27.036198437029611 ], [ -80.796550827937011, 27.027843451914688 ], [ -80.805939104178805, 27.116212024483694 ], [ -80.707166010110996, 27.12459873010447 ] ] ] } },
{ "type": "Feature", "properties": { "ID": 15831, "date": "2022-11-26T00:00:00", "smokePM_pred": 2.9228928089141801 }, "geometry": { "type": "Polygon", "coordinates": [ [ [ -80.608350121220681, 27.132918282990726 ], [ -80.599110206375698, 27.044486518831611 ], [ -80.697851843179777, 27.036198437029611 ], [ -80.707166010110996, 27.12459873010447 ], [ -80.608350121220681, 27.132918282990726 ] ] ] } },
{ "type": "Feature", "properties": { "ID": 16345, "date": "2022-11-26T00:00:00", "smokePM_pred": 2.0193743705749498 }, "geometry": { "type": "Polygon", "coordinates": [ [ [ -80.716522972015142, 27.212994938175537 ], [ -80.707166010110996, 27.12459873010447 ], [ -80.805939104178805, 27.116212024483694 ], [ -80.815370505257832, 27.204576464524227 ], [ -80.716522972015142, 27.212994938175537 ] ] ] } },
{ "type": "Feature", "properties": { "ID": 57569, "date": "2022-11-26T00:00:00", "smokePM_pred": 4.5733199119567898 }, "geometry": { "type": "Polygon", "coordinates": [ [ [ -79.058576691257187, 34.510090106620474 ], [ -79.047819825041287, 34.421296716515442 ], [ -79.154948381306127, 34.412356214642884 ], [ -79.165815110949495, 34.501120036543902 ], [ -79.058576691257187, 34.510090106620474 ] ] ] } },
{ "type": "Feature", "properties": { "ID": 57570, "date": "2022-11-26T00:00:00", "smokePM_pred": 4.7170062065124503 }, "geometry": { "type": "Polygon", "coordinates": [ [ [ -78.951291104874073, 34.518967992200544 ], [ -78.940644301002337, 34.430145331621496 ], [ -79.047819825041287, 34.421296716515442 ], [ -79.058576691257187, 34.510090106620474 ], [ -78.951291104874073, 34.518967992200544 ] ] ] } },
{ "type": "Feature", "properties": { "ID": 57571, "date": "2022-11-26T00:00:00", "smokePM_pred": 4.8087930679321298 }, "geometry": { "type": "Polygon", "coordinates": [ [ [ -78.84395881940857, 34.527753558176393 ], [ -78.833422274973174, 34.438901925485879 ], [ -78.940644301002337, 34.430145331621496 ], [ -78.951291104874073, 34.518967992200544 ], [ -78.84395881940857, 34.527753558176393 ] ] ] } },
{ "type": "Feature", "properties": { "ID": 58083, "date": "2022-11-26T00:00:00", "smokePM_pred": 4.4754528999328604 }, "geometry": { "type": "Polygon", "coordinates": [ [ [ -79.176729473783723, 34.589879550700886 ], [ -79.165815110949495, 34.501120036543902 ], [ -79.27300589767485, 34.492057918365418 ], [ -79.284030388139811, 34.580787506045155 ], [ -79.176729473783723, 34.589879550700886 ] ] ] } },
{ "type": "Feature", "properties": { "ID": 58084, "date": "2022-11-26T00:00:00", "smokePM_pred": 4.7949047088623002 }, "geometry": { "type": "Polygon", "coordinates": [ [ [ -79.069380724385965, 34.59887924961739 ], [ -79.058576691257187, 34.510090106620474 ], [ -79.165815110949495, 34.501120036543902 ], [ -79.176729473783723, 34.589879550700886 ], [ -79.069380724385965, 34.59887924961739 ] ] ] } },
{ "type": "Feature", "properties": { "ID": 58085, "date": "2022-11-26T00:00:00", "smokePM_pred": 5.7452855110168501 }, "geometry": { "type": "Polygon", "coordinates": [ [ [ -78.961984608048368, 34.6077864657587 ], [ -78.951291104874073, 34.518967992200544 ], [ -79.058576691257187, 34.510090106620474 ], [ -79.069380724385965, 34.59887924961739 ], [ -78.961984608048368, 34.6077864657587 ] ] ] } },
{ "type": "Feature", "properties": { "ID": 58086, "date": "2022-11-26T00:00:00", "smokePM_pred": 5.6807785034179696 }, "geometry": { "type": "Polygon", "coordinates": [ [ [ -78.854541594215135, 34.616601063381424 ], [ -78.84395881940857, 34.527753558176393 ], [ -78.951291104874073, 34.518967992200544 ], [ -78.961984608048368, 34.6077864657587 ], [ -78.854541594215135, 34.616601063381424 ] ] ] } },
{ "type": "Feature", "properties": { "ID": 58087, "date": "2022-11-26T00:00:00", "smokePM_pred": 5.6298527717590297 }, "geometry": { "type": "Polygon", "coordinates": [ [ [ -78.747052153661684, 34.625322908040246 ], [ -78.736580303790191, 34.536446670732758 ], [ -78.84395881940857, 34.527753558176393 ], [ -78.854541594215135, 34.616601063381424 ], [ -78.747052153661684, 34.625322908040246 ] ] ] } },
{ "type": "Feature", "properties": { "ID": 58599, "date": "2022-11-26T00:00:00", "smokePM_pred": 5.8725953102111799 }, "geometry": { "type": "Polygon", "coordinates": [ [ [ -79.080232124678375, 34.687664127983112 ], [ -79.069380724385965, 34.59887924961739 ], [ -79.176729473783723, 34.589879550700886 ], [ -79.187691671885219, 34.678634739263089 ], [ -79.080232124678375, 34.687664127983112 ] ] ] } },
{ "type": "Feature", "properties": { "ID": 58600, "date": "2022-11-26T00:00:00", "smokePM_pred": 6.7128357887268102 }, "geometry": { "type": "Polygon", "coordinates": [ [ [ -78.972725008940131, 34.696600735097874 ], [ -78.961984608048368, 34.6077864657587 ], [ -79.069380724385965, 34.59887924961739 ], [ -79.080232124678375, 34.687664127983112 ], [ -78.972725008940131, 34.696600735097874 ] ] ] } },
{ "type": "Feature", "properties": { "ID": 58601, "date": "2022-11-26T00:00:00", "smokePM_pred": 6.6663165092468297 }, "geometry": { "type": "Polygon", "coordinates": [ [ [ -78.865170795961888, 34.705444424225057 ], [ -78.854541594215135, 34.616601063381424 ], [ -78.961984608048368, 34.6077864657587 ], [ -78.972725008940131, 34.696600735097874 ], [ -78.865170795961888, 34.705444424225057 ] ] ] } },
{ "type": "Feature", "properties": { "ID": 58602, "date": "2022-11-26T00:00:00", "smokePM_pred": 6.4297909736633301 }, "geometry": { "type": "Polygon", "coordinates": [ [ [ -78.757569958376379, 34.714195060286237 ], [ -78.747052153661684, 34.625322908040246 ], [ -78.854541594215135, 34.616601063381424 ], [ -78.865170795961888, 34.705444424225057 ], [ -78.757569958376379, 34.714195060286237 ] ] ] } },
{ "type": "Feature", "properties": { "ID": 59114, "date": "2022-11-26T00:00:00", "smokePM_pred": 6.6332931518554696 }, "geometry": { "type": "Polygon", "coordinates": [ [ [ -79.091131093727611, 34.77644472411145 ], [ -79.080232124678375, 34.687664127983112 ], [ -79.187691671885219, 34.678634739263089 ], [ -79.198701908684129, 34.767385584294793 ], [ -79.091131093727611, 34.77644472411145 ] ] ] } },
{ "type": "Feature", "properties": { "ID": 59115, "date": "2022-11-26T00:00:00", "smokePM_pred": 6.8337750434875497 }, "geometry": { "type": "Polygon", "coordinates": [ [ [ -78.98351250729543, 34.78541078293869 ], [ -78.972725008940131, 34.696600735097874 ], [ -79.080232124678375, 34.687664127983112 ], [ -79.091131093727611, 34.77644472411145 ], [ -78.98351250729543, 34.78541078293869 ] ] ] } },
{ "type": "Feature", "properties": { "ID": 59116, "date": "2022-11-26T00:00:00", "smokePM_pred": 7.0248456001281703 }, "geometry": { "type": "Polygon", "coordinates": [ [ [ -78.875846622537566, 34.794283623752094 ], [ -78.865170795961888, 34.705444424225057 ], [ -78.972725008940131, 34.696600735097874 ], [ -78.98351250729543, 34.78541078293869 ], [ -78.875846622537566, 34.794283623752094 ] ] ] } },
{ "type": "Feature", "properties": { "ID": 59117, "date": "2022-11-26T00:00:00", "smokePM_pred": 7.2449517250061 }, "geometry": { "type": "Polygon", "coordinates": [ [ [ -78.768133913955552, 34.803063110836845 ], [ -78.757569958376379, 34.714195060286237 ], [ -78.865170795961888, 34.705444424225057 ], [ -78.875846622537566, 34.794283623752094 ], [ -78.768133913955552, 34.803063110836845 ] ] ] } },
{ "type": "Feature", "properties": { "ID": 59118, "date": "2022-11-26T00:00:00", "smokePM_pred": 6.7006993293762198 }, "geometry": { "type": "Polygon", "coordinates": [ [ [ -78.660374857390906, 34.811749109793347 ], [ -78.649922970146079, 34.722852509512371 ], [ -78.757569958376379, 34.714195060286237 ], [ -78.768133913955552, 34.803063110836845 ], [ -78.660374857390906, 34.811749109793347 ] ] ] } },
{ "type": "Feature", "properties": { "ID": 59630, "date": "2022-11-26T00:00:00", "smokePM_pred": 8.1738700866699201 }, "geometry": { "type": "Polygon", "coordinates": [ [ [ -78.994347304201725, 34.874216591919833 ], [ -78.98351250729543, 34.78541078293869 ], [ -79.091131093727611, 34.77644472411145 ], [ -79.102077834479701, 34.865221020312333 ], [ -78.994347304201725, 34.874216591919833 ] ] ] } },
{ "type": "Feature", "properties": { "ID": 59631, "date": "2022-11-26T00:00:00", "smokePM_pred": 8.3796176910400408 }, "geometry": { "type": "Polygon", "coordinates": [ [ [ -78.886569273160745, 34.883118644927151 ], [ -78.875846622537566, 34.794283623752094 ], [ -78.98351250729543, 34.78541078293869 ], [ -78.994347304201725, 34.874216591919833 ], [ -78.886569273160745, 34.883118644927151 ] ] ] } },
{ "type": "Feature", "properties": { "ID": 59632, "date": "2022-11-26T00:00:00", "smokePM_pred": 7.7253189086914098 }, "geometry": { "type": "Polygon", "coordinates": [ [ [ -78.778744217738719, 34.891927042979923 ], [ -78.768133913955552, 34.803063110836845 ], [ -78.875846622537566, 34.794283623752094 ], [ -78.886569273160745, 34.883118644927151 ], [ -78.778744217738719, 34.891927042979923 ] ] ] } },
{ "type": "Feature", "properties": { "ID": 59633, "date": "2022-11-26T00:00:00", "smokePM_pred": 7.4183640480041504 }, "geometry": { "type": "Polygon", "coordinates": [ [ [ -78.670872615667932, 34.900641651044793 ], [ -78.660374857390906, 34.811749109793347 ], [ -78.768133913955552, 34.803063110836845 ], [ -78.778744217738719, 34.891927042979923 ], [ -78.670872615667932, 34.900641651044793 ] ] ] } },
{ "type": "Feature", "properties": { "ID": 59634, "date": "2022-11-26T00:00:00", "smokePM_pred": 6.74037885665894 }, "geometry": { "type": "Polygon", "coordinates": [ [ [ -78.56295494601909, 34.909262335414994 ], [ -78.552569930013462, 34.820341487542748 ], [ -78.660374857390906, 34.811749109793347 ], [ -78.670872615667932, 34.900641651044793 ], [ -78.56295494601909, 34.909262335414994 ] ] ] } },
{ "type": "Feature", "properties": { "ID": 60146, "date": "2022-11-26T00:00:00", "smokePM_pred": 9.2163200378418004 }, "geometry": { "type": "Polygon", "coordinates": [ [ [ -78.897338948389987, 34.971949470634151 ], [ -78.886569273160745, 34.883118644927151 ], [ -78.994347304201725, 34.874216591919833 ], [ -79.00522960209797, 34.963018144597278 ], [ -78.897338948389987, 34.971949470634151 ] ] ] } },
{ "type": "Feature", "properties": { "ID": 60147, "date": "2022-11-26T00:00:00", "smokePM_pred": 8.7476425170898402 }, "geometry": { "type": "Polygon", "coordinates": [ [ [ -78.789401068393786, 34.980786839924512 ], [ -78.778744217738719, 34.891927042979923 ], [ -78.886569273160745, 34.883118644927151 ], [ -78.897338948389987, 34.971949470634151 ], [ -78.789401068393786, 34.980786839924512 ] ] ] } },
{ "type": "Feature", "properties": { "ID": 60148, "date": "2022-11-26T00:00:00", "smokePM_pred": 8.2936573028564506 }, "geometry": { "type": "Polygon", "coordinates": [ [ [ -78.681416441744105, 34.989530116798022 ], [ -78.670872615667932, 34.900641651044793 ], [ -78.778744217738719, 34.891927042979923 ], [ -78.789401068393786, 34.980786839924512 ], [ -78.681416441744105, 34.989530116798022 ] ] ] } },
{ "type": "Feature", "properties": { "ID": 60149, "date": "2022-11-26T00:00:00", "smokePM_pred": 7.0731472969055202 }, "geometry": { "type": "Polygon", "coordinates": [ [ [ -78.573385549424444, 34.998179166916827 ], [ -78.56295494601909, 34.909262335414994 ], [ -78.670872615667932, 34.900641651044793 ], [ -78.681416441744105, 34.989530116798022 ], [ -78.573385549424444, 34.998179166916827 ] ] ] } },
{ "type": "Feature", "properties": { "ID": 60661, "date": "2022-11-26T00:00:00", "smokePM_pred": 10.353951454162599 }, "geometry": { "type": "Polygon", "coordinates": [ [ [ -78.908155850134222, 35.060776083675364 ], [ -78.897338948389987, 34.971949470634151 ], [ -79.00522960209797, 34.963018144597278 ], [ -79.016159604785216, 35.05181542344345 ], [ -78.908155850134222, 35.060776083675364 ] ] ] } },
{ "type": "Feature", "properties": { "ID": 60662, "date": "2022-11-26T00:00:00", "smokePM_pred": 9.5068702697753906 }, "geometry": { "type": "Polygon", "coordinates": [ [ [ -78.800104665927165, 35.0696424847999 ], [ -78.789401068393786, 34.980786839924512 ], [ -78.897338948389987, 34.971949470634151 ], [ -78.908155850134222, 35.060776083675364 ], [ -78.800104665927165, 35.0696424847999 ] ] ] } },
{ "type": "Feature", "properties": { "ID": 60663, "date": "2022-11-26T00:00:00", "smokePM_pred": 8.6465406417846697 }, "geometry": { "type": "Polygon", "coordinates": [ [ [ -78.692006533713041, 35.078414490506539 ], [ -78.681416441744105, 34.989530116798022 ], [ -78.789401068393786, 34.980786839924512 ], [ -78.800104665927165, 35.0696424847999 ], [ -78.692006533713041, 35.078414490506539 ] ] ] } },
{ "type": "Feature", "properties": { "ID": 60664, "date": "2022-11-26T00:00:00", "smokePM_pred": 7.1144490242004403 }, "geometry": { "type": "Polygon", "coordinates": [ [ [ -78.583861936400154, 35.08709196582312 ], [ -78.573385549424444, 34.998179166916827 ], [ -78.681416441744105, 34.989530116798022 ], [ -78.692006533713041, 35.078414490506539 ], [ -78.583861936400154, 35.08709196582312 ] ] ] } },
{ "type": "Feature", "properties": { "ID": 60665, "date": "2022-11-26T00:00:00", "smokePM_pred": 6.4897589683532697 }, "geometry": { "type": "Polygon", "coordinates": [ [ [ -78.475671358243943, 35.095674777121523 ], [ -78.465308873755276, 35.006733857281162 ], [ -78.573385549424444, 34.998179166916827 ], [ -78.583861936400154, 35.08709196582312 ], [ -78.475671358243943, 35.095674777121523 ] ] ] } },
{ "type": "Feature", "properties": { "ID": 61177, "date": "2022-11-26T00:00:00", "smokePM_pred": 9.5967092514038104 }, "geometry": { "type": "Polygon", "coordinates": [ [ [ -78.810855211694118, 35.158493960655015 ], [ -78.800104665927165, 35.0696424847999 ], [ -78.908155850134222, 35.060776083675364 ], [ -78.919020181663058, 35.149598466770748 ], [ -78.810855211694118, 35.158493960655015 ] ] ] } },
{ "type": "Feature", "properties": { "ID": 61178, "date": "2022-11-26T00:00:00", "smokePM_pred": 8.5187330245971697 }, "geometry": { "type": "Polygon", "coordinates": [ [ [ -78.702643091005328, 35.167294755545392 ], [ -78.692006533713041, 35.078414490506539 ], [ -78.800104665927165, 35.0696424847999 ], [ -78.810855211694118, 35.158493960655015 ], [ -78.702643091005328, 35.167294755545392 ] ] ] } },
{ "type": "Feature", "properties": { "ID": 61179, "date": "2022-11-26T00:00:00", "smokePM_pred": 7.2013821601867702 }, "geometry": { "type": "Polygon", "coordinates": [ [ [ -78.594384304441675, 35.176000715832146 ], [ -78.583861936400154, 35.08709196582312 ], [ -78.692006533713041, 35.078414490506539 ], [ -78.702643091005328, 35.167294755545392 ], [ -78.594384304441675, 35.176000715832146 ] ] ] } },
{ "type": "Feature", "properties": { "ID": 61180, "date": "2022-11-26T00:00:00", "smokePM_pred": 6.23270463943481 }, "geometry": { "type": "Polygon", "coordinates": [ [ [ -78.486079338205826, 35.184611707255627 ], [ -78.475671358243943, 35.095674777121523 ], [ -78.583861936400154, 35.08709196582312 ], [ -78.594384304441675, 35.176000715832146 ], [ -78.486079338205826, 35.184611707255627 ] ] ] } },
{ "type": "Feature", "properties": { "ID": 61693, "date": "2022-11-26T00:00:00", "smokePM_pred": 7.1245598793029803 }, "geometry": { "type": "Polygon", "coordinates": [ [ [ -78.713326314398699, 35.256170895210381 ], [ -78.702643091005328, 35.167294755545392 ], [ -78.810855211694118, 35.158493960655015 ], [ -78.821652908409206, 35.247341250457637 ], [ -78.713326314398699, 35.256170895210381 ] ] ] } },
{ "type": "Feature", "properties": { "ID": 61694, "date": "2022-11-26T00:00:00", "smokePM_pred": 6.7396907806396502 }, "geometry": { "type": "Polygon", "coordinates": [ [ [ -78.604952852379654, 35.264905400564906 ], [ -78.594384304441675, 35.176000715832146 ], [ -78.702643091005328, 35.167294755545392 ], [ -78.713326314398699, 35.256170895210381 ], [ -78.604952852379654, 35.264905400564906 ] ] ] } },
{ "type": "Feature", "properties": { "ID": 61695, "date": "2022-11-26T00:00:00", "smokePM_pred": 5.8671145439148003 }, "geometry": { "type": "Polygon", "coordinates": [ [ [ -78.496533010514057, 35.273544631626706 ], [ -78.486079338205826, 35.184611707255627 ], [ -78.594384304441675, 35.176000715832146 ], [ -78.604952852379654, 35.264905400564906 ], [ -78.496533010514057, 35.273544631626706 ] ] ] } },
{ "type": "Feature", "properties": { "ID": 62208, "date": "2022-11-26T00:00:00", "smokePM_pred": 6.3867850303649902 }, "geometry": { "type": "Polygon", "coordinates": [ [ [ -78.724056406028694, 35.345042892717345 ], [ -78.713326314398699, 35.256170895210381 ], [ -78.821652908409206, 35.247341250457637 ], [ -78.832497960156758, 35.336184337093599 ], [ -78.724056406028694, 35.345042892717345 ] ] ] } },
{ "type": "Feature", "properties": { "ID": 62209, "date": "2022-11-26T00:00:00", "smokePM_pred": 6.4153513908386204 }, "geometry": { "type": "Polygon", "coordinates": [ [ [ -78.615567780390165, 35.35380600356428 ], [ -78.604952852379654, 35.264905400564906 ], [ -78.713326314398699, 35.256170895210381 ], [ -78.724056406028694, 35.345042892717345 ], [ -78.615567780390165, 35.35380600356428 ] ] ] } },
{ "type": "Feature", "properties": { "ID": 62210, "date": "2022-11-26T00:00:00", "smokePM_pred": 5.4747214317321804 }, "geometry": { "type": "Polygon", "coordinates": [ [ [ -78.507032573374872, 35.362473534101845 ], [ -78.496533010514057, 35.273544631626706 ], [ -78.604952852379654, 35.264905400564906 ], [ -78.615567780390165, 35.35380600356428 ], [ -78.507032573374872, 35.362473534101845 ] ] ] } },
{ "type": "Feature", "properties": { "ID": 62211, "date": "2022-11-26T00:00:00", "smokePM_pred": 4.9243626594543501 }, "geometry": { "type": "Polygon", "coordinates": [ [ [ -78.398451276482845, 35.371045350165097 ], [ -78.388067278319781, 35.282088454862873 ], [ -78.496533010514057, 35.273544631626706 ], [ -78.507032573374872, 35.362473534101845 ], [ -78.398451276482845, 35.371045350165097 ] ] ] } },
{ "type": "Feature", "properties": { "ID": 62724, "date": "2022-11-26T00:00:00", "smokePM_pred": 5.3716869354248002 }, "geometry": { "type": "Polygon", "coordinates": [ [ [ -78.626229290005227, 35.442702508294452 ], [ -78.615567780390165, 35.35380600356428 ], [ -78.724056406028694, 35.345042892717345 ], [ -78.734833569398916, 35.433910731201401 ], [ -78.626229290005227, 35.442702508294452 ] ] ] } },
{ "type": "Feature", "properties": { "ID": 62725, "date": "2022-11-26T00:00:00", "smokePM_pred": 5.3258295059204102 }, "geometry": { "type": "Polygon", "coordinates": [ [ [ -78.51757822633806, 35.451398398471291 ], [ -78.507032573374872, 35.362473534101845 ], [ -78.615567780390165, 35.35380600356428 ], [ -78.626229290005227, 35.442702508294452 ], [ -78.51757822633806, 35.451398398471291 ] ] ] } },
{ "type": "Feature", "properties": { "ID": 62726, "date": "2022-11-26T00:00:00", "smokePM_pred": 5.0519218444824201 }, "geometry": { "type": "Polygon", "coordinates": [ [ [ -78.408880871892194, 35.459998266931748 ], [ -78.398451276482845, 35.371045350165097 ], [ -78.507032573374872, 35.362473534101845 ], [ -78.51757822633806, 35.451398398471291 ], [ -78.408880871892194, 35.459998266931748 ] ] ] } },
{ "type": "Feature", "properties": { "ID": 63239, "date": "2022-11-26T00:00:00", "smokePM_pred": 5.3605632781982404 }, "geometry": { "type": "Polygon", "coordinates": [ [ [ -78.636937584123231, 35.531594898140035 ], [ -78.626229290005227, 35.442702508294452 ], [ -78.734833569398916, 35.433910731201401 ], [ -78.74565800939186, 35.522774393716183 ], [ -78.636937584123231, 35.531594898140035 ] ] ] } },
{ "type": "Feature", "properties": { "ID": 63240, "date": "2022-11-26T00:00:00", "smokePM_pred": 4.9731688499450701 }, "geometry": { "type": "Polygon", "coordinates": [ [ [ -78.528170170307391, 35.540319208447706 ], [ -78.51757822633806, 35.451398398471291 ], [ -78.626229290005227, 35.442702508294452 ], [ -78.636937584123231, 35.531594898140035 ], [ -78.528170170307391, 35.540319208447706 ] ] ] } },
{ "type": "Feature", "properties": { "ID": 63241, "date": "2022-11-26T00:00:00", "smokePM_pred": 4.6534705162048304 }, "geometry": { "type": "Polygon", "coordinates": [ [ [ -78.419356263446332, 35.548947189200511 ], [ -78.408880871892194, 35.459998266931748 ], [ -78.51757822633806, 35.451398398471291 ], [ -78.528170170307391, 35.540319208447706 ], [ -78.419356263446332, 35.548947189200511 ] ] ] } },
{ "type": "Feature", "properties": { "ID": 63755, "date": "2022-11-26T00:00:00", "smokePM_pred": 5.0132946968078604 }, "geometry": { "type": "Polygon", "coordinates": [ [ [ -78.538808607551147, 35.629235947665457 ], [ -78.528170170307391, 35.540319208447706 ], [ -78.636937584123231, 35.531594898140035 ], [ -78.647692867019728, 35.620483156405363 ], [ -78.538808607551147, 35.629235947665457 ] ] ] } },
{ "type": "Feature", "properties": { "ID": 63756, "date": "2022-11-26T00:00:00", "smokePM_pred": 4.6195230484008798 }, "geometry": { "type": "Polygon", "coordinates": [ [ [ -78.429877651395657, 35.637892100932753 ], [ -78.419356263446332, 35.548947189200511 ], [ -78.528170170307391, 35.540319208447706 ], [ -78.538808607551147, 35.629235947665457 ], [ -78.429877651395657, 35.637892100932753 ] ] ] } },
{ "type": "Feature", "properties": { "ID": 64270, "date": "2022-11-26T00:00:00", "smokePM_pred": 5.6650800704956001 }, "geometry": { "type": "Polygon", "coordinates": [ [ [ -78.549493741712794, 35.718148599679836 ], [ -78.538808607551147, 35.629235947665457 ], [ -78.647692867019728, 35.620483156405363 ], [ -78.658495344358073, 35.709367266313798 ], [ -78.549493741712794, 35.718148599679836 ] ] ] } },
{ "type": "Feature", "properties": { "ID": 64271, "date": "2022-11-26T00:00:00", "smokePM_pred": 5.3529868125915501 }, "geometry": { "type": "Polygon", "coordinates": [ [ [ -78.440445237353003, 35.726832986012766 ], [ -78.429877651395657, 35.637892100932753 ], [ -78.538808607551147, 35.629235947665457 ], [ -78.549493741712794, 35.718148599679836 ], [ -78.440445237353003, 35.726832986012766 ] ] ] } },
{ "type": "Feature", "properties": { "ID": 64785, "date": "2022-11-26T00:00:00", "smokePM_pred": 8.3883905410766602 }, "geometry": { "type": "Polygon", "coordinates": [ [ [ -78.560225777821771, 35.807057147966333 ], [ -78.549493741712794, 35.718148599679836 ], [ -78.658495344358073, 35.709367266313798 ], [ -78.66934522320031, 35.79824721100681 ], [ -78.560225777821771, 35.807057147966333 ] ] ] } },
{ "type": "Feature", "properties": { "ID": 64786, "date": "2022-11-26T00:00:00", "smokePM_pred": 8.0818290710449201 }, "geometry": { "type": "Polygon", "coordinates": [ [ [ -78.451059224304302, 35.815769828246964 ], [ -78.440445237353003, 35.726832986012766 ], [ -78.549493741712794, 35.718148599679836 ], [ -78.560225777821771, 35.807057147966333 ], [ -78.451059224304302, 35.815769828246964 ] ] ] } },
{ "type": "Feature", "properties": { "ID": 65300, "date": "2022-11-26T00:00:00", "smokePM_pred": 10.277400970459 }, "geometry": { "type": "Polygon", "coordinates": [ [ [ -78.571004922304255, 35.895961575919856 ], [ -78.560225777821771, 35.807057147966333 ], [ -78.66934522320031, 35.79824721100681 ], [ -78.680242712018099, 35.887122973543342 ], [ -78.571004922304255, 35.895961575919856 ] ] ] } },
{ "type": "Feature", "properties": { "ID": 65301, "date": "2022-11-26T00:00:00", "smokePM_pred": 9.3486547470092791 }, "geometry": { "type": "Polygon", "coordinates": [ [ [ -78.461719816619365, 35.904702611363227 ], [ -78.451059224304302, 35.815769828246964 ], [ -78.560225777821771, 35.807057147966333 ], [ -78.571004922304255, 35.895961575919856 ], [ -78.461719816619365, 35.904702611363227 ] ] ] } },
{ "type": "Feature", "properties": { "ID": 168428, "date": "2022-11-26T00:00:00", "smokePM_pred": 4.03810834884644 }, "geometry": { "type": "Polygon", "coordinates": [ [ [ -123.29180887230288, 39.098067031165691 ], [ -123.232586926510535, 39.045504413108482 ], [ -123.299963273108574, 38.999386285234181 ], [ -123.359138404119818, 39.051862976062715 ], [ -123.29180887230288, 39.098067031165691 ] ] ] } },
{ "type": "Feature", "properties": { "ID": 168942, "date": "2022-11-26T00:00:00", "smokePM_pred": 4.6171598434448198 }, "geometry": { "type": "Polygon", "coordinates": [ [ [ -123.418468010293708, 39.104263667008738 ], [ -123.359138404119818, 39.051862976062715 ], [ -123.426313460644323, 39.005665200459909 ], [ -123.485595623191642, 39.057980085321937 ], [ -123.418468010293708, 39.104263667008738 ] ] ] } },
{ "type": "Feature", "properties": { "ID": 168943, "date": "2022-11-26T00:00:00", "smokePM_pred": 3.80494236946106 }, "geometry": { "type": "Polygon", "coordinates": [ [ [ -123.351185704224648, 39.150553651254178 ], [ -123.291808872302965, 39.098067031165634 ], [ -123.359138404119861, 39.051862976062672 ], [ -123.418468010293751, 39.104263667008688 ], [ -123.351185704224648, 39.150553651254178 ] ] ] } },
{ "type": "Feature", "properties": { "ID": 168944, "date": "2022-11-26T00:00:00", "smokePM_pred": 3.30982637405396 }, "geometry": { "type": "Polygon", "coordinates": [ [ [ -123.28374829178658, 39.196849784707837 ], [ -123.224324454227812, 39.144277112511105 ], [ -123.29180887230288, 39.098067031165691 ], [ -123.351185704224562, 39.150553651254228 ], [ -123.28374829178658, 39.196849784707837 ] ] ] } },
{ "type": "Feature", "properties": { "ID": 169457, "date": "2022-11-26T00:00:00", "smokePM_pred": 4.3315358161926296 }, "geometry": { "type": "Polygon", "coordinates": [ [ [ -123.47795230950662, 39.15658810593979 ], [ -123.418468010293708, 39.104263667008738 ], [ -123.485595623191642, 39.057980085321937 ], [ -123.545032066372087, 39.110218717419421 ], [ -123.47795230950662, 39.15658810593979 ] ] ] } },
{ "type": "Feature", "properties": { "ID": 169458, "date": "2022-11-26T00:00:00", "smokePM_pred": 4.3594608306884801 }, "geometry": { "type": "Polygon", "coordinates": [ [ [ -123.410717642383929, 39.202964020705863 ], [ -123.351185704224648, 39.150553651254178 ], [ -123.418468010293751, 39.104263667008688 ], [ -123.477952309506691, 39.156588105939747 ], [ -123.410717642383929, 39.202964020705863 ] ] ] } },
{ "type": "Feature", "properties": { "ID": 197861, "date": "2022-11-26T00:00:00", "smokePM_pred": 1.9396501779556301 }, "geometry": { "type": "Polygon", "coordinates": [ [ [ -121.388479056069187, 45.966073971990745 ], [ -121.315028920266755, 45.911136964672288 ], [ -121.393689635840857, 45.859934661922694 ], [ -121.467086591508121, 45.914774085030281 ], [ -121.388479056069187, 45.966073971990745 ] ] ] } },
{ "type": "Feature", "properties": { "ID": 197862, "date": "2022-11-26T00:00:00", "smokePM_pred": 2.6118261814117401 }, "geometry": { "type": "Polygon", "coordinates": [ [ [ -121.309658089146481, 46.017363229570272 ], [ -121.236155184637084, 45.96232847901635 ], [ -121.315028920266755, 45.911136964672288 ], [ -121.388479056069187, 45.966073971990745 ], [ -121.309658089146481, 46.017363229570272 ] ] ] } },
{ "type": "Feature", "properties": { "ID": 197863, "date": "2022-11-26T00:00:00", "smokePM_pred": 2.63743019104004 }, "geometry": { "type": "Polygon", "coordinates": [ [ [ -121.230623016441854, 46.068641470436951 ], [ -121.157067759126349, 46.013508817818085 ], [ -121.236155184637084, 45.96232847901635 ], [ -121.309658089146481, 46.017363229570272 ], [ -121.230623016441854, 46.068641470436951 ] ] ] } },
{ "type": "Feature", "properties": { "ID": 197864, "date": "2022-11-26T00:00:00", "smokePM_pred": 3.1419982910156201 }, "geometry": { "type": "Polygon", "coordinates": [ [ [ -121.151373162328113, 46.11990830529971 ], [ -121.077765972612752, 46.064677591988534 ], [ -121.157067759126349, 46.013508817818085 ], [ -121.230623016441854, 46.068641470436951 ], [ -121.151373162328113, 46.11990830529971 ] ] ] } },
{ "type": "Feature", "properties": { "ID": 197865, "date": "2022-11-26T00:00:00", "smokePM_pred": 3.0898194313049299 }, "geometry": { "type": "Polygon", "coordinates": [ [ [ -121.071907849863578, 46.171163342902354 ], [ -120.998249152692708, 46.115834410480751 ], [ -121.077765972612752, 46.064677591988534 ], [ -121.151373162328113, 46.11990830529971 ], [ -121.071907849863578, 46.171163342902354 ] ] ] } },
{ "type": "Feature", "properties": { "ID": 198376, "date": "2022-11-26T00:00:00", "smokePM_pred": 2.1028428077697798 }, "geometry": { "type": "Polygon", "coordinates": [ [ [ -121.462142623131442, 46.020919058386283 ], [ -121.388479056069187, 45.966073971990745 ], [ -121.467086591508121, 45.914774085030281 ], [ -121.540696305478207, 45.969521558925919 ], [ -121.462142623131442, 46.020919058386283 ] ] ] } },
{ "type": "Feature", "properties": { "ID": 198377, "date": "2022-11-26T00:00:00", "smokePM_pred": 2.0830740928649898 }, "geometry": { "type": "Polygon", "coordinates": [ [ [ -121.383375099216224, 46.07230608857359 ], [ -121.309658089146481, 46.017363229570272 ], [ -121.388479056069187, 45.966073971990745 ], [ -121.462142623131442, 46.020919058386283 ], [ -121.383375099216224, 46.07230608857359 ] ] ] } },
{ "type": "Feature", "properties": { "ID": 198378, "date": "2022-11-26T00:00:00", "smokePM_pred": 3.1224901676178001 }, "geometry": { "type": "Polygon", "coordinates": [ [ [ -121.304393054947369, 46.123682261967701 ], [ -121.230623016441854, 46.068641470436951 ], [ -121.309658089146481, 46.017363229570272 ], [ -121.383375099216224, 46.07230608857359 ], [ -121.304393054947369, 46.123682261967701 ] ] ] } },
{ "type": "Feature", "properties": { "ID": 198379, "date": "2022-11-26T00:00:00", "smokePM_pred": 2.7455754280090301 }, "geometry": { "type": "Polygon", "coordinates": [ [ [ -121.225195810177709, 46.175047189082306 ], [ -121.151373162328113, 46.11990830529971 ], [ -121.230623016441854, 46.068641470436951 ], [ -121.304393054947369, 46.123682261967701 ], [ -121.225195810177709, 46.175047189082306 ] ] ] } },
{ "type": "Feature", "properties": { "ID": 198380, "date": "2022-11-26T00:00:00", "smokePM_pred": 2.60276103019714 }, "geometry": { "type": "Polygon", "coordinates": [ [ [ -121.145782683412364, 46.226400478458956 ], [ -121.071907849863578, 46.171163342902354 ], [ -121.151373162328113, 46.11990830529971 ], [ -121.225195810177709, 46.175047189082306 ], [ -121.145782683412364, 46.226400478458956 ] ] ] } }
]
}
