{
"type": "FeatureCollection",
"name": "geo_2022-01-09",
"crs": { "type": "name", "properties": { "name": "urn:ogc:def:crs:OGC:1.3:CRS84" } },
"features": [
{ "type": "Feature", "properties": { "ID": 12223, "date": "2022-01-09T00:00:00", "smokePM_pred": 2.45476293563843 }, "geometry": { "type": "Polygon", "coordinates": [ [ [ -80.839337868675869, 26.489315318718081 ], [ -80.830175801275814, 26.400949976049269 ], [ -80.928280854765063, 26.39268572129879 ], [ -80.937514473576215, 26.481019176275495 ], [ -80.839337868675869, 26.489315318718081 ] ] ] } },
{ "type": "Feature", "properties": { "ID": 12224, "date": "2022-01-09T00:00:00", "smokePM_pred": 2.8380486965179399 }, "geometry": { "type": "Polygon", "coordinates": [ [ [ -80.741118804409425, 26.497546268304369 ], [ -80.732028426916983, 26.40914928410897 ], [ -80.830175801275814, 26.400949976049269 ], [ -80.839337868675869, 26.489315318718081 ], [ -80.741118804409425, 26.497546268304369 ] ] ] } },
{ "type": "Feature", "properties": { "ID": 12225, "date": "2022-01-09T00:00:00", "smokePM_pred": 2.5142014026641801 }, "geometry": { "type": "Polygon", "coordinates": [ [ [ -80.642857603008622, 26.505711914353306 ], [ -80.633839052981628, 26.417283535324696 ], [ -80.732028426916983, 26.40914928410897 ], [ -80.741118804409425, 26.497546268304369 ], [ -80.642857603008622, 26.505711914353306 ] ] ] } },
{ "type": "Feature", "properties": { "ID": 12226, "date": "2022-01-09T00:00:00", "smokePM_pred": 2.6055505275726301 }, "geometry": { "type": "Polygon", "coordinates": [ [ [ -80.544554587574396, 26.513812146964643 ], [ -80.535608001626642, 26.425352620320563 ], [ -80.633839052981628, 26.417283535324696 ], [ -80.642857603008622, 26.505711914353306 ], [ -80.544554587574396, 26.513812146964643 ] ] ] } },
{ "type": "Feature", "properties": { "ID": 12227, "date": "2022-01-09T00:00:00", "smokePM_pred": 3.5812060832977299 }, "geometry": { "type": "Polygon", "coordinates": [ [ [ -80.44621008207146, 26.521846857022666 ], [ -80.437335595867296, 26.433356430501696 ], [ -80.535608001626642, 26.425352620320563 ], [ -80.544554587574396, 26.513812146964643 ], [ -80.44621008207146, 26.521846857022666 ] ] ] } },
{ "type": "Feature", "properties": { "ID": 12736, "date": "2022-01-09T00:00:00", "smokePM_pred": 1.3832986354827901 }, "geometry": { "type": "Polygon", "coordinates": [ [ [ -81.044996429893757, 26.560955130926942 ], [ -81.035648297753397, 26.472657952434687 ], [ -81.133739020730275, 26.464231759426951 ], [ -81.143158744087174, 26.552496512489157 ], [ -81.044996429893757, 26.560955130926942 ] ] ] } },
{ "type": "Feature", "properties": { "ID": 12737, "date": "2022-01-09T00:00:00", "smokePM_pred": 1.2863177061080899 }, "geometry": { "type": "Polygon", "coordinates": [ [ [ -80.946790873257214, 26.569348534795946 ], [ -80.937514473576215, 26.481019176275495 ], [ -81.035648297753397, 26.472657952434687 ], [ -81.044996429893757, 26.560955130926942 ], [ -80.946790873257214, 26.569348534795946 ] ] ] } },
{ "type": "Feature", "properties": { "ID": 12738, "date": "2022-01-09T00:00:00", "smokePM_pred": 4.5281996726989702 }, "geometry": { "type": "Polygon", "coordinates": [ [ [ -80.848542395587771, 26.57767661132813 ], [ -80.839337868675869, 26.489315318718081 ], [ -80.937514473576215, 26.481019176275495 ], [ -80.946790873257214, 26.569348534795946 ], [ -80.848542395587771, 26.57767661132813 ] ] ] } },
{ "type": "Feature", "properties": { "ID": 12739, "date": "2022-01-09T00:00:00", "smokePM_pred": 4.0311937332153303 }, "geometry": { "type": "Polygon", "coordinates": [ [ [ -80.750251319181103, 26.585939248532121 ], [ -80.741118804409425, 26.497546268304369 ], [ -80.839337868675869, 26.489315318718081 ], [ -80.848542395587771, 26.57767661132813 ], [ -80.750251319181103, 26.585939248532121 ] ] ] } },
{ "type": "Feature", "properties": { "ID": 12740, "date": "2022-01-09T00:00:00", "smokePM_pred": 1.92129695415497 }, "geometry": { "type": "Polygon", "coordinates": [ [ [ -80.651917967213009, 26.594136335197042 ], [ -80.642857603008622, 26.505711914353306 ], [ -80.741118804409425, 26.497546268304369 ], [ -80.750251319181103, 26.585939248532121 ], [ -80.651917967213009, 26.594136335197042 ] ] ] } },
{ "type": "Feature", "properties": { "ID": 12741, "date": "2022-01-09T00:00:00", "smokePM_pred": 3.8259253501892099 }, "geometry": { "type": "Polygon", "coordinates": [ [ [ -80.553542663733907, 26.60226776089635 ], [ -80.544554587574396, 26.513812146964643 ], [ -80.642857603008622, 26.505711914353306 ], [ -80.651917967213009, 26.594136335197042 ], [ -80.553542663733907, 26.60226776089635 ] ] ] } },
{ "type": "Feature", "properties": { "ID": 12742, "date": "2022-01-09T00:00:00", "smokePM_pred": 3.6355631351471001 }, "geometry": { "type": "Polygon", "coordinates": [ [ [ -80.455125733663451, 26.610333415991551 ], [ -80.44621008207146, 26.521846857022666 ], [ -80.544554587574396, 26.513812146964643 ], [ -80.553542663733907, 26.60226776089635 ], [ -80.455125733663451, 26.610333415991551 ] ] ] } },
{ "type": "Feature", "properties": { "ID": 12743, "date": "2022-01-09T00:00:00", "smokePM_pred": 3.50282502174377 }, "geometry": { "type": "Polygon", "coordinates": [ [ [ -80.356667502784958, 26.618333191635987 ], [ -80.347824411322847, 26.529815936199952 ], [ -80.44621008207146, 26.521846857022666 ], [ -80.455125733663451, 26.610333415991551 ], [ -80.356667502784958, 26.618333191635987 ] ] ] } },
{ "type": "Feature", "properties": { "ID": 13250, "date": "2022-01-09T00:00:00", "smokePM_pred": 1.45058882236481 }, "geometry": { "type": "Polygon", "coordinates": [ [ [ -81.152622030555946, 26.640757056221371 ], [ -81.143158744087174, 26.552496512489157 ], [ -81.241277495318087, 26.543972793023485 ], [ -81.250812550457184, 26.632200618906467 ], [ -81.152622030555946, 26.640757056221371 ] ] ] } },
{ "type": "Feature", "properties": { "ID": 13251, "date": "2022-01-09T00:00:00", "smokePM_pred": 1.1970728635787999 }, "geometry": { "type": "Polygon", "coordinates": [ [ [ -81.054387804625676, 26.649248147344842 ], [ -81.044996429893757, 26.560955130926942 ], [ -81.143158744087174, 26.552496512489157 ], [ -81.152622030555946, 26.640757056221371 ], [ -81.054387804625676, 26.649248147344842 ] ] ] } },
{ "type": "Feature", "properties": { "ID": 13252, "date": "2022-01-09T00:00:00", "smokePM_pred": 2.3024961948394802 }, "geometry": { "type": "Polygon", "coordinates": [ [ [ -80.956110194118679, 26.657673778193775 ], [ -80.946790873257214, 26.569348534795946 ], [ -81.044996429893757, 26.560955130926942 ], [ -81.054387804625676, 26.649248147344842 ], [ -80.956110194118679, 26.657673778193775 ] ] ] } },
{ "type": "Feature", "properties": { "ID": 13253, "date": "2022-01-09T00:00:00", "smokePM_pred": 2.73317193984985 }, "geometry": { "type": "Polygon", "coordinates": [ [ [ -80.85778952138358, 26.666033835461391 ], [ -80.848542395587771, 26.57767661132813 ], [ -80.946790873257214, 26.569348534795946 ], [ -80.956110194118679, 26.657673778193775 ], [ -80.85778952138358, 26.666033835461391 ] ] ] } },
{ "type": "Feature", "properties": { "ID": 13254, "date": "2022-01-09T00:00:00", "smokePM_pred": 4.79819536209106 }, "geometry": { "type": "Polygon", "coordinates": [ [ [ -80.759426109660012, 26.674328206621063 ], [ -80.750251319181103, 26.585939248532121 ], [ -80.848542395587771, 26.57767661132813 ], [ -80.85778952138358, 26.666033835461391 ], [ -80.759426109660012, 26.674328206621063 ] ] ] } },
{ "type": "Feature", "properties": { "ID": 13255, "date": "2022-01-09T00:00:00", "smokePM_pred": 1.43558025360107 }, "geometry": { "type": "Polygon", "coordinates": [ [ [ -80.661020283073256, 26.682556779930138 ], [ -80.651917967213009, 26.594136335197042 ], [ -80.750251319181103, 26.585939248532121 ], [ -80.759426109660012, 26.674328206621063 ], [ -80.661020283073256, 26.682556779930138 ] ] ] } },
{ "type": "Feature", "properties": { "ID": 13256, "date": "2022-01-09T00:00:00", "smokePM_pred": 1.36174356937408 }, "geometry": { "type": "Polygon", "coordinates": [ [ [ -80.562572366628714, 26.690719444433785 ], [ -80.553542663733907, 26.60226776089635 ], [ -80.651917967213009, 26.594136335197042 ], [ -80.661020283073256, 26.682556779930138 ], [ -80.562572366628714, 26.690719444433785 ] ] ] } },
{ "type": "Feature", "properties": { "ID": 13257, "date": "2022-01-09T00:00:00", "smokePM_pred": 3.1346728801727299 }, "geometry": { "type": "Polygon", "coordinates": [ [ [ -80.464082686206496, 26.698816089968798 ], [ -80.455125733663451, 26.610333415991551 ], [ -80.553542663733907, 26.60226776089635 ], [ -80.562572366628714, 26.690719444433785 ], [ -80.464082686206496, 26.698816089968798 ] ] ] } },
{ "type": "Feature", "properties": { "ID": 13258, "date": "2022-01-09T00:00:00", "smokePM_pred": 1.0731714963912999 }, "geometry": { "type": "Polygon", "coordinates": [ [ [ -80.365551568555787, 26.706846607167336 ], [ -80.356667502784958, 26.618333191635987 ], [ -80.455125733663451, 26.610333415991551 ], [ -80.464082686206496, 26.698816089968798 ], [ -80.365551568555787, 26.706846607167336 ] ] ] } },
{ "type": "Feature", "properties": { "ID": 13765, "date": "2022-01-09T00:00:00", "smokePM_pred": 0.98557800054550204 }, "geometry": { "type": "Polygon", "coordinates": [ [ [ -81.162129023203988, 26.729013371387506 ], [ -81.152622030555946, 26.640757056221371 ], [ -81.250812550457184, 26.632200618906467 ], [ -81.260391632327043, 26.720424168411963 ], [ -81.162129023203988, 26.729013371387506 ] ] ] } },
{ "type": "Feature", "properties": { "ID": 13766, "date": "2022-01-09T00:00:00", "smokePM_pred": 1.11166596412659 }, "geometry": { "type": "Polygon", "coordinates": [ [ [ -81.063822564083765, 26.737536982704704 ], [ -81.054387804625676, 26.649248147344842 ], [ -81.152622030555946, 26.640757056221371 ], [ -81.162129023203988, 26.729013371387506 ], [ -81.063822564083765, 26.737536982704704 ] ] ] } },
{ "type": "Feature", "properties": { "ID": 13767, "date": "2022-01-09T00:00:00", "smokePM_pred": 1.76120901107788 }, "geometry": { "type": "Polygon", "coordinates": [ [ [ -80.965472577356778, 26.745994887736284 ], [ -80.956110194118679, 26.657673778193775 ], [ -81.054387804625676, 26.649248147344842 ], [ -81.063822564083765, 26.737536982704704 ], [ -80.965472577356778, 26.745994887736284 ] ] ] } },
{ "type": "Feature", "properties": { "ID": 13768, "date": "2022-01-09T00:00:00", "smokePM_pred": 0.82368141412734996 }, "geometry": { "type": "Polygon", "coordinates": [ [ [ -80.867079386315453, 26.754386972634705 ], [ -80.85778952138358, 26.666033835461391 ], [ -80.956110194118679, 26.657673778193775 ], [ -80.965472577356778, 26.745994887736284 ], [ -80.867079386315453, 26.754386972634705 ] ] ] } },
{ "type": "Feature", "properties": { "ID": 13769, "date": "2022-01-09T00:00:00", "smokePM_pred": 1.0136073827743499 }, "geometry": { "type": "Polygon", "coordinates": [ [ [ -80.768643315148807, 26.762713124336059 ], [ -80.759426109660012, 26.674328206621063 ], [ -80.85778952138358, 26.666033835461391 ], [ -80.867079386315453, 26.754386972634705 ], [ -80.768643315148807, 26.762713124336059 ] ] ] } },
{ "type": "Feature", "properties": { "ID": 13770, "date": "2022-01-09T00:00:00", "smokePM_pred": 0.77281022071838401 }, "geometry": { "type": "Polygon", "coordinates": [ [ [ -80.670164688937049, 26.770973230563964 ], [ -80.661020283073256, 26.682556779930138 ], [ -80.759426109660012, 26.674328206621063 ], [ -80.768643315148807, 26.762713124336059 ], [ -80.670164688937049, 26.770973230563964 ] ] ] } },
{ "type": "Feature", "properties": { "ID": 13771, "date": "2022-01-09T00:00:00", "smokePM_pred": 1.43278396129608 }, "geometry": { "type": "Polygon", "coordinates": [ [ [ -80.571643833646078, 26.779167179833326 ], [ -80.562572366628714, 26.690719444433785 ], [ -80.661020283073256, 26.682556779930138 ], [ -80.670164688937049, 26.770973230563964 ], [ -80.571643833646078, 26.779167179833326 ] ] ] } },
{ "type": "Feature", "properties": { "ID": 13772, "date": "2022-01-09T00:00:00", "smokePM_pred": 1.63436019420624 }, "geometry": { "type": "Polygon", "coordinates": [ [ [ -80.473081076121957, 26.787294861454249 ], [ -80.464082686206496, 26.698816089968798 ], [ -80.562572366628714, 26.690719444433785 ], [ -80.571643833646078, 26.779167179833326 ], [ -80.473081076121957, 26.787294861454249 ] ] ] } },
{ "type": "Feature", "properties": { "ID": 13773, "date": "2022-01-09T00:00:00", "smokePM_pred": 1.2443429231643699 }, "geometry": { "type": "Polygon", "coordinates": [ [ [ -80.374476744085356, 26.795356165535779 ], [ -80.365551568555787, 26.706846607167336 ], [ -80.464082686206496, 26.698816089968798 ], [ -80.473081076121957, 26.787294861454249 ], [ -80.374476744085356, 26.795356165535779 ] ] ] } },
{ "type": "Feature", "properties": { "ID": 13774, "date": "2022-01-09T00:00:00", "smokePM_pred": 0.91336458921432495 }, "geometry": { "type": "Polygon", "coordinates": [ [ [ -80.275831166125883, 26.803350982989688 ], [ -80.266979341289257, 26.714810887460704 ], [ -80.365551568555787, 26.706846607167336 ], [ -80.374476744085356, 26.795356165535779 ], [ -80.275831166125883, 26.803350982989688 ] ] ] } },
{ "type": "Feature", "properties": { "ID": 14280, "date": "2022-01-09T00:00:00", "smokePM_pred": 0.97495818138122603 }, "geometry": { "type": "Polygon", "coordinates": [ [ [ -81.171679866000446, 26.817265438682266 ], [ -81.162129023203988, 26.729013371387506 ], [ -81.260391632327043, 26.720424168411963 ], [ -81.270014885829255, 26.808643421979607 ], [ -81.171679866000446, 26.817265438682266 ] ] ] } },
{ "type": "Feature", "properties": { "ID": 14281, "date": "2022-01-09T00:00:00", "smokePM_pred": 1.0330178737640401 }, "geometry": { "type": "Polygon", "coordinates": [ [ [ -81.073300851298939, 26.82582161795488 ], [ -81.063822564083765, 26.737536982704704 ], [ -81.162129023203988, 26.729013371387506 ], [ -81.171679866000446, 26.817265438682266 ], [ -81.073300851298939, 26.82582161795488 ] ] ] } },
{ "type": "Feature", "properties": { "ID": 14282, "date": "2022-01-09T00:00:00", "smokePM_pred": 0.96625447273254395 }, "geometry": { "type": "Polygon", "coordinates": [ [ [ -80.974878165058641, 26.834311844623951 ], [ -80.965472577356778, 26.745994887736284 ], [ -81.063822564083765, 26.737536982704704 ], [ -81.073300851298939, 26.82582161795488 ], [ -80.974878165058641, 26.834311844623951 ] ] ] } },
{ "type": "Feature", "properties": { "ID": 14283, "date": "2022-01-09T00:00:00", "smokePM_pred": 0.99002194404601995 }, "geometry": { "type": "Polygon", "coordinates": [ [ [ -80.876412131521164, 26.842736004299191 ], [ -80.867079386315453, 26.754386972634705 ], [ -80.965472577356778, 26.745994887736284 ], [ -80.974878165058641, 26.834311844623951 ], [ -80.876412131521164, 26.842736004299191 ] ] ] } },
{ "type": "Feature", "properties": { "ID": 14284, "date": "2022-01-09T00:00:00", "smokePM_pred": 4.2328143119812003 }, "geometry": { "type": "Polygon", "coordinates": [ [ [ -80.777903075830324, 26.851093983377435 ], [ -80.768643315148807, 26.762713124336059 ], [ -80.867079386315453, 26.754386972634705 ], [ -80.876412131521164, 26.842736004299191 ], [ -80.777903075830324, 26.851093983377435 ] ] ] } },
{ "type": "Feature", "properties": { "ID": 14285, "date": "2022-01-09T00:00:00", "smokePM_pred": 1.31075274944305 }, "geometry": { "type": "Polygon", "coordinates": [ [ [ -80.679351324026754, 26.859385669046503 ], [ -80.670164688937049, 26.770973230563964 ], [ -80.768643315148807, 26.762713124336059 ], [ -80.777903075830324, 26.851093983377435 ], [ -80.679351324026754, 26.859385669046503 ] ] ] } },
{ "type": "Feature", "properties": { "ID": 14286, "date": "2022-01-09T00:00:00", "smokePM_pred": 0.80733644962310802 }, "geometry": { "type": "Polygon", "coordinates": [ [ [ -80.580757203042353, 26.867610949289102 ], [ -80.571643833646078, 26.779167179833326 ], [ -80.670164688937049, 26.770973230563964 ], [ -80.679351324026754, 26.859385669046503 ], [ -80.580757203042353, 26.867610949289102 ] ] ] } },
{ "type": "Feature", "properties": { "ID": 14287, "date": "2022-01-09T00:00:00", "smokePM_pred": 3.5486571788787802 }, "geometry": { "type": "Polygon", "coordinates": [ [ [ -80.482121040694764, 26.875769712886665 ], [ -80.473081076121957, 26.787294861454249 ], [ -80.571643833646078, 26.779167179833326 ], [ -80.580757203042353, 26.867610949289102 ], [ -80.482121040694764, 26.875769712886665 ] ] ] } },
{ "type": "Feature", "properties": { "ID": 14288, "date": "2022-01-09T00:00:00", "smokePM_pred": 3.51998019218445 }, "geometry": { "type": "Polygon", "coordinates": [ [ [ -80.383443165681683, 26.883861849423127 ], [ -80.374476744085356, 26.795356165535779 ], [ -80.473081076121957, 26.787294861454249 ], [ -80.482121040694764, 26.875769712886665 ], [ -80.383443165681683, 26.883861849423127 ] ] ] } },
{ "type": "Feature", "properties": { "ID": 14289, "date": "2022-01-09T00:00:00", "smokePM_pred": 0.85324740409851096 }, "geometry": { "type": "Polygon", "coordinates": [ [ [ -80.284723907575355, 26.891887249288807 ], [ -80.275831166125883, 26.803350982989688 ], [ -80.374476744085356, 26.795356165535779 ], [ -80.383443165681683, 26.883861849423127 ], [ -80.284723907575355, 26.891887249288807 ] ] ] } },
{ "type": "Feature", "properties": { "ID": 14794, "date": "2022-01-09T00:00:00", "smokePM_pred": 1.06719934940338 }, "geometry": { "type": "Polygon", "coordinates": [ [ [ -81.279682456778147, 26.896858359978122 ], [ -81.270014885829255, 26.808643421979607 ], [ -81.36830558836445, 26.799955683799698 ], [ -81.378045745709187, 26.888137514222166 ], [ -81.279682456778147, 26.896858359978122 ] ] ] } },
{ "type": "Feature", "properties": { "ID": 14795, "date": "2022-01-09T00:00:00", "smokePM_pred": 1.6832302808761599 }, "geometry": { "type": "Polygon", "coordinates": [ [ [ -81.181274703821785, 26.905513238730602 ], [ -81.171679866000446, 26.817265438682266 ], [ -81.270014885829255, 26.808643421979607 ], [ -81.279682456778147, 26.896858359978122 ], [ -81.181274703821785, 26.905513238730602 ] ] ] } },
{ "type": "Feature", "properties": { "ID": 14796, "date": "2022-01-09T00:00:00", "smokePM_pred": 0.87112885713577304 }, "geometry": { "type": "Polygon", "coordinates": [ [ [ -81.082822810204178, 26.914102033975102 ], [ -81.073300851298939, 26.82582161795488 ], [ -81.171679866000446, 26.817265438682266 ], [ -81.181274703821785, 26.905513238730602 ], [ -81.082822810204178, 26.914102033975102 ] ] ] } },
{ "type": "Feature", "properties": { "ID": 14797, "date": "2022-01-09T00:00:00", "smokePM_pred": 3.5388991832733199 }, "geometry": { "type": "Polygon", "coordinates": [ [ [ -80.984327100208077, 26.922624629989862 ], [ -80.974878165058641, 26.834311844623951 ], [ -81.073300851298939, 26.82582161795488 ], [ -81.082822810204178, 26.914102033975102 ], [ -80.984327100208077, 26.922624629989862 ] ] ] } },
{ "type": "Feature", "properties": { "ID": 14798, "date": "2022-01-09T00:00:00", "smokePM_pred": 2.4229493141174299 }, "geometry": { "type": "Polygon", "coordinates": [ [ [ -80.88578789902968, 26.931080911839789 ], [ -80.876412131521164, 26.842736004299191 ], [ -80.974878165058641, 26.834311844623951 ], [ -80.984327100208077, 26.922624629989862 ], [ -80.88578789902968, 26.931080911839789 ] ] ] } },
{ "type": "Feature", "properties": { "ID": 14799, "date": "2022-01-09T00:00:00", "smokePM_pred": 2.13332962989807 }, "geometry": { "type": "Polygon", "coordinates": [ [ [ -80.787205532773115, 26.939470765380428 ], [ -80.777903075830324, 26.851093983377435 ], [ -80.876412131521164, 26.842736004299191 ], [ -80.88578789902968, 26.931080911839789 ], [ -80.787205532773115, 26.939470765380428 ] ] ] } },
{ "type": "Feature", "properties": { "ID": 14800, "date": "2022-01-09T00:00:00", "smokePM_pred": 2.6870286464691202 }, "geometry": { "type": "Polygon", "coordinates": [ [ [ -80.6885803284449, 26.94779407726184 ], [ -80.679351324026754, 26.859385669046503 ], [ -80.777903075830324, 26.851093983377435 ], [ -80.787205532773115, 26.939470765380428 ], [ -80.6885803284449, 26.94779407726184 ] ] ] } },
{ "type": "Feature", "properties": { "ID": 14801, "date": "2022-01-09T00:00:00", "smokePM_pred": 1.4691081047058101 }, "geometry": { "type": "Polygon", "coordinates": [ [ [ -80.589912613948528, 26.956050734932504 ], [ -80.580757203042353, 26.867610949289102 ], [ -80.679351324026754, 26.859385669046503 ], [ -80.6885803284449, 26.94779407726184 ], [ -80.589912613948528, 26.956050734932504 ] ] ] } },
{ "type": "Feature", "properties": { "ID": 14802, "date": "2022-01-09T00:00:00", "smokePM_pred": 2.4691016674041699 }, "geometry": { "type": "Polygon", "coordinates": [ [ [ -80.491202718078767, 26.964240626643164 ], [ -80.482121040694764, 26.875769712886665 ], [ -80.580757203042353, 26.867610949289102 ], [ -80.589912613948528, 26.956050734932504 ], [ -80.491202718078767, 26.964240626643164 ] ] ] } },
{ "type": "Feature", "properties": { "ID": 14803, "date": "2022-01-09T00:00:00", "smokePM_pred": 3.6694979667663601 }, "geometry": { "type": "Polygon", "coordinates": [ [ [ -80.39245097051608, 26.972363641450734 ], [ -80.383443165681683, 26.883861849423127 ], [ -80.482121040694764, 26.875769712886665 ], [ -80.491202718078767, 26.964240626643164 ], [ -80.39245097051608, 26.972363641450734 ] ] ] } },
{ "type": "Feature", "properties": { "ID": 14804, "date": "2022-01-09T00:00:00", "smokePM_pred": 0.98101043701171897 }, "geometry": { "type": "Polygon", "coordinates": [ [ [ -80.293657701820962, 26.980419669222055 ], [ -80.284723907575355, 26.891887249288807 ], [ -80.383443165681683, 26.883861849423127 ], [ -80.39245097051608, 26.972363641450734 ], [ -80.293657701820962, 26.980419669222055 ] ] ] } },
{ "type": "Feature", "properties": { "ID": 15310, "date": "2022-01-09T00:00:00", "smokePM_pred": 0.93453639745712302 }, "geometry": { "type": "Polygon", "coordinates": [ [ [ -81.190913682457534, 26.993756752087137 ], [ -81.181274703821785, 26.905513238730602 ], [ -81.279682456778147, 26.896858359978122 ], [ -81.28939449190635, 26.985068962704684 ], [ -81.190913682457534, 26.993756752087137 ] ] ] } },
{ "type": "Feature", "properties": { "ID": 15311, "date": "2022-01-09T00:00:00", "smokePM_pred": 0.73957842588424705 }, "geometry": { "type": "Polygon", "coordinates": [ [ [ -81.092388585640109, 27.002378211575977 ], [ -81.082822810204178, 26.914102033975102 ], [ -81.181274703821785, 26.905513238730602 ], [ -81.190913682457534, 26.993756752087137 ], [ -81.092388585640109, 27.002378211575977 ] ] ] } },
{ "type": "Feature", "properties": { "ID": 15312, "date": "2022-01-09T00:00:00", "smokePM_pred": 0.979217529296875 }, "geometry": { "type": "Polygon", "coordinates": [ [ [ -80.993819526691126, 27.010933224899105 ], [ -80.984327100208077, 26.922624629989862 ], [ -81.082822810204178, 26.914102033975102 ], [ -81.092388585640109, 27.002378211575977 ], [ -80.993819526691126, 27.010933224899105 ] ] ] } },
{ "type": "Feature", "properties": { "ID": 15313, "date": "2022-01-09T00:00:00", "smokePM_pred": 2.03418970108032 }, "geometry": { "type": "Polygon", "coordinates": [ [ [ -80.895206831766814, 27.019421676574609 ], [ -80.88578789902968, 26.931080911839789 ], [ -80.984327100208077, 26.922624629989862 ], [ -80.993819526691126, 27.010933224899105 ], [ -80.895206831766814, 27.019421676574609 ] ] ] } },
{ "type": "Feature", "properties": { "ID": 15314, "date": "2022-01-09T00:00:00", "smokePM_pred": 2.12111115455627 }, "geometry": { "type": "Polygon", "coordinates": [ [ [ -80.796550827937011, 27.027843451914688 ], [ -80.787205532773115, 26.939470765380428 ], [ -80.88578789902968, 26.931080911839789 ], [ -80.895206831766814, 27.019421676574609 ], [ -80.796550827937011, 27.027843451914688 ] ] ] } },
{ "type": "Feature", "properties": { "ID": 15315, "date": "2022-01-09T00:00:00", "smokePM_pred": 1.77475798130035 }, "geometry": { "type": "Polygon", "coordinates": [ [ [ -80.697851843179777, 27.036198437029611 ], [ -80.6885803284449, 26.94779407726184 ], [ -80.787205532773115, 26.939470765380428 ], [ -80.796550827937011, 27.027843451914688 ], [ -80.697851843179777, 27.036198437029611 ] ] ] } },
{ "type": "Feature", "properties": { "ID": 15316, "date": "2022-01-09T00:00:00", "smokePM_pred": 1.2705390453338601 }, "geometry": { "type": "Polygon", "coordinates": [ [ [ -80.599110206375698, 27.044486518831611 ], [ -80.589912613948528, 26.956050734932504 ], [ -80.6885803284449, 26.94779407726184 ], [ -80.697851843179777, 27.036198437029611 ], [ -80.599110206375698, 27.044486518831611 ] ] ] } },
{ "type": "Feature", "properties": { "ID": 15317, "date": "2022-01-09T00:00:00", "smokePM_pred": 0.62158799171447798 }, "geometry": { "type": "Polygon", "coordinates": [ [ [ -80.50032624730234, 27.052707585038792 ], [ -80.491202718078767, 26.964240626643164 ], [ -80.589912613948528, 26.956050734932504 ], [ -80.599110206375698, 27.044486518831611 ], [ -80.50032624730234, 27.052707585038792 ] ] ] } },
{ "type": "Feature", "properties": { "ID": 15318, "date": "2022-01-09T00:00:00", "smokePM_pred": 0.41824129223823497 }, "geometry": { "type": "Polygon", "coordinates": [ [ [ -80.401500296628626, 27.060861524178971 ], [ -80.39245097051608, 26.972363641450734 ], [ -80.491202718078767, 26.964240626643164 ], [ -80.50032624730234, 27.052707585038792 ], [ -80.401500296628626, 27.060861524178971 ] ] ] } },
{ "type": "Feature", "properties": { "ID": 15825, "date": "2022-01-09T00:00:00", "smokePM_pred": 0.91297870874404896 }, "geometry": { "type": "Polygon", "coordinates": [ [ [ -81.200596948615996, 27.081995959235599 ], [ -81.190913682457534, 26.993756752087137 ], [ -81.28939449190635, 26.985068962704684 ], [ -81.29915113887067, 27.073275210384367 ], [ -81.200596948615996, 27.081995959235599 ] ] ] } },
{ "type": "Feature", "properties": { "ID": 15826, "date": "2022-01-09T00:00:00", "smokePM_pred": 1.13179790973663 }, "geometry": { "type": "Polygon", "coordinates": [ [ [ -81.101998323360789, 27.090650131498407 ], [ -81.092388585640109, 27.002378211575977 ], [ -81.190913682457534, 26.993756752087137 ], [ -81.200596948615996, 27.081995959235599 ], [ -81.101998323360789, 27.090650131498407 ] ] ] } },
{ "type": "Feature", "properties": { "ID": 15827, "date": "2022-01-09T00:00:00", "smokePM_pred": 0.92835271358490001 }, "geometry": { "type": "Polygon", "coordinates": [ [ [ -81.003355589301805, 27.099237610348286 ], [ -80.993819526691126, 27.010933224899105 ], [ -81.092388585640109, 27.002378211575977 ], [ -81.101998323360789, 27.090650131498407 ], [ -81.003355589301805, 27.099237610348286 ] ] ] } },
{ "type": "Feature", "properties": { "ID": 15828, "date": "2022-01-09T00:00:00", "smokePM_pred": 1.67667889595032 }, "geometry": { "type": "Polygon", "coordinates": [ [ [ -80.904669073560754, 27.107758279754453 ], [ -80.895206831766814, 27.019421676574609 ], [ -80.993819526691126, 27.010933224899105 ], [ -81.003355589301805, 27.099237610348286 ], [ -80.904669073560754, 27.107758279754453 ] ] ] } },
{ "type": "Feature", "properties": { "ID": 15829, "date": "2022-01-09T00:00:00", "smokePM_pred": 1.43151330947876 }, "geometry": { "type": "Polygon", "coordinates": [ [ [ -80.805939104178805, 27.116212024483694 ], [ -80.796550827937011, 27.027843451914688 ], [ -80.895206831766814, 27.019421676574609 ], [ -80.904669073560754, 27.107758279754453 ], [ -80.805939104178805, 27.116212024483694 ] ] ] } },
{ "type": "Feature", "properties": { "ID": 15830, "date": "2022-01-09T00:00:00", "smokePM_pred": 1.6649194955825799 }, "geometry": { "type": "Polygon", "coordinates": [ [ [ -80.707166010110996, 27.12459873010447 ], [ -80.697851843179777, 27.036198437029611 ], [ -80.796550827937011, 27.027843451914688 ], [ -80.805939104178805, 27.116212024483694 ], [ -80.707166010110996, 27.12459873010447 ] ] ] } },
{ "type": "Feature", "properties": { "ID": 15831, "date": "2022-01-09T00:00:00", "smokePM_pred": 0.97774034738540605 }, "geometry": { "type": "Polygon", "coordinates": [ [ [ -80.608350121220681, 27.132918282990726 ], [ -80.599110206375698, 27.044486518831611 ], [ -80.697851843179777, 27.036198437029611 ], [ -80.707166010110996, 27.12459873010447 ], [ -80.608350121220681, 27.132918282990726 ] ] ] } },
{ "type": "Feature", "properties": { "ID": 15832, "date": "2022-01-09T00:00:00", "smokePM_pred": 0.76868820190429699 }, "geometry": { "type": "Polygon", "coordinates": [ [ [ -80.509491768273932, 27.141170570325887 ], [ -80.50032624730234, 27.052707585038792 ], [ -80.599110206375698, 27.044486518831611 ], [ -80.608350121220681, 27.132918282990726 ], [ -80.509491768273932, 27.141170570325887 ] ] ] } },
{ "type": "Feature", "properties": { "ID": 16341, "date": "2022-01-09T00:00:00", "smokePM_pred": 1.22827076911926 }, "geometry": { "type": "Polygon", "coordinates": [ [ [ -81.111652170039392, 27.17891777441298 ], [ -81.101998323360789, 27.090650131498407 ], [ -81.200596948615996, 27.081995959235599 ], [ -81.210324649930044, 27.170230840588218 ], [ -81.111652170039392, 27.17891777441298 ] ] ] } },
{ "type": "Feature", "properties": { "ID": 16342, "date": "2022-01-09T00:00:00", "smokePM_pred": 0.87314695119857799 }, "geometry": { "type": "Polygon", "coordinates": [ [ [ -81.012935433747785, 27.187537767264903 ], [ -81.003355589301805, 27.099237610348286 ], [ -81.101998323360789, 27.090650131498407 ], [ -81.111652170039392, 27.17891777441298 ], [ -81.012935433747785, 27.187537767264903 ] ] ] } },
{ "type": "Feature", "properties": { "ID": 16343, "date": "2022-01-09T00:00:00", "smokePM_pred": 1.1770672798156701 }, "geometry": { "type": "Polygon", "coordinates": [ [ [ -80.914174769147934, 27.196090702562188 ], [ -80.904669073560754, 27.107758279754453 ], [ -81.003355589301805, 27.099237610348286 ], [ -81.012935433747785, 27.187537767264903 ], [ -80.914174769147934, 27.196090702562188 ] ] ] } },
{ "type": "Feature", "properties": { "ID": 16344, "date": "2022-01-09T00:00:00", "smokePM_pred": 0.76505863666534402 }, "geometry": { "type": "Polygon", "coordinates": [ [ [ -80.815370505257832, 27.204576464524227 ], [ -80.805939104178805, 27.116212024483694 ], [ -80.904669073560754, 27.107758279754453 ], [ -80.914174769147934, 27.196090702562188 ], [ -80.815370505257832, 27.204576464524227 ] ] ] } },
{ "type": "Feature", "properties": { "ID": 16345, "date": "2022-01-09T00:00:00", "smokePM_pred": 0.95265907049179099 }, "geometry": { "type": "Polygon", "coordinates": [ [ [ -80.716522972015142, 27.212994938175537 ], [ -80.707166010110996, 27.12459873010447 ], [ -80.805939104178805, 27.116212024483694 ], [ -80.815370505257832, 27.204576464524227 ], [ -80.716522972015142, 27.212994938175537 ] ] ] } },
{ "type": "Feature", "properties": { "ID": 22864, "date": "2022-01-09T00:00:00", "smokePM_pred": 2.79489302635193 }, "geometry": { "type": "Polygon", "coordinates": [ [ [ -97.45614206753163, 25.855840161837193 ], [ -97.435434093859982, 25.776490281936866 ], [ -97.523038602512258, 25.757760074191069 ], [ -97.543787783715274, 25.837043952073589 ], [ -97.45614206753163, 25.855840161837193 ] ] ] } },
{ "type": "Feature", "properties": { "ID": 22865, "date": "2022-01-09T00:00:00", "smokePM_pred": 2.7949340343475302 }, "geometry": { "type": "Polygon", "coordinates": [ [ [ -97.368409355058802, 25.874595908630312 ], [ -97.347742823790014, 25.795180148489685 ], [ -97.435434093859982, 25.776490281936866 ], [ -97.45614206753163, 25.855840161837193 ], [ -97.368409355058802, 25.874595908630312 ] ] ] } },
{ "type": "Feature", "properties": { "ID": 22866, "date": "2022-01-09T00:00:00", "smokePM_pred": 3.29214715957642 }, "geometry": { "type": "Polygon", "coordinates": [ [ [ -97.280589774407531, 25.893310995888839 ], [ -97.2599649205399, 25.813829478084013 ], [ -97.347742823790014, 25.795180148489685 ], [ -97.368409355058802, 25.874595908630312 ], [ -97.280589774407531, 25.893310995888839 ] ] ] } },
{ "type": "Feature", "properties": { "ID": 22868, "date": "2022-01-09T00:00:00", "smokePM_pred": 5.1810178756713903 }, "geometry": { "type": "Polygon", "coordinates": [ [ [ -97.104690527112439, 25.930618405583797 ], [ -97.084149733522921, 25.851005743377328 ], [ -97.172100513561389, 25.832438074961921 ], [ -97.192683454907993, 25.911985227055442 ], [ -97.104690527112439, 25.930618405583797 ] ] ] } },
{ "type": "Feature", "properties": { "ID": 23378, "date": "2022-01-09T00:00:00", "smokePM_pred": 2.7980611324310298 }, "geometry": { "type": "Polygon", "coordinates": [ [ [ -97.564624088303702, 25.916311382339028 ], [ -97.543787783715274, 25.837043952073589 ], [ -97.631346376715896, 25.818207475906139 ], [ -97.652223779775397, 25.897408710526115 ], [ -97.564624088303702, 25.916311382339028 ] ] ] } },
{ "type": "Feature", "properties": { "ID": 23379, "date": "2022-01-09T00:00:00", "smokePM_pred": 2.5494427680969198 }, "geometry": { "type": "Polygon", "coordinates": [ [ [ -97.476937037695279, 25.935173666853487 ], [ -97.45614206753163, 25.855840161837193 ], [ -97.543787783715274, 25.837043952073589 ], [ -97.564624088303702, 25.916311382339028 ], [ -97.476937037695279, 25.935173666853487 ] ] ] } },
{ "type": "Feature", "properties": { "ID": 23380, "date": "2022-01-09T00:00:00", "smokePM_pred": 2.64201831817627 }, "geometry": { "type": "Polygon", "coordinates": [ [ [ -97.38916275470929, 25.95399536670319 ], [ -97.368409355058802, 25.874595908630312 ], [ -97.45614206753163, 25.855840161837193 ], [ -97.476937037695279, 25.935173666853487 ], [ -97.38916275470929, 25.95399536670319 ] ] ] } },
{ "type": "Feature", "properties": { "ID": 23381, "date": "2022-01-09T00:00:00", "smokePM_pred": 3.4278635978698699 }, "geometry": { "type": "Polygon", "coordinates": [ [ [ -97.301301367327071, 25.972776284523526 ], [ -97.280589774407531, 25.893310995888839 ], [ -97.368409355058802, 25.874595908630312 ], [ -97.38916275470929, 25.95399536670319 ], [ -97.301301367327071, 25.972776284523526 ] ] ] } },
{ "type": "Feature", "properties": { "ID": 23382, "date": "2022-01-09T00:00:00", "smokePM_pred": 5.0734777450561497 }, "geometry": { "type": "Polygon", "coordinates": [ [ [ -97.213353004754694, 25.991516222955845 ], [ -97.192683454907993, 25.911985227055442 ], [ -97.280589774407531, 25.893310995888839 ], [ -97.301301367327071, 25.972776284523526 ], [ -97.213353004754694, 25.991516222955845 ] ] ] } },
{ "type": "Feature", "properties": { "ID": 23383, "date": "2022-01-09T00:00:00", "smokePM_pred": 5.8074636459350604 }, "geometry": { "type": "Polygon", "coordinates": [ [ [ -97.125317797425666, 26.010214984651682 ], [ -97.104690527112439, 25.930618405583797 ], [ -97.192683454907993, 25.911985227055442 ], [ -97.213353004754694, 25.991516222955845 ], [ -97.125317797425666, 26.010214984651682 ] ] ] } },
{ "type": "Feature", "properties": { "ID": 23384, "date": "2022-01-09T00:00:00", "smokePM_pred": 5.9548745155334499 }, "geometry": { "type": "Polygon", "coordinates": [ [ [ -97.037195877003398, 26.028872372277092 ], [ -97.016611122797684, 25.949210334942915 ], [ -97.104690527112439, 25.930618405583797 ], [ -97.125317797425666, 26.010214984651682 ], [ -97.037195877003398, 26.028872372277092 ] ] ] } },
{ "type": "Feature", "properties": { "ID": 23893, "date": "2022-01-09T00:00:00", "smokePM_pred": 2.74357962608337 }, "geometry": { "type": "Polygon", "coordinates": [ [ [ -97.585547752232102, 25.995562287562585 ], [ -97.564624088303702, 25.916311382339028 ], [ -97.652223779775397, 25.897408710526115 ], [ -97.673188667714115, 25.976593347149823 ], [ -97.585547752232102, 25.995562287562585 ] ] ] } },
{ "type": "Feature", "properties": { "ID": 23894, "date": "2022-01-09T00:00:00", "smokePM_pred": 2.5597946643829301 }, "geometry": { "type": "Polygon", "coordinates": [ [ [ -97.49781924044018, 26.014490719868359 ], [ -97.476937037695279, 25.935173666853487 ], [ -97.564624088303702, 25.916311382339028 ], [ -97.585547752232102, 25.995562287562585 ], [ -97.49781924044018, 26.014490719868359 ] ] ] } },
{ "type": "Feature", "properties": { "ID": 23895, "date": "2022-01-09T00:00:00", "smokePM_pred": 2.6024227142334002 }, "geometry": { "type": "Polygon", "coordinates": [ [ [ -97.410003258960145, 26.033378445899292 ], [ -97.38916275470929, 25.95399536670319 ], [ -97.476937037695279, 25.935173666853487 ], [ -97.49781924044018, 26.014490719868359 ], [ -97.410003258960145, 26.033378445899292 ] ] ] } },
{ "type": "Feature", "properties": { "ID": 23896, "date": "2022-01-09T00:00:00", "smokePM_pred": 3.8002045154571502 }, "geometry": { "type": "Polygon", "coordinates": [ [ [ -97.322099935641305, 26.052225267488364 ], [ -97.301301367327071, 25.972776284523526 ], [ -97.38916275470929, 25.95399536670319 ], [ -97.410003258960145, 26.033378445899292 ], [ -97.322099935641305, 26.052225267488364 ] ] ] } },
{ "type": "Feature", "properties": { "ID": 23897, "date": "2022-01-09T00:00:00", "smokePM_pred": 5.6326880455017099 }, "geometry": { "type": "Polygon", "coordinates": [ [ [ -97.234109399563053, 26.071030986473669 ], [ -97.213353004754694, 25.991516222955845 ], [ -97.301301367327071, 25.972776284523526 ], [ -97.322099935641305, 26.052225267488364 ], [ -97.234109399563053, 26.071030986473669 ] ] ] } },
{ "type": "Feature", "properties": { "ID": 23898, "date": "2022-01-09T00:00:00", "smokePM_pred": 6.1212916374206499 }, "geometry": { "type": "Polygon", "coordinates": [ [ [ -97.14603178103755, 26.08979540470267 ], [ -97.125317797425666, 26.010214984651682 ], [ -97.213353004754694, 25.991516222955845 ], [ -97.234109399563053, 26.071030986473669 ], [ -97.14603178103755, 26.08979540470267 ] ] ] } },
{ "type": "Feature", "properties": { "ID": 23899, "date": "2022-01-09T00:00:00", "smokePM_pred": 6.1880645751953098 }, "geometry": { "type": "Polygon", "coordinates": [ [ [ -97.057867211612262, 26.108518324036531 ], [ -97.037195877003398, 26.028872372277092 ], [ -97.125317797425666, 26.010214984651682 ], [ -97.14603178103755, 26.08979540470267 ], [ -97.057867211612262, 26.108518324036531 ] ] ] } },
{ "type": "Feature", "properties": { "ID": 23900, "date": "2022-01-09T00:00:00", "smokePM_pred": 5.81292772293091 }, "geometry": { "type": "Polygon", "coordinates": [ [ [ -96.969615824072633, 26.127199546354415 ], [ -96.948987376383812, 26.047488188516922 ], [ -97.037195877003398, 26.028872372277092 ], [ -97.057867211612262, 26.108518324036531 ], [ -96.969615824072633, 26.127199546354415 ] ] ] } },
{ "type": "Feature", "properties": { "ID": 24406, "date": "2022-01-09T00:00:00", "smokePM_pred": 3.3237180709838898 }, "geometry": { "type": "Polygon", "coordinates": [ [ [ -97.781835582492789, 26.0366855956126 ], [ -97.760741861489123, 25.957584096794484 ], [ -97.848207209382096, 25.938534734653331 ], [ -97.869341803438004, 26.017569652573826 ], [ -97.781835582492789, 26.0366855956126 ] ] ] } },
{ "type": "Feature", "properties": { "ID": 24407, "date": "2022-01-09T00:00:00", "smokePM_pred": 2.8920640945434601 }, "geometry": { "type": "Polygon", "coordinates": [ [ [ -97.694241277563506, 26.055761307748291 ], [ -97.673188667714115, 25.976593347149823 ], [ -97.760741861489123, 25.957584096794484 ], [ -97.781835582492789, 26.0366855956126 ], [ -97.694241277563506, 26.055761307748291 ] ] ] } },
{ "type": "Feature", "properties": { "ID": 24408, "date": "2022-01-09T00:00:00", "smokePM_pred": 2.7813351154327401 }, "geometry": { "type": "Polygon", "coordinates": [ [ [ -97.60655901267458, 26.074796590022483 ], [ -97.585547752232102, 25.995562287562585 ], [ -97.673188667714115, 25.976593347149823 ], [ -97.694241277563506, 26.055761307748291 ], [ -97.60655901267458, 26.074796590022483 ] ] ] } },
{ "type": "Feature", "properties": { "ID": 24409, "date": "2022-01-09T00:00:00", "smokePM_pred": 2.7072703838348402 }, "geometry": { "type": "Polygon", "coordinates": [ [ [ -97.518788913077756, 26.093791243468196 ], [ -97.49781924044018, 26.014490719868359 ], [ -97.585547752232102, 25.995562287562585 ], [ -97.60655901267458, 26.074796590022483 ], [ -97.518788913077756, 26.093791243468196 ] ] ] } },
{ "type": "Feature", "properties": { "ID": 24410, "date": "2022-01-09T00:00:00", "smokePM_pred": 3.1105887889862101 }, "geometry": { "type": "Polygon", "coordinates": [ [ [ -97.430931105254842, 26.112745069114126 ], [ -97.410003258960145, 26.033378445899292 ], [ -97.49781924044018, 26.014490719868359 ], [ -97.518788913077756, 26.093791243468196 ], [ -97.430931105254842, 26.112745069114126 ] ] ] } },
{ "type": "Feature", "properties": { "ID": 24411, "date": "2022-01-09T00:00:00", "smokePM_pred": 4.1910228729248002 }, "geometry": { "type": "Polygon", "coordinates": [ [ [ -97.342985716920424, 26.131657867988935 ], [ -97.322099935641305, 26.052225267488364 ], [ -97.410003258960145, 26.033378445899292 ], [ -97.430931105254842, 26.112745069114126 ], [ -97.342985716920424, 26.131657867988935 ] ] ] } },
{ "type": "Feature", "properties": { "ID": 24412, "date": "2022-01-09T00:00:00", "smokePM_pred": 5.55186223983765 }, "geometry": { "type": "Polygon", "coordinates": [ [ [ -97.254952877024579, 26.150529441125514 ], [ -97.234109399563053, 26.071030986473669 ], [ -97.322099935641305, 26.052225267488364 ], [ -97.342985716920424, 26.131657867988935 ], [ -97.254952877024579, 26.150529441125514 ] ] ] } },
{ "type": "Feature", "properties": { "ID": 24413, "date": "2022-01-09T00:00:00", "smokePM_pred": 5.9727368354797399 }, "geometry": { "type": "Polygon", "coordinates": [ [ [ -97.166832715755518, 26.1693595895653 ], [ -97.14603178103755, 26.08979540470267 ], [ -97.234109399563053, 26.071030986473669 ], [ -97.254952877024579, 26.150529441125514 ], [ -97.166832715755518, 26.1693595895653 ] ] ] } },
{ "type": "Feature", "properties": { "ID": 24414, "date": "2022-01-09T00:00:00", "smokePM_pred": 6.0873746871948198 }, "geometry": { "type": "Polygon", "coordinates": [ [ [ -97.078625364542233, 26.188148114362622 ], [ -97.057867211612262, 26.108518324036531 ], [ -97.14603178103755, 26.08979540470267 ], [ -97.166832715755518, 26.1693595895653 ], [ -97.078625364542233, 26.188148114362622 ] ] ] } },
{ "type": "Feature", "properties": { "ID": 24415, "date": "2022-01-09T00:00:00", "smokePM_pred": 5.7559838294982901 }, "geometry": { "type": "Polygon", "coordinates": [ [ [ -96.990330956057107, 26.206894816589003 ], [ -96.969615824072633, 26.127199546354415 ], [ -97.057867211612262, 26.108518324036531 ], [ -97.078625364542233, 26.188148114362622 ], [ -96.990330956057107, 26.206894816589003 ] ] ] } },
{ "type": "Feature", "properties": { "ID": 24920, "date": "2022-01-09T00:00:00", "smokePM_pred": 2.4639468193054199 }, "geometry": { "type": "Polygon", "coordinates": [ [ [ -97.890564604481469, 26.096587669273248 ], [ -97.869341803438004, 26.017569652573826 ], [ -97.956759817599263, 25.998413677577592 ], [ -97.978023375326401, 26.077364921768805 ], [ -97.890564604481469, 26.096587669273248 ] ] ] } },
{ "type": "Feature", "properties": { "ID": 24921, "date": "2022-01-09T00:00:00", "smokePM_pred": 2.76175761222839 }, "geometry": { "type": "Polygon", "coordinates": [ [ [ -97.803017387684619, 26.115770266597387 ], [ -97.781835582492789, 26.0366855956126 ], [ -97.869341803438004, 26.017569652573826 ], [ -97.890564604481469, 26.096587669273248 ], [ -97.803017387684619, 26.115770266597387 ] ] ] } },
{ "type": "Feature", "properties": { "ID": 24922, "date": "2022-01-09T00:00:00", "smokePM_pred": 2.9294738769531201 }, "geometry": { "type": "Polygon", "coordinates": [ [ [ -97.715381847577092, 26.134912513993012 ], [ -97.694241277563506, 26.055761307748291 ], [ -97.781835582492789, 26.0366855956126 ], [ -97.803017387684619, 26.115770266597387 ], [ -97.715381847577092, 26.134912513993012 ] ] ] } },
{ "type": "Feature", "properties": { "ID": 24923, "date": "2022-01-09T00:00:00", "smokePM_pred": 3.0595278739929199 }, "geometry": { "type": "Polygon", "coordinates": [ [ [ -97.627658108029948, 26.15401421169814 ], [ -97.60655901267458, 26.074796590022483 ], [ -97.694241277563506, 26.055761307748291 ], [ -97.715381847577092, 26.134912513993012 ], [ -97.627658108029948, 26.15401421169814 ] ] ] } },
{ "type": "Feature", "properties": { "ID": 24924, "date": "2022-01-09T00:00:00", "smokePM_pred": 3.22312211990356 }, "geometry": { "type": "Polygon", "coordinates": [ [ [ -97.539846294146884, 26.173075159941334 ], [ -97.518788913077756, 26.093791243468196 ], [ -97.60655901267458, 26.074796590022483 ], [ -97.627658108029948, 26.15401421169814 ], [ -97.539846294146884, 26.173075159941334 ] ] ] } },
{ "type": "Feature", "properties": { "ID": 24925, "date": "2022-01-09T00:00:00", "smokePM_pred": 3.7048065662384002 }, "geometry": { "type": "Polygon", "coordinates": [ [ [ -97.45194653226693, 26.1920951589459 ], [ -97.430931105254842, 26.112745069114126 ], [ -97.518788913077756, 26.093791243468196 ], [ -97.539846294146884, 26.173075159941334 ], [ -97.45194653226693, 26.1920951589459 ] ] ] } },
{ "type": "Feature", "properties": { "ID": 24926, "date": "2022-01-09T00:00:00", "smokePM_pred": 4.5105681419372603 }, "geometry": { "type": "Polygon", "coordinates": [ [ [ -97.363958949967312, 26.211074008934258 ], [ -97.342985716920424, 26.131657867988935 ], [ -97.430931105254842, 26.112745069114126 ], [ -97.45194653226693, 26.1920951589459 ], [ -97.363958949967312, 26.211074008934258 ] ] ] } },
{ "type": "Feature", "properties": { "ID": 24927, "date": "2022-01-09T00:00:00", "smokePM_pred": 5.2421221733093297 }, "geometry": { "type": "Polygon", "coordinates": [ [ [ -97.275883676066101, 26.230011510132165 ], [ -97.254952877024579, 26.150529441125514 ], [ -97.342985716920424, 26.131657867988935 ], [ -97.363958949967312, 26.211074008934258 ], [ -97.275883676066101, 26.230011510132165 ] ] ] } },
{ "type": "Feature", "properties": { "ID": 24928, "date": "2022-01-09T00:00:00", "smokePM_pred": 5.7302870750427202 }, "geometry": { "type": "Polygon", "coordinates": [ [ [ -97.187720840624934, 26.248907462773083 ], [ -97.166832715755518, 26.1693595895653 ], [ -97.254952877024579, 26.150529441125514 ], [ -97.275883676066101, 26.230011510132165 ], [ -97.187720840624934, 26.248907462773083 ] ] ] } },
{ "type": "Feature", "properties": { "ID": 24929, "date": "2022-01-09T00:00:00", "smokePM_pred": 5.7638292312622097 }, "geometry": { "type": "Polygon", "coordinates": [ [ [ -97.099470574951695, 26.267761667102519 ], [ -97.078625364542233, 26.188148114362622 ], [ -97.166832715755518, 26.1693595895653 ], [ -97.187720840624934, 26.248907462773083 ], [ -97.099470574951695, 26.267761667102519 ] ] ] } },
{ "type": "Feature", "properties": { "ID": 24930, "date": "2022-01-09T00:00:00", "smokePM_pred": 5.6512999534606898 }, "geometry": { "type": "Polygon", "coordinates": [ [ [ -97.011133011603164, 26.286573923382402 ], [ -96.990330956057107, 26.206894816589003 ], [ -97.078625364542233, 26.188148114362622 ], [ -97.099470574951695, 26.267761667102519 ], [ -97.011133011603164, 26.286573923382402 ] ] ] } },
{ "type": "Feature", "properties": { "ID": 25436, "date": "2022-01-09T00:00:00", "smokePM_pred": 2.6348001956939702 }, "geometry": { "type": "Polygon", "coordinates": [ [ [ -97.82428751639209, 26.194838030811248 ], [ -97.803017387684619, 26.115770266597387 ], [ -97.890564604481469, 26.096587669273248 ], [ -97.911875851681373, 26.175588705507312 ], [ -97.82428751639209, 26.194838030811248 ] ] ] } },
{ "type": "Feature", "properties": { "ID": 25437, "date": "2022-01-09T00:00:00", "smokePM_pred": 2.9002137184143102 }, "geometry": { "type": "Polygon", "coordinates": [ [ [ -97.736610617235726, 26.214046887254046 ], [ -97.715381847577092, 26.134912513993012 ], [ -97.803017387684619, 26.115770266597387 ], [ -97.82428751639209, 26.194838030811248 ], [ -97.736610617235726, 26.214046887254046 ] ] ] } },
{ "type": "Feature", "properties": { "ID": 25438, "date": "2022-01-09T00:00:00", "smokePM_pred": 3.1157288551330602 }, "geometry": { "type": "Polygon", "coordinates": [ [ [ -97.648845277927165, 26.233215074268287 ], [ -97.627658108029948, 26.15401421169814 ], [ -97.715381847577092, 26.134912513993012 ], [ -97.736610617235726, 26.214046887254046 ], [ -97.648845277927165, 26.233215074268287 ] ] ] } },
{ "type": "Feature", "properties": { "ID": 25439, "date": "2022-01-09T00:00:00", "smokePM_pred": 3.3684637546539302 }, "geometry": { "type": "Polygon", "coordinates": [ [ [ -97.560991623419255, 26.25234239127613 ], [ -97.539846294146884, 26.173075159941334 ], [ -97.627658108029948, 26.15401421169814 ], [ -97.648845277927165, 26.233215074268287 ], [ -97.560991623419255, 26.25234239127613 ] ] ] } },
{ "type": "Feature", "properties": { "ID": 25440, "date": "2022-01-09T00:00:00", "smokePM_pred": 3.8034181594848602 }, "geometry": { "type": "Polygon", "coordinates": [ [ [ -97.473049779905523, 26.27142863769361 ], [ -97.45194653226693, 26.1920951589459 ], [ -97.539846294146884, 26.173075159941334 ], [ -97.560991623419255, 26.25234239127613 ], [ -97.473049779905523, 26.27142863769361 ] ] ] } },
{ "type": "Feature", "properties": { "ID": 25441, "date": "2022-01-09T00:00:00", "smokePM_pred": 4.1871743202209499 }, "geometry": { "type": "Polygon", "coordinates": [ [ [ -97.385019874823072, 26.290473612934914 ], [ -97.363958949967312, 26.211074008934258 ], [ -97.45194653226693, 26.1920951589459 ], [ -97.473049779905523, 26.27142863769361 ], [ -97.385019874823072, 26.290473612934914 ] ] ] } },
{ "type": "Feature", "properties": { "ID": 25442, "date": "2022-01-09T00:00:00", "smokePM_pred": 5.0278043746948198 }, "geometry": { "type": "Polygon", "coordinates": [ [ [ -97.2969020368553, 26.309477116416748 ], [ -97.275883676066101, 26.230011510132165 ], [ -97.363958949967312, 26.211074008934258 ], [ -97.385019874823072, 26.290473612934914 ], [ -97.2969020368553, 26.309477116416748 ] ] ] } },
{ "type": "Feature", "properties": { "ID": 25443, "date": "2022-01-09T00:00:00", "smokePM_pred": 5.4759716987609899 }, "geometry": { "type": "Polygon", "coordinates": [ [ [ -97.208696395934581, 26.328438947562631 ], [ -97.187720840624934, 26.248907462773083 ], [ -97.275883676066101, 26.230011510132165 ], [ -97.2969020368553, 26.309477116416748 ], [ -97.208696395934581, 26.328438947562631 ] ] ] } },
{ "type": "Feature", "properties": { "ID": 25444, "date": "2022-01-09T00:00:00", "smokePM_pred": 5.6510052680969203 }, "geometry": { "type": "Polygon", "coordinates": [ [ [ -97.120403083245066, 26.347358905807287 ], [ -97.099470574951695, 26.267761667102519 ], [ -97.187720840624934, 26.248907462773083 ], [ -97.208696395934581, 26.328438947562631 ], [ -97.120403083245066, 26.347358905807287 ] ] ] } },
{ "type": "Feature", "properties": { "ID": 25445, "date": "2022-01-09T00:00:00", "smokePM_pred": 5.51867771148682 }, "geometry": { "type": "Polygon", "coordinates": [ [ [ -97.032022231225312, 26.366236790601047 ], [ -97.011133011603164, 26.286573923382402 ], [ -97.099470574951695, 26.267761667102519 ], [ -97.120403083245066, 26.347358905807287 ], [ -97.032022231225312, 26.366236790601047 ] ] ] } },
{ "type": "Feature", "properties": { "ID": 44150, "date": "2022-01-09T00:00:00", "smokePM_pred": 4.3171577453613299 }, "geometry": { "type": "Polygon", "coordinates": [ [ [ -81.80609320356254, 31.927916491992804 ], [ -81.793718611061564, 31.839946529079604 ], [ -81.896745503747425, 31.829365758254159 ], [ -81.90921294355114, 31.91729963824535 ], [ -81.80609320356254, 31.927916491992804 ] ] ] } },
{ "type": "Feature", "properties": { "ID": 44151, "date": "2022-01-09T00:00:00", "smokePM_pred": 3.81593990325928 }, "geometry": { "type": "Polygon", "coordinates": [ [ [ -81.702919292756476, 31.938452679758093 ], [ -81.690637756574205, 31.850446900030601 ], [ -81.793718611061564, 31.839946529079604 ], [ -81.80609320356254, 31.927916491992804 ], [ -81.702919292756476, 31.938452679758093 ] ] ] } },
{ "type": "Feature", "properties": { "ID": 44152, "date": "2022-01-09T00:00:00", "smokePM_pred": 4.0951571464538601 }, "geometry": { "type": "Polygon", "coordinates": [ [ [ -81.5996915993356, 31.948908050673829 ], [ -81.587503327182773, 31.860866720931817 ], [ -81.690637756574205, 31.850446900030601 ], [ -81.702919292756476, 31.938452679758093 ], [ -81.5996915993356, 31.948908050673829 ] ] ] } },
{ "type": "Feature", "properties": { "ID": 44665, "date": "2022-01-09T00:00:00", "smokePM_pred": 4.4704141616821298 }, "geometry": { "type": "Polygon", "coordinates": [ [ [ -81.818521967104516, 32.015880922231695 ], [ -81.80609320356254, 31.927916491992804 ], [ -81.90921294355114, 31.91729963824535 ], [ -81.921734941258393, 32.005227920034194 ], [ -81.818521967104516, 32.015880922231695 ] ] ] } },
{ "type": "Feature", "properties": { "ID": 44666, "date": "2022-01-09T00:00:00", "smokePM_pred": 4.3453040122985804 }, "geometry": { "type": "Polygon", "coordinates": [ [ [ -81.715254611775919, 32.026452991939642 ], [ -81.702919292756476, 31.938452679758093 ], [ -81.80609320356254, 31.927916491992804 ], [ -81.818521967104516, 32.015880922231695 ], [ -81.715254611775919, 32.026452991939642 ] ] ] } },
{ "type": "Feature", "properties": { "ID": 44667, "date": "2022-01-09T00:00:00", "smokePM_pred": 4.0499897003173801 }, "geometry": { "type": "Polygon", "coordinates": [ [ [ -81.611933264787694, 32.036943977595485 ], [ -81.5996915993356, 31.948908050673829 ], [ -81.702919292756476, 31.938452679758093 ], [ -81.715254611775919, 32.026452991939642 ], [ -81.611933264787694, 32.036943977595485 ] ] ] } },
{ "type": "Feature", "properties": { "ID": 44668, "date": "2022-01-09T00:00:00", "smokePM_pred": 3.2339513301849401 }, "geometry": { "type": "Polygon", "coordinates": [ [ [ -81.508558316998361, 32.047353728643898 ], [ -81.496410512836576, 31.959282454875641 ], [ -81.5996915993356, 31.948908050673829 ], [ -81.611933264787694, 32.036943977595485 ], [ -81.508558316998361, 32.047353728643898 ] ] ] } },
{ "type": "Feature", "properties": { "ID": 45181, "date": "2022-01-09T00:00:00", "smokePM_pred": 3.7469522953033398 }, "geometry": { "type": "Polygon", "coordinates": [ [ [ -81.727643922678922, 32.114447812216802 ], [ -81.715254611775919, 32.026452991939642 ], [ -81.818521967104516, 32.015880922231695 ], [ -81.831005112046341, 32.103839795096427 ], [ -81.727643922678922, 32.114447812216802 ] ] ] } },
{ "type": "Feature", "properties": { "ID": 45182, "date": "2022-01-09T00:00:00", "smokePM_pred": 3.58848357200623 }, "geometry": { "type": "Polygon", "coordinates": [ [ [ -81.624228531263611, 32.124974477678009 ], [ -81.611933264787694, 32.036943977595485 ], [ -81.715254611775919, 32.026452991939642 ], [ -81.727643922678922, 32.114447812216802 ], [ -81.624228531263611, 32.124974477678009 ] ] ] } },
{ "type": "Feature", "properties": { "ID": 45183, "date": "2022-01-09T00:00:00", "smokePM_pred": 3.3084464073181201 }, "geometry": { "type": "Polygon", "coordinates": [ [ [ -81.520759329988081, 32.135419640230573 ], [ -81.508558316998361, 32.047353728643898 ], [ -81.611933264787694, 32.036943977595485 ], [ -81.624228531263611, 32.124974477678009 ], [ -81.520759329988081, 32.135419640230573 ] ] ] } },
{ "type": "Feature", "properties": { "ID": 45184, "date": "2022-01-09T00:00:00", "smokePM_pred": 3.0922513008117698 }, "geometry": { "type": "Polygon", "coordinates": [ [ [ -81.417236712385616, 32.145783149642071 ], [ -81.405130160602468, 32.057682095542276 ], [ -81.508558316998361, 32.047353728643898 ], [ -81.520759329988081, 32.135419640230573 ], [ -81.417236712385616, 32.145783149642071 ] ] ] } },
{ "type": "Feature", "properties": { "ID": 45696, "date": "2022-01-09T00:00:00", "smokePM_pred": 3.1356449127197301 }, "geometry": { "type": "Polygon", "coordinates": [ [ [ -81.740087435855315, 32.202437116118297 ], [ -81.727643922678922, 32.114447812216802 ], [ -81.831005112046341, 32.103839795096427 ], [ -81.843542850097577, 32.191793085772488 ], [ -81.740087435855315, 32.202437116118297 ] ] ] } },
{ "type": "Feature", "properties": { "ID": 45697, "date": "2022-01-09T00:00:00", "smokePM_pred": 2.99113869667053 }, "geometry": { "type": "Polygon", "coordinates": [ [ [ -81.636577607823952, 32.212999526791485 ], [ -81.624228531263611, 32.124974477678009 ], [ -81.727643922678922, 32.114447812216802 ], [ -81.740087435855315, 32.202437116118297 ], [ -81.636577607823952, 32.212999526791485 ] ] ] } },
{ "type": "Feature", "properties": { "ID": 45698, "date": "2022-01-09T00:00:00", "smokePM_pred": 3.1846795082092298 }, "geometry": { "type": "Polygon", "coordinates": [ [ [ -81.53301375952779, 32.223480165845395 ], [ -81.520759329988081, 32.135419640230573 ], [ -81.624228531263611, 32.124974477678009 ], [ -81.636577607823952, 32.212999526791485 ], [ -81.53301375952779, 32.223480165845395 ] ] ] } },
{ "type": "Feature", "properties": { "ID": 45699, "date": "2022-01-09T00:00:00", "smokePM_pred": 3.1696484088897701 }, "geometry": { "type": "Polygon", "coordinates": [ [ [ -81.429396285846195, 32.233878882354595 ], [ -81.417236712385616, 32.145783149642071 ], [ -81.520759329988081, 32.135419640230573 ], [ -81.53301375952779, 32.223480165845395 ], [ -81.429396285846195, 32.233878882354595 ] ] ] } },
{ "type": "Feature", "properties": { "ID": 45700, "date": "2022-01-09T00:00:00", "smokePM_pred": 3.0844273567199698 }, "geometry": { "type": "Polygon", "coordinates": [ [ [ -81.325725583006019, 32.244195526420512 ], [ -81.313661073327395, 32.156064856702663 ], [ -81.417236712385616, 32.145783149642071 ], [ -81.429396285846195, 32.233878882354595 ], [ -81.325725583006019, 32.244195526420512 ] ] ] } },
{ "type": "Feature", "properties": { "ID": 46212, "date": "2022-01-09T00:00:00", "smokePM_pred": 3.5271086692810099 }, "geometry": { "type": "Polygon", "coordinates": [ [ [ -81.648980704874901, 32.30101910069407 ], [ -81.636577607823952, 32.212999526791485 ], [ -81.740087435855315, 32.202437116118297 ], [ -81.752585363047928, 32.290420879059042 ], [ -81.648980704874901, 32.30101910069407 ] ] ] } },
{ "type": "Feature", "properties": { "ID": 46213, "date": "2022-01-09T00:00:00", "smokePM_pred": 3.3317756652832 }, "geometry": { "type": "Polygon", "coordinates": [ [ [ -81.545321814677507, 32.311535281587879 ], [ -81.53301375952779, 32.223480165845395 ], [ -81.636577607823952, 32.212999526791485 ], [ -81.648980704874901, 32.30101910069407 ], [ -81.545321814677507, 32.311535281587879 ] ] ] } },
{ "type": "Feature", "properties": { "ID": 46214, "date": "2022-01-09T00:00:00", "smokePM_pred": 3.20604801177979 }, "geometry": { "type": "Polygon", "coordinates": [ [ [ -81.441609088688693, 32.321969270118906 ], [ -81.429396285846195, 32.233878882354595 ], [ -81.53301375952779, 32.223480165845395 ], [ -81.545321814677507, 32.311535281587879 ], [ -81.441609088688693, 32.321969270118906 ] ] ] } },
{ "type": "Feature", "properties": { "ID": 46215, "date": "2022-01-09T00:00:00", "smokePM_pred": 3.1825206279754599 }, "geometry": { "type": "Polygon", "coordinates": [ [ [ -81.33784292449856, 32.332320915696755 ], [ -81.325725583006019, 32.244195526420512 ], [ -81.429396285846195, 32.233878882354595 ], [ -81.441609088688693, 32.321969270118906 ], [ -81.33784292449856, 32.332320915696755 ] ] ] } },
{ "type": "Feature", "properties": { "ID": 46727, "date": "2022-01-09T00:00:00", "smokePM_pred": 3.5253665447235099 }, "geometry": { "type": "Polygon", "coordinates": [ [ [ -81.661438034177721, 32.389033175030889 ], [ -81.648980704874901, 32.30101910069407 ], [ -81.752585363047928, 32.290420879059042 ], [ -81.765137917361997, 32.378399076339086 ], [ -81.661438034177721, 32.389033175030889 ] ] ] } },
{ "type": "Feature", "properties": { "ID": 46728, "date": "2022-01-09T00:00:00", "smokePM_pred": 3.4769015312194802 }, "geometry": { "type": "Polygon", "coordinates": [ [ [ -81.557683705844795, 32.399584963446351 ], [ -81.545321814677507, 32.311535281587879 ], [ -81.648980704874901, 32.30101910069407 ], [ -81.661438034177721, 32.389033175030889 ], [ -81.557683705844795, 32.399584963446351 ] ] ] } },
{ "type": "Feature", "properties": { "ID": 46729, "date": "2022-01-09T00:00:00", "smokePM_pred": 3.2876052856445299 }, "geometry": { "type": "Polygon", "coordinates": [ [ [ -81.453875329957455, 32.410054289264686 ], [ -81.441609088688693, 32.321969270118906 ], [ -81.545321814677507, 32.311535281587879 ], [ -81.557683705844795, 32.399584963446351 ], [ -81.453875329957455, 32.410054289264686 ] ] ] } },
{ "type": "Feature", "properties": { "ID": 46730, "date": "2022-01-09T00:00:00", "smokePM_pred": 3.1118617057800302 }, "geometry": { "type": "Polygon", "coordinates": [ [ [ -81.350013305476608, 32.420441001200501 ], [ -81.33784292449856, 32.332320915696755 ], [ -81.441609088688693, 32.321969270118906 ], [ -81.453875329957455, 32.410054289264686 ], [ -81.350013305476608, 32.420441001200501 ] ] ] } }
]
}
