{
"type": "FeatureCollection",
"name": "geo_2022-11-30",
"crs": { "type": "name", "properties": { "name": "urn:ogc:def:crs:OGC:1.3:CRS84" } },
"features": [
{ "type": "Feature", "properties": { "ID": 55438, "date": "2022-11-30T00:00:00", "smokePM_pred": 0.46898424625396701 }, "geometry": { "type": "Polygon", "coordinates": [ [ [ -86.457599678167696, 33.30945703318362 ], [ -86.439936379692369, 33.223421214098323 ], [ -86.542268905045603, 33.208567786759893 ], [ -86.560022583131996, 33.29455517937842 ], [ -86.457599678167696, 33.30945703318362 ] ] ] } },
{ "type": "Feature", "properties": { "ID": 55439, "date": "2022-11-30T00:00:00", "smokePM_pred": 0.46519765257835399 }, "geometry": { "type": "Polygon", "coordinates": [ [ [ -86.355101560190917, 33.324280174636208 ], [ -86.337528933417886, 33.23819616880612 ], [ -86.439936379692369, 33.223421214098323 ], [ -86.457599678167696, 33.30945703318362 ], [ -86.355101560190917, 33.324280174636208 ] ] ] } },
{ "type": "Feature", "properties": { "ID": 55953, "date": "2022-11-30T00:00:00", "smokePM_pred": 0.56579405069351196 }, "geometry": { "type": "Polygon", "coordinates": [ [ [ -86.475338189958407, 33.395483327677958 ], [ -86.457599678167696, 33.30945703318362 ], [ -86.560022583131996, 33.29455517937842 ], [ -86.577851819898015, 33.380532958817462 ], [ -86.475338189958407, 33.395483327677958 ] ] ] } },
{ "type": "Feature", "properties": { "ID": 55954, "date": "2022-11-30T00:00:00", "smokePM_pred": 0.41480565071106001 }, "geometry": { "type": "Polygon", "coordinates": [ [ [ -86.372749053097536, 33.410354744184957 ], [ -86.355101560190917, 33.324280174636208 ], [ -86.457599678167696, 33.30945703318362 ], [ -86.475338189958407, 33.395483327677958 ], [ -86.372749053097536, 33.410354744184957 ] ] ] } },
{ "type": "Feature", "properties": { "ID": 55955, "date": "2022-11-30T00:00:00", "smokePM_pred": 0.64983540773391701 }, "geometry": { "type": "Polygon", "coordinates": [ [ [ -86.270084757472674, 33.425147000556024 ], [ -86.252528576382858, 33.339024396871373 ], [ -86.355101560190917, 33.324280174636208 ], [ -86.372749053097536, 33.410354744184957 ], [ -86.270084757472674, 33.425147000556024 ] ] ] } },
{ "type": "Feature", "properties": { "ID": 56468, "date": "2022-11-30T00:00:00", "smokePM_pred": 0.62457692623138406 }, "geometry": { "type": "Polygon", "coordinates": [ [ [ -86.49315220897536, 33.481500052585261 ], [ -86.475338189958407, 33.395483327677958 ], [ -86.577851819898015, 33.380532958817462 ], [ -86.595756910218242, 33.466501079638846 ], [ -86.49315220897536, 33.481500052585261 ] ] ] } },
{ "type": "Feature", "properties": { "ID": 56469, "date": "2022-11-30T00:00:00", "smokePM_pred": 0.57780486345291104 }, "geometry": { "type": "Polygon", "coordinates": [ [ [ -86.390471705072471, 33.49641983289758 ], [ -86.372749053097536, 33.410354744184957 ], [ -86.475338189958407, 33.395483327677958 ], [ -86.49315220897536, 33.481500052585261 ], [ -86.390471705072471, 33.49641983289758 ] ] ] } },
{ "type": "Feature", "properties": { "ID": 56470, "date": "2022-11-30T00:00:00", "smokePM_pred": 0.49056941270828203 }, "geometry": { "type": "Polygon", "coordinates": [ [ [ -86.287715747646757, 33.511260211871758 ], [ -86.270084757472674, 33.425147000556024 ], [ -86.372749053097536, 33.410354744184957 ], [ -86.390471705072471, 33.49641983289758 ], [ -86.287715747646757, 33.511260211871758 ] ] ] } },
{ "type": "Feature", "properties": { "ID": 56983, "date": "2022-11-30T00:00:00", "smokePM_pred": 0.32939046621322599 }, "geometry": { "type": "Polygon", "coordinates": [ [ [ -86.511042030959402, 33.567507162679185 ], [ -86.49315220897536, 33.481500052585261 ], [ -86.595756910218242, 33.466501079638846 ], [ -86.613738150800941, 33.55245949617197 ], [ -86.511042030959402, 33.567507162679185 ] ] ] } },
{ "type": "Feature", "properties": { "ID": 56984, "date": "2022-11-30T00:00:00", "smokePM_pred": 0.53646779060363803 }, "geometry": { "type": "Polygon", "coordinates": [ [ [ -86.408269810876718, 33.582475395991246 ], [ -86.390471705072471, 33.49641983289758 ], [ -86.49315220897536, 33.481500052585261 ], [ -86.511042030959402, 33.567507162679185 ], [ -86.408269810876718, 33.582475395991246 ] ] ] } },
{ "type": "Feature", "properties": { "ID": 56985, "date": "2022-11-30T00:00:00", "smokePM_pred": 0.55126869678497303 }, "geometry": { "type": "Polygon", "coordinates": [ [ [ -86.305421840673688, 33.597363986478499 ], [ -86.287715747646757, 33.511260211871758 ], [ -86.390471705072471, 33.49641983289758 ], [ -86.408269810876718, 33.582475395991246 ], [ -86.305421840673688, 33.597363986478499 ] ] ] } },
{ "type": "Feature", "properties": { "ID": 57498, "date": "2022-11-30T00:00:00", "smokePM_pred": 0.33381116390228299 }, "geometry": { "type": "Polygon", "coordinates": [ [ [ -86.529007953493789, 33.653504612501379 ], [ -86.511042030959402, 33.567507162679185 ], [ -86.613738150800941, 33.55245949617197 ], [ -86.631795840200496, 33.638408162511993 ], [ -86.529007953493789, 33.653504612501379 ] ] ] } },
{ "type": "Feature", "properties": { "ID": 57499, "date": "2022-11-30T00:00:00", "smokePM_pred": 0.40656694769859297 }, "geometry": { "type": "Polygon", "coordinates": [ [ [ -86.42614366710977, 33.668521388453335 ], [ -86.408269810876718, 33.582475395991246 ], [ -86.511042030959402, 33.567507162679185 ], [ -86.529007953493789, 33.653504612501379 ], [ -86.42614366710977, 33.668521388453335 ] ] ] } }
]
}
