{
"type": "FeatureCollection",
"name": "geo_2022-11-20",
"crs": { "type": "name", "properties": { "name": "urn:ogc:def:crs:OGC:1.3:CRS84" } },
"features": [
{ "type": "Feature", "properties": { "ID": 67267, "date": "2022-11-20T00:00:00", "smokePM_pred": 2.16750860214233 }, "geometry": { "type": "Polygon", "coordinates": [ [ [ -88.548671898065095, 35.01894373901807 ], [ -88.527664946302593, 34.933976935370019 ], [ -88.63080285157082, 34.916673236679529 ], [ -88.651902849272517, 35.00158565884329 ], [ -88.548671898065095, 35.01894373901807 ] ] ] } },
{ "type": "Feature", "properties": { "ID": 67268, "date": "2022-11-20T00:00:00", "smokePM_pred": 2.0551111698150599 }, "geometry": { "type": "Polygon", "coordinates": [ [ [ -88.44535285030247, 35.036221290272422 ], [ -88.424439296628748, 34.951200334952567 ], [ -88.527664946302593, 34.933976935370019 ], [ -88.548671898065095, 35.01894373901807 ], [ -88.44535285030247, 35.036221290272422 ] ] ] } },
{ "type": "Feature", "properties": { "ID": 67782, "date": "2022-11-20T00:00:00", "smokePM_pred": 2.2226097583770801 }, "geometry": { "type": "Polygon", "coordinates": [ [ [ -88.569766946744949, 35.103898299773654 ], [ -88.548671898065095, 35.01894373901807 ], [ -88.651902849272517, 35.00158565884329 ], [ -88.673091277868906, 35.086485734671854 ], [ -88.569766946744949, 35.103898299773654 ] ] ] } },
{ "type": "Feature", "properties": { "ID": 67783, "date": "2022-11-20T00:00:00", "smokePM_pred": 1.8590127229690601 }, "geometry": { "type": "Polygon", "coordinates": [ [ [ -88.466354164743336, 35.121230105920624 ], [ -88.44535285030247, 35.036221290272422 ], [ -88.548671898065095, 35.01894373901807 ], [ -88.569766946744949, 35.103898299773654 ], [ -88.466354164743336, 35.121230105920624 ] ] ] } },
{ "type": "Feature", "properties": { "ID": 67784, "date": "2022-11-20T00:00:00", "smokePM_pred": 2.3551588058471702 }, "geometry": { "type": "Polygon", "coordinates": [ [ [ -88.362853268838734, 35.138480910299698 ], [ -88.341946042134552, 35.053418070845765 ], [ -88.44535285030247, 35.036221290272422 ], [ -88.466354164743336, 35.121230105920624 ], [ -88.362853268838734, 35.138480910299698 ] ] ] } },
{ "type": "Feature", "properties": { "ID": 68297, "date": "2022-11-20T00:00:00", "smokePM_pred": 2.4440352916717498 }, "geometry": { "type": "Polygon", "coordinates": [ [ [ -88.590950446667094, 35.18884055885033 ], [ -88.569766946744949, 35.103898299773654 ], [ -88.673091277868906, 35.086485734671854 ], [ -88.694368492494931, 35.171373404875595 ], [ -88.590950446667094, 35.18884055885033 ] ] ] } },
{ "type": "Feature", "properties": { "ID": 68298, "date": "2022-11-20T00:00:00", "smokePM_pred": 2.1407222747802699 }, "geometry": { "type": "Polygon", "coordinates": [ [ [ -88.487443593451488, 35.206226723613796 ], [ -88.466354164743336, 35.121230105920624 ], [ -88.569766946744949, 35.103898299773654 ], [ -88.590950446667094, 35.18884055885033 ], [ -88.487443593451488, 35.206226723613796 ] ] ] } },
{ "type": "Feature", "properties": { "ID": 68299, "date": "2022-11-20T00:00:00", "smokePM_pred": 2.09161353111267 }, "geometry": { "type": "Polygon", "coordinates": [ [ [ -88.383848270649352, 35.223531655295773 ], [ -88.362853268838734, 35.138480910299698 ], [ -88.466354164743336, 35.121230105920624 ], [ -88.487443593451488, 35.206226723613796 ], [ -88.383848270649352, 35.223531655295773 ] ] ] } },
{ "type": "Feature", "properties": { "ID": 71355, "date": "2022-11-20T00:00:00", "smokePM_pred": 2.9758386611938499 }, "geometry": { "type": "Polygon", "coordinates": [ [ [ -92.000629866280164, 35.0892709757427 ], [ -91.976031744160267, 35.006279801988036 ], [ -92.076856584662323, 34.98604511752432 ], [ -92.10153825887906, 35.068974238544101 ], [ -92.000629866280164, 35.0892709757427 ] ] ] } },
{ "type": "Feature", "properties": { "ID": 71356, "date": "2022-11-20T00:00:00", "smokePM_pred": 3.2468724250793501 }, "geometry": { "type": "Polygon", "coordinates": [ [ [ -91.899620725292138, 35.109493689383541 ], [ -91.875106543949968, 35.02644065908305 ], [ -91.976031744160267, 35.006279801988036 ], [ -92.000629866280164, 35.0892709757427 ], [ -91.899620725292138, 35.109493689383541 ] ] ] } },
{ "type": "Feature", "properties": { "ID": 71870, "date": "2022-11-20T00:00:00", "smokePM_pred": 2.7200057506561302 }, "geometry": { "type": "Polygon", "coordinates": [ [ [ -92.025328737169531, 35.172245901438757 ], [ -92.000629866280164, 35.0892709757427 ], [ -92.10153825887906, 35.068974238544101 ], [ -92.126320948840885, 35.1518869993306 ], [ -92.025328737169531, 35.172245901438757 ] ] ] } },
{ "type": "Feature", "properties": { "ID": 71871, "date": "2022-11-20T00:00:00", "smokePM_pred": 2.6440017223358199 }, "geometry": { "type": "Polygon", "coordinates": [ [ [ -91.924235386146322, 35.192530583726921 ], [ -91.899620725292138, 35.109493689383541 ], [ -92.000629866280164, 35.0892709757427 ], [ -92.025328737169531, 35.172245901438757 ], [ -91.924235386146322, 35.192530583726921 ] ] ] } },
{ "type": "Feature", "properties": { "ID": 71872, "date": "2022-11-20T00:00:00", "smokePM_pred": 3.2559297084808301 }, "geometry": { "type": "Polygon", "coordinates": [ [ [ -91.823041165383202, 35.212740775485159 ], [ -91.798511105172778, 35.129642109879057 ], [ -91.899620725292138, 35.109493689383541 ], [ -91.924235386146322, 35.192530583726921 ], [ -91.823041165383202, 35.212740775485159 ] ] ] } },
{ "type": "Feature", "properties": { "ID": 72898, "date": "2022-11-20T00:00:00", "smokePM_pred": 2.7165870666503902 }, "geometry": { "type": "Polygon", "coordinates": [ [ [ -92.277249399444699, 35.297105215993227 ], [ -92.252179543647969, 35.214287997781177 ], [ -92.353051975834163, 35.193718803108624 ], [ -92.378205393541947, 35.276473241107922 ], [ -92.277249399444699, 35.297105215993227 ] ] ] } },
{ "type": "Feature", "properties": { "ID": 72899, "date": "2022-11-20T00:00:00", "smokePM_pred": 2.5719647407531698 }, "geometry": { "type": "Polygon", "coordinates": [ [ [ -92.176190943513134, 35.317663125624989 ], [ -92.151205045852663, 35.234783321343137 ], [ -92.252179543647969, 35.214287997781177 ], [ -92.277249399444699, 35.297105215993227 ], [ -92.176190943513134, 35.317663125624989 ] ] ] } },
{ "type": "Feature", "properties": { "ID": 72900, "date": "2022-11-20T00:00:00", "smokePM_pred": 2.3663387298584002 }, "geometry": { "type": "Polygon", "coordinates": [ [ [ -92.075030291413043, 35.338146696123928 ], [ -92.050128747793394, 35.25520450104689 ], [ -92.151205045852663, 35.234783321343137 ], [ -92.176190943513134, 35.317663125624989 ], [ -92.075030291413043, 35.338146696123928 ] ] ] } },
{ "type": "Feature", "properties": { "ID": 73413, "date": "2022-11-20T00:00:00", "smokePM_pred": 2.6838543415069598 }, "geometry": { "type": "Polygon", "coordinates": [ [ [ -92.302421717462451, 35.379905723317457 ], [ -92.277249399444699, 35.297105215993227 ], [ -92.378205393541947, 35.276473241107922 ], [ -92.403461536815939, 35.359210854376293 ], [ -92.302421717462451, 35.379905723317457 ] ] ] } },
{ "type": "Feature", "properties": { "ID": 73414, "date": "2022-11-20T00:00:00", "smokePM_pred": 2.59294509887695 }, "geometry": { "type": "Polygon", "coordinates": [ [ [ -92.201279037729236, 35.400526332800496 ], [ -92.176190943513134, 35.317663125624989 ], [ -92.277249399444699, 35.297105215993227 ], [ -92.302421717462451, 35.379905723317457 ], [ -92.201279037729236, 35.400526332800496 ] ] ] } },
{ "type": "Feature", "properties": { "ID": 73415, "date": "2022-11-20T00:00:00", "smokePM_pred": 2.16067695617676 }, "geometry": { "type": "Polygon", "coordinates": [ [ [ -92.100033763600266, 35.421072407809881 ], [ -92.075030291413043, 35.338146696123928 ], [ -92.176190943513134, 35.317663125624989 ], [ -92.201279037729236, 35.400526332800496 ], [ -92.100033763600266, 35.421072407809881 ] ] ] } },
{ "type": "Feature", "properties": { "ID": 73426, "date": "2022-11-20T00:00:00", "smokePM_pred": 4.18729591369629 }, "geometry": { "type": "Polygon", "coordinates": [ [ [ -90.979642933678718, 35.642081772459761 ], [ -90.955596481097103, 35.558481728412914 ], [ -91.057863091241842, 35.538833829151528 ], [ -91.081998521140676, 35.62237359236326 ], [ -90.979642933678718, 35.642081772459761 ] ] ] } },
{ "type": "Feature", "properties": { "ID": 73929, "date": "2022-11-20T00:00:00", "smokePM_pred": 2.51794528961182 }, "geometry": { "type": "Polygon", "coordinates": [ [ [ -92.226469726730656, 35.48337286307175 ], [ -92.201279037729236, 35.400526332800496 ], [ -92.302421717462451, 35.379905723317457 ], [ -92.327696896249066, 35.462689439438925 ], [ -92.226469726730656, 35.48337286307175 ] ] ] } },
{ "type": "Feature", "properties": { "ID": 73930, "date": "2022-11-20T00:00:00", "smokePM_pred": 2.4327347278595002 }, "geometry": { "type": "Polygon", "coordinates": [ [ [ -92.125139562251974, 35.503981556824783 ], [ -92.100033763600266, 35.421072407809881 ], [ -92.201279037729236, 35.400526332800496 ], [ -92.226469726730656, 35.48337286307175 ], [ -92.125139562251974, 35.503981556824783 ] ] ] } },
{ "type": "Feature", "properties": { "ID": 73941, "date": "2022-11-20T00:00:00", "smokePM_pred": 3.5917656421661399 }, "geometry": { "type": "Polygon", "coordinates": [ [ [ -91.003788606308092, 35.72566650476935 ], [ -90.979642933678718, 35.642081772459761 ], [ -91.081998521140676, 35.62237359236326 ], [ -91.106233465256992, 35.705897930628637 ], [ -91.003788606308092, 35.72566650476935 ] ] ] } },
{ "type": "Feature", "properties": { "ID": 73943, "date": "2022-11-20T00:00:00", "smokePM_pred": 3.5008590221404998 }, "geometry": { "type": "Polygon", "coordinates": [ [ [ -90.798600339642704, 35.764969365356642 ], [ -90.774634396320863, 35.681264473318706 ], [ -90.87718812656226, 35.661712155599901 ], [ -90.901244132089786, 35.745357072878967 ], [ -90.798600339642704, 35.764969365356642 ] ] ] } },
{ "type": "Feature", "properties": { "ID": 73944, "date": "2022-11-20T00:00:00", "smokePM_pred": 3.4041938781738299 }, "geometry": { "type": "Polygon", "coordinates": [ [ [ -90.695857528383627, 35.784503113167958 ], [ -90.671982041844814, 35.700738457716831 ], [ -90.774634396320863, 35.681264473318706 ], [ -90.798600339642704, 35.764969365356642 ], [ -90.695857528383627, 35.784503113167958 ] ] ] } },
{ "type": "Feature", "properties": { "ID": 74458, "date": "2022-11-20T00:00:00", "smokePM_pred": 2.9095475673675502 }, "geometry": { "type": "Polygon", "coordinates": [ [ [ -90.822665302172751, 35.848659098834617 ], [ -90.798600339642704, 35.764969365356642 ], [ -90.901244132089786, 35.745357072878967 ], [ -90.925399456242147, 35.828986718106997 ], [ -90.822665302172751, 35.848659098834617 ] ] ] } },
{ "type": "Feature", "properties": { "ID": 74459, "date": "2022-11-20T00:00:00", "smokePM_pred": 3.1365523338317902 }, "geometry": { "type": "Polygon", "coordinates": [ [ [ -90.719831732336743, 35.868252723419857 ], [ -90.695857528383627, 35.784503113167958 ], [ -90.798600339642704, 35.764969365356642 ], [ -90.822665302172751, 35.848659098834617 ], [ -90.719831732336743, 35.868252723419857 ] ] ] } },
{ "type": "Feature", "properties": { "ID": 76991, "date": "2022-11-20T00:00:00", "smokePM_pred": 2.3376393318176301 }, "geometry": { "type": "Polygon", "coordinates": [ [ [ -95.187721169032173, 35.362692968962804 ], [ -95.159653404678949, 35.28179624603213 ], [ -95.25826612006064, 35.258793070835196 ], [ -95.286408292147954, 35.339621274295403 ], [ -95.187721169032173, 35.362692968962804 ] ] ] } },
{ "type": "Feature", "properties": { "ID": 77506, "date": "2022-11-20T00:00:00", "smokePM_pred": 2.52943682670593 }, "geometry": { "type": "Polygon", "coordinates": [ [ [ -95.215900980194888, 35.443569135590167 ], [ -95.187721169032173, 35.362692968962804 ], [ -95.286408292147954, 35.339621274295403 ], [ -95.314662712401315, 35.420428803684764 ], [ -95.215900980194888, 35.443569135590167 ] ] ] } },
{ "type": "Feature", "properties": { "ID": 77507, "date": "2022-11-20T00:00:00", "smokePM_pred": 2.3130877017974898 }, "geometry": { "type": "Polygon", "coordinates": [ [ [ -95.11702678150769, 35.466641465882581 ], [ -95.088921999493451, 35.385696825170534 ], [ -95.187721169032173, 35.362692968962804 ], [ -95.215900980194888, 35.443569135590167 ], [ -95.11702678150769, 35.466641465882581 ] ] ] } },
{ "type": "Feature", "properties": { "ID": 77508, "date": "2022-11-20T00:00:00", "smokePM_pred": 2.6014928817749001 }, "geometry": { "type": "Polygon", "coordinates": [ [ [ -95.018040319923855, 35.489645501434445 ], [ -94.990010987208692, 35.408632550947033 ], [ -95.088921999493451, 35.385696825170534 ], [ -95.11702678150769, 35.466641465882581 ], [ -95.018040319923855, 35.489645501434445 ] ] ] } },
{ "type": "Feature", "properties": { "ID": 78022, "date": "2022-11-20T00:00:00", "smokePM_pred": 2.4417927265167201 }, "geometry": { "type": "Polygon", "coordinates": [ [ [ -95.145243826808269, 35.547565570833555 ], [ -95.11702678150769, 35.466641465882581 ], [ -95.215900980194888, 35.443569135590167 ], [ -95.244193258227199, 35.52442464812431 ], [ -95.145243826808269, 35.547565570833555 ] ] ] } },
{ "type": "Feature", "properties": { "ID": 78023, "date": "2022-11-20T00:00:00", "smokePM_pred": 2.66820287704468 }, "geometry": { "type": "Polygon", "coordinates": [ [ [ -95.046181710003751, 35.570638034556964 ], [ -95.018040319923855, 35.489645501434445 ], [ -95.11702678150769, 35.466641465882581 ], [ -95.145243826808269, 35.547565570833555 ], [ -95.046181710003751, 35.570638034556964 ] ] ] } },
{ "type": "Feature", "properties": { "ID": 78538, "date": "2022-11-20T00:00:00", "smokePM_pred": 2.8141453266143799 }, "geometry": { "type": "Polygon", "coordinates": [ [ [ -95.074435580024613, 35.651610053017819 ], [ -95.046181710003751, 35.570638034556964 ], [ -95.145243826808269, 35.547565570833555 ], [ -95.173573557886385, 35.62846904222522 ], [ -95.074435580024613, 35.651610053017819 ] ] ] } },
{ "type": "Feature", "properties": { "ID": 78583, "date": "2022-11-20T00:00:00", "smokePM_pred": 2.7084949016571001 }, "geometry": { "type": "Polygon", "coordinates": [ [ [ -90.49992437811612, 36.617196207826204 ], [ -90.475522884593275, 36.533328547819458 ], [ -90.579406223373624, 36.513636298160542 ], [ -90.603902569905458, 36.597444016916583 ], [ -90.49992437811612, 36.617196207826204 ] ] ] } },
{ "type": "Feature", "properties": { "ID": 79098, "date": "2022-11-20T00:00:00", "smokePM_pred": 2.7173023223877002 }, "geometry": { "type": "Polygon", "coordinates": [ [ [ -90.52442699258242, 36.701048625075906 ], [ -90.49992437811612, 36.617196207826204 ], [ -90.603902569905458, 36.597444016916583 ], [ -90.628500354104162, 36.681236375227606 ], [ -90.52442699258242, 36.701048625075906 ] ] ] } },
{ "type": "Feature", "properties": { "ID": 79099, "date": "2022-11-20T00:00:00", "smokePM_pred": 2.6068332195282 }, "geometry": { "type": "Polygon", "coordinates": [ [ [ -90.420252094290802, 36.720778815373933 ], [ -90.395845065804693, 36.636866557721397 ], [ -90.49992437811612, 36.617196207826204 ], [ -90.52442699258242, 36.701048625075906 ], [ -90.420252094290802, 36.720778815373933 ] ] ] } },
{ "type": "Feature", "properties": { "ID": 79613, "date": "2022-11-20T00:00:00", "smokePM_pred": 3.0674967765808101 }, "geometry": { "type": "Polygon", "coordinates": [ [ [ -90.549031144242704, 36.784885725375382 ], [ -90.52442699258242, 36.701048625075906 ], [ -90.628500354104162, 36.681236375227606 ], [ -90.653199992817761, 36.765013298343561 ], [ -90.549031144242704, 36.784885725375382 ] ] ] } },
{ "type": "Feature", "properties": { "ID": 79614, "date": "2022-11-20T00:00:00", "smokePM_pred": 3.0577745437622101 }, "geometry": { "type": "Polygon", "coordinates": [ [ [ -90.444760340105191, 36.804675874170904 ], [ -90.420252094290802, 36.720778815373933 ], [ -90.52442699258242, 36.701048625075906 ], [ -90.549031144242704, 36.784885725375382 ], [ -90.444760340105191, 36.804675874170904 ] ] ] } },
{ "type": "Feature", "properties": { "ID": 80128, "date": "2022-11-20T00:00:00", "smokePM_pred": 3.0196051597595202 }, "geometry": { "type": "Polygon", "coordinates": [ [ [ -90.573737251892425, 36.868707434116949 ], [ -90.549031144242704, 36.784885725375382 ], [ -90.653199992817761, 36.765013298343561 ], [ -90.678001905438137, 36.848774711097192 ], [ -90.573737251892425, 36.868707434116949 ] ] ] } },
{ "type": "Feature", "properties": { "ID": 80129, "date": "2022-11-20T00:00:00", "smokePM_pred": 3.2255821228027299 }, "geometry": { "type": "Polygon", "coordinates": [ [ [ -90.469370221429713, 36.888557660064649 ], [ -90.444760340105191, 36.804675874170904 ], [ -90.549031144242704, 36.784885725375382 ], [ -90.573737251892425, 36.868707434116949 ], [ -90.469370221429713, 36.888557660064649 ] ] ] } },
{ "type": "Feature", "properties": { "ID": 80130, "date": "2022-11-20T00:00:00", "smokePM_pred": 3.0036067962646502 }, "geometry": { "type": "Polygon", "coordinates": [ [ [ -90.364901135142119, 36.908325109546091 ], [ -90.340387900884707, 36.824383466526328 ], [ -90.444760340105191, 36.804675874170904 ], [ -90.469370221429713, 36.888557660064649 ], [ -90.364901135142119, 36.908325109546091 ] ] ] } },
{ "type": "Feature", "properties": { "ID": 80643, "date": "2022-11-20T00:00:00", "smokePM_pred": 3.5161545276641801 }, "geometry": { "type": "Polygon", "coordinates": [ [ [ -90.598545736889037, 36.952513676275046 ], [ -90.573737251892425, 36.868707434116949 ], [ -90.678001905438137, 36.848774711097192 ], [ -90.702906513918165, 36.932520537900793 ], [ -90.598545736889037, 36.952513676275046 ] ] ] } },
{ "type": "Feature", "properties": { "ID": 80644, "date": "2022-11-20T00:00:00", "smokePM_pred": 3.4026138782501198 }, "geometry": { "type": "Polygon", "coordinates": [ [ [ -90.494082159009096, 36.972424098592263 ], [ -90.469370221429713, 36.888557660064649 ], [ -90.573737251892425, 36.868707434116949 ], [ -90.598545736889037, 36.952513676275046 ], [ -90.494082159009096, 36.972424098592263 ] ] ] } },
{ "type": "Feature", "properties": { "ID": 80645, "date": "2022-11-20T00:00:00", "smokePM_pred": 3.6011869907379199 }, "geometry": { "type": "Polygon", "coordinates": [ [ [ -90.389516101982238, 36.992251524262635 ], [ -90.364901135142119, 36.908325109546091 ], [ -90.469370221429713, 36.888557660064649 ], [ -90.494082159009096, 36.972424098592263 ], [ -90.389516101982238, 36.992251524262635 ] ] ] } },
{ "type": "Feature", "properties": { "ID": 82151, "date": "2022-11-20T00:00:00", "smokePM_pred": 2.68004298210144 }, "geometry": { "type": "Polygon", "coordinates": [ [ [ -94.473843694285662, 36.404277075510819 ], [ -94.445424738818474, 36.322902314708379 ], [ -94.545940285726743, 36.299915214953806 ], [ -94.574440077319622, 36.381221934739244 ], [ -94.473843694285662, 36.404277075510819 ] ] ] } },
{ "type": "Feature", "properties": { "ID": 82152, "date": "2022-11-20T00:00:00", "smokePM_pred": 2.83314752578735 }, "geometry": { "type": "Polygon", "coordinates": [ [ [ -94.373133094038508, 36.427259722592702 ], [ -94.344795417063381, 36.345817095253089 ], [ -94.445424738818474, 36.322902314708379 ], [ -94.473843694285662, 36.404277075510819 ], [ -94.373133094038508, 36.427259722592702 ] ] ] } },
{ "type": "Feature", "properties": { "ID": 82153, "date": "2022-11-20T00:00:00", "smokePM_pred": 3.0832211971282999 }, "geometry": { "type": "Polygon", "coordinates": [ [ [ -94.272308503961995, 36.450169574702279 ], [ -94.244052547847375, 36.368659256512132 ], [ -94.344795417063381, 36.345817095253089 ], [ -94.373133094038508, 36.427259722592702 ], [ -94.272308503961995, 36.450169574702279 ] ] ] } },
{ "type": "Feature", "properties": { "ID": 82666, "date": "2022-11-20T00:00:00", "smokePM_pred": 2.33740139007568 }, "geometry": { "type": "Polygon", "coordinates": [ [ [ -94.502376867385564, 36.48563151081332 ], [ -94.473843694285662, 36.404277075510819 ], [ -94.574440077319622, 36.381221934739244 ], [ -94.603054311411128, 36.462508205571844 ], [ -94.502376867385564, 36.48563151081332 ] ] ] } },
{ "type": "Feature", "properties": { "ID": 82667, "date": "2022-11-20T00:00:00", "smokePM_pred": 2.9777348041534402 }, "geometry": { "type": "Polygon", "coordinates": [ [ [ -94.401584761263408, 36.508682147924624 ], [ -94.373133094038508, 36.427259722592702 ], [ -94.473843694285662, 36.404277075510819 ], [ -94.502376867385564, 36.48563151081332 ], [ -94.401584761263408, 36.508682147924624 ] ] ] } },
{ "type": "Feature", "properties": { "ID": 82668, "date": "2022-11-20T00:00:00", "smokePM_pred": 3.58696341514587 }, "geometry": { "type": "Polygon", "coordinates": [ [ [ -94.300678220420892, 36.531659814411697 ], [ -94.272308503961995, 36.450169574702279 ], [ -94.373133094038508, 36.427259722592702 ], [ -94.401584761263408, 36.508682147924624 ], [ -94.300678220420892, 36.531659814411697 ] ] ] } },
{ "type": "Feature", "properties": { "ID": 82669, "date": "2022-11-20T00:00:00", "smokePM_pred": 3.5527181625366202 }, "geometry": { "type": "Polygon", "coordinates": [ [ [ -94.199657474771939, 36.554564208072492 ], [ -94.17137015396257, 36.473006330849955 ], [ -94.272308503961995, 36.450169574702279 ], [ -94.300678220420892, 36.531659814411697 ], [ -94.199657474771939, 36.554564208072492 ] ] ] } },
{ "type": "Feature", "properties": { "ID": 83182, "date": "2022-11-20T00:00:00", "smokePM_pred": 2.7612884044647199 }, "geometry": { "type": "Polygon", "coordinates": [ [ [ -94.430150863631624, 36.590084273986577 ], [ -94.401584761263408, 36.508682147924624 ], [ -94.502376867385564, 36.48563151081332 ], [ -94.531024703004036, 36.566965522819977 ], [ -94.430150863631624, 36.590084273986577 ] ] ] } },
{ "type": "Feature", "properties": { "ID": 83183, "date": "2022-11-20T00:00:00", "smokePM_pred": 3.0377299785614 }, "geometry": { "type": "Polygon", "coordinates": [ [ [ -94.329162142110107, 36.613129878913384 ], [ -94.300678220420892, 36.531659814411697 ], [ -94.401584761263408, 36.508682147924624 ], [ -94.430150863631624, 36.590084273986577 ], [ -94.329162142110107, 36.613129878913384 ] ] ] } },
{ "type": "Feature", "properties": { "ID": 83184, "date": "2022-11-20T00:00:00", "smokePM_pred": 2.8668849468231201 }, "geometry": { "type": "Polygon", "coordinates": [ [ [ -94.228058768355339, 36.636102034181192 ], [ -94.199657474771939, 36.554564208072492 ], [ -94.300678220420892, 36.531659814411697 ], [ -94.329162142110107, 36.613129878913384 ], [ -94.228058768355339, 36.636102034181192 ] ] ] } },
{ "type": "Feature", "properties": { "ID": 86279, "date": "2022-11-20T00:00:00", "smokePM_pred": 3.3305895328521702 }, "geometry": { "type": "Polygon", "coordinates": [ [ [ -93.891112434012754, 37.24068076468685 ], [ -93.862444878104256, 37.158925399630796 ], [ -93.964545979855458, 37.135988855429332 ], [ -93.993299873774319, 37.217676604687057 ], [ -93.891112434012754, 37.24068076468685 ] ] ] } },
{ "type": "Feature", "properties": { "ID": 86280, "date": "2022-11-20T00:00:00", "smokePM_pred": 2.9528853893279998 }, "geometry": { "type": "Polygon", "coordinates": [ [ [ -93.788809037927081, 37.263608556353383 ], [ -93.760228282904976, 37.181785759603962 ], [ -93.862444878104256, 37.158925399630796 ], [ -93.891112434012754, 37.24068076468685 ], [ -93.788809037927081, 37.263608556353383 ] ] ] } },
{ "type": "Feature", "properties": { "ID": 86281, "date": "2022-11-20T00:00:00", "smokePM_pred": 2.7484257221221902 }, "geometry": { "type": "Polygon", "coordinates": [ [ [ -93.68638993401639, 37.286459671118678 ], [ -93.657896442676687, 37.204569628033724 ], [ -93.760228282904976, 37.181785759603962 ], [ -93.788809037927081, 37.263608556353383 ], [ -93.68638993401639, 37.286459671118678 ] ] ] } },
{ "type": "Feature", "properties": { "ID": 86794, "date": "2022-11-20T00:00:00", "smokePM_pred": 3.7969183921814 }, "geometry": { "type": "Polygon", "coordinates": [ [ [ -93.919895946693345, 37.322416030556589 ], [ -93.891112434012754, 37.24068076468685 ], [ -93.993299873774319, 37.217676604687057 ], [ -94.022169970275371, 37.299344126703687 ], [ -93.919895946693345, 37.322416030556589 ] ] ] } },
{ "type": "Feature", "properties": { "ID": 86795, "date": "2022-11-20T00:00:00", "smokePM_pred": 3.1156961917877202 }, "geometry": { "type": "Polygon", "coordinates": [ [ [ -93.817505501223181, 37.34541138198523 ], [ -93.788809037927081, 37.263608556353383 ], [ -93.891112434012754, 37.24068076468685 ], [ -93.919895946693345, 37.322416030556589 ], [ -93.817505501223181, 37.34541138198523 ] ] ] } },
{ "type": "Feature", "properties": { "ID": 86796, "date": "2022-11-20T00:00:00", "smokePM_pred": 2.9841685295104998 }, "geometry": { "type": "Polygon", "coordinates": [ [ [ -93.714998882438323, 37.368329871163624 ], [ -93.68638993401639, 37.286459671118678 ], [ -93.788809037927081, 37.263608556353383 ], [ -93.817505501223181, 37.34541138198523 ], [ -93.714998882438323, 37.368329871163624 ] ] ] } },
{ "type": "Feature", "properties": { "ID": 86797, "date": "2022-11-20T00:00:00", "smokePM_pred": 3.1388425827026398 }, "geometry": { "type": "Polygon", "coordinates": [ [ [ -93.612376341622607, 37.391171188625179 ], [ -93.583855373473313, 37.309233800774969 ], [ -93.68638993401639, 37.286459671118678 ], [ -93.714998882438323, 37.368329871163624 ], [ -93.612376341622607, 37.391171188625179 ] ] ] } },
{ "type": "Feature", "properties": { "ID": 87310, "date": "2022-11-20T00:00:00", "smokePM_pred": 3.9483826160430899 }, "geometry": { "type": "Polygon", "coordinates": [ [ [ -93.846318138285639, 37.427194139399099 ], [ -93.817505501223181, 37.34541138198523 ], [ -93.919895946693345, 37.322416030556589 ], [ -93.94879588171294, 37.404131099575729 ], [ -93.846318138285639, 37.427194139399099 ] ] ] } },
{ "type": "Feature", "properties": { "ID": 87311, "date": "2022-11-20T00:00:00", "smokePM_pred": 2.1928696632385298 }, "geometry": { "type": "Polygon", "coordinates": [ [ [ -93.743723753343716, 37.450180131633701 ], [ -93.714998882438323, 37.368329871163624 ], [ -93.817505501223181, 37.34541138198523 ], [ -93.846318138285639, 37.427194139399099 ], [ -93.743723753343716, 37.450180131633701 ] ] ] } },
{ "type": "Feature", "properties": { "ID": 87312, "date": "2022-11-20T00:00:00", "smokePM_pred": 2.2592711448669398 }, "geometry": { "type": "Polygon", "coordinates": [ [ [ -93.64101297825664, 37.473088765549036 ], [ -93.612376341622607, 37.391171188625179 ], [ -93.714998882438323, 37.368329871163624 ], [ -93.743723753343716, 37.450180131633701 ], [ -93.64101297825664, 37.473088765549036 ] ] ] } },
{ "type": "Feature", "properties": { "ID": 93322, "date": "2022-11-20T00:00:00", "smokePM_pred": 5.0334606170654297 }, "geometry": { "type": "Polygon", "coordinates": [ [ [ -109.767848267634321, 33.541544265426495 ], [ -109.729012262585698, 33.473280244221989 ], [ -109.810426414351056, 33.44077531863973 ], [ -109.849278766515638, 33.508955608203117 ], [ -109.767848267634321, 33.541544265426495 ] ] ] } },
{ "type": "Feature", "properties": { "ID": 93323, "date": "2022-11-20T00:00:00", "smokePM_pred": 6.0721664428710902 }, "geometry": { "type": "Polygon", "coordinates": [ [ [ -109.686286729699262, 33.574106738262117 ], [ -109.647467412499509, 33.505758990885141 ], [ -109.729012262585698, 33.473280244221989 ], [ -109.767848267634321, 33.541544265426495 ], [ -109.686286729699262, 33.574106738262117 ] ] ] } },
{ "type": "Feature", "properties": { "ID": 93324, "date": "2022-11-20T00:00:00", "smokePM_pred": 6.6307349205017099 }, "geometry": { "type": "Polygon", "coordinates": [ [ [ -109.604594058461387, 33.606642750523243 ], [ -109.565791771242701, 33.538211283178853 ], [ -109.647467412499509, 33.505758990885141 ], [ -109.686286729699262, 33.574106738262117 ], [ -109.604594058461387, 33.606642750523243 ] ] ] } },
{ "type": "Feature", "properties": { "ID": 93838, "date": "2022-11-20T00:00:00", "smokePM_pred": 6.8458991050720197 }, "geometry": { "type": "Polygon", "coordinates": [ [ [ -109.725237180386671, 33.642413970433282 ], [ -109.686286729699262, 33.574106738262117 ], [ -109.767848267634321, 33.541544265426495 ], [ -109.806815311919834, 33.609767690935016 ], [ -109.725237180386671, 33.642413970433282 ] ] ] } },
{ "type": "Feature", "properties": { "ID": 93839, "date": "2022-11-20T00:00:00", "smokePM_pred": 8.3573398590087908 }, "geometry": { "type": "Polygon", "coordinates": [ [ [ -109.643527572309381, 33.675033783631051 ], [ -109.604594058461387, 33.606642750523243 ], [ -109.686286729699262, 33.574106738262117 ], [ -109.725237180386671, 33.642413970433282 ], [ -109.643527572309381, 33.675033783631051 ] ] ] } },
{ "type": "Feature", "properties": { "ID": 98977, "date": "2022-11-20T00:00:00", "smokePM_pred": 4.3299579620361301 }, "geometry": { "type": "Polygon", "coordinates": [ [ [ -111.013755803492273, 33.953449254036677 ], [ -110.973322821596867, 33.886487073066924 ], [ -111.053572464330813, 33.852809986509435 ], [ -111.094017220309254, 33.919687589045267 ], [ -111.013755803492273, 33.953449254036677 ] ] ] } },
{ "type": "Feature", "properties": { "ID": 98978, "date": "2022-11-20T00:00:00", "smokePM_pred": 4.4173150062561 }, "geometry": { "type": "Polygon", "coordinates": [ [ [ -110.93336068895654, 33.987187507435024 ], [ -110.892939818834023, 33.920140740940404 ], [ -110.973322821596867, 33.886487073066924 ], [ -111.013755803492273, 33.953449254036677 ], [ -110.93336068895654, 33.987187507435024 ] ] ] } },
{ "type": "Feature", "properties": { "ID": 98979, "date": "2022-11-20T00:00:00", "smokePM_pred": 4.7609100341796902 }, "geometry": { "type": "Polygon", "coordinates": [ [ [ -110.852831755876636, 34.020902072654138 ], [ -110.812423336726482, 33.953770714238182 ], [ -110.892939818834023, 33.920140740940404 ], [ -110.93336068895654, 33.987187507435024 ], [ -110.852831755876636, 34.020902072654138 ] ] ] } },
{ "type": "Feature", "properties": { "ID": 98980, "date": "2022-11-20T00:00:00", "smokePM_pred": 6.2901372909545898 }, "geometry": { "type": "Polygon", "coordinates": [ [ [ -110.772168884428112, 34.0545926723279 ], [ -110.731773256960565, 33.987376716292907 ], [ -110.812423336726482, 33.953770714238182 ], [ -110.852831755876636, 34.020902072654138 ], [ -110.772168884428112, 34.0545926723279 ] ] ] } },
{ "type": "Feature", "properties": { "ID": 98981, "date": "2022-11-20T00:00:00", "smokePM_pred": 12.384241104126 }, "geometry": { "type": "Polygon", "coordinates": [ [ [ -110.691371955798232, 34.088259028312102 ], [ -110.650989462234946, 34.020958469663455 ], [ -110.731773256960565, 33.987376716292907 ], [ -110.772168884428112, 34.0545926723279 ], [ -110.691371955798232, 34.088259028312102 ] ] ] } },
{ "type": "Feature", "properties": { "ID": 98982, "date": "2022-11-20T00:00:00", "smokePM_pred": 11.1272125244141 }, "geometry": { "type": "Polygon", "coordinates": [ [ [ -110.610440852196419, 34.121900861686392 ], [ -110.570071836271353, 34.054515696136853 ], [ -110.650989462234946, 34.020958469663455 ], [ -110.691371955798232, 34.088259028312102 ], [ -110.610440852196419, 34.121900861686392 ] ] ] } },
{ "type": "Feature", "properties": { "ID": 99491, "date": "2022-11-20T00:00:00", "smokePM_pred": 3.2883775234222399 }, "geometry": { "type": "Polygon", "coordinates": [ [ [ -111.13459555235373, 33.98652187109316 ], [ -111.094017220309254, 33.919687589045267 ], [ -111.174145061223584, 33.885902788265156 ], [ -111.214734708372234, 33.952652424119229 ], [ -111.13459555235373, 33.98652187109316 ] ] ] } },
{ "type": "Feature", "properties": { "ID": 99492, "date": "2022-11-20T00:00:00", "smokePM_pred": 3.80779027938843 }, "geometry": { "type": "Polygon", "coordinates": [ [ [ -111.054322483271477, 34.020368190568121 ], [ -111.013755803492273, 33.953449254036677 ], [ -111.094017220309254, 33.919687589045267 ], [ -111.13459555235373, 33.98652187109316 ], [ -111.054322483271477, 34.020368190568121 ] ] ] } },
{ "type": "Feature", "properties": { "ID": 99493, "date": "2022-11-20T00:00:00", "smokePM_pred": 5.2437806129455602 }, "geometry": { "type": "Polygon", "coordinates": [ [ [ -110.973915377790107, 34.054191106049672 ], [ -110.93336068895654, 33.987187507435024 ], [ -111.013755803492273, 33.953449254036677 ], [ -111.054322483271477, 34.020368190568121 ], [ -110.973915377790107, 34.054191106049672 ] ] ] } },
{ "type": "Feature", "properties": { "ID": 99494, "date": "2022-11-20T00:00:00", "smokePM_pred": 4.8003520965576199 }, "geometry": { "type": "Polygon", "coordinates": [ [ [ -110.893374113563951, 34.087990340257313 ], [ -110.852831755876636, 34.020902072654138 ], [ -110.93336068895654, 33.987187507435024 ], [ -110.973915377790107, 34.054191106049672 ], [ -110.893374113563951, 34.087990340257313 ] ] ] } },
{ "type": "Feature", "properties": { "ID": 99495, "date": "2022-11-20T00:00:00", "smokePM_pred": 7.4731020927429199 }, "geometry": { "type": "Polygon", "coordinates": [ [ [ -110.812698569247402, 34.121765615126279 ], [ -110.772168884428112, 34.0545926723279 ], [ -110.852831755876636, 34.020902072654138 ], [ -110.893374113563951, 34.087990340257313 ], [ -110.812698569247402, 34.121765615126279 ] ] ] } },
{ "type": "Feature", "properties": { "ID": 99496, "date": "2022-11-20T00:00:00", "smokePM_pred": 10.0531816482544 }, "geometry": { "type": "Polygon", "coordinates": [ [ [ -110.731888624505586, 34.15551665180945 ], [ -110.691371955798232, 34.088259028312102 ], [ -110.772168884428112, 34.0545926723279 ], [ -110.812698569247402, 34.121765615126279 ], [ -110.731888624505586, 34.15551665180945 ] ] ] } },
{ "type": "Feature", "properties": { "ID": 99497, "date": "2022-11-20T00:00:00", "smokePM_pred": 12.3514213562012 }, "geometry": { "type": "Polygon", "coordinates": [ [ [ -110.650944160025034, 34.189243170679134 ], [ -110.610440852196419, 34.121900861686392 ], [ -110.691371955798232, 34.088259028312102 ], [ -110.731888624505586, 34.15551665180945 ], [ -110.650944160025034, 34.189243170679134 ] ] ] } },
{ "type": "Feature", "properties": { "ID": 100006, "date": "2022-11-20T00:00:00", "smokePM_pred": 3.4840102195739702 }, "geometry": { "type": "Polygon", "coordinates": [ [ [ -111.175307797625209, 34.053312658695219 ], [ -111.13459555235373, 33.98652187109316 ], [ -111.214734708372234, 33.952652424119229 ], [ -111.255458144431785, 34.019358489922695 ], [ -111.175307797625209, 34.053312658695219 ] ] ] } },
{ "type": "Feature", "properties": { "ID": 100007, "date": "2022-11-20T00:00:00", "smokePM_pred": 4.1919245719909703 }, "geometry": { "type": "Polygon", "coordinates": [ [ [ -111.095023199614658, 34.087243708769677 ], [ -111.054322483271477, 34.020368190568121 ], [ -111.13459555235373, 33.98652187109316 ], [ -111.175307797625209, 34.053312658695219 ], [ -111.095023199614658, 34.087243708769677 ] ] ] } },
{ "type": "Feature", "properties": { "ID": 100008, "date": "2022-11-20T00:00:00", "smokePM_pred": 4.3814415931701696 }, "geometry": { "type": "Polygon", "coordinates": [ [ [ -111.014604225535123, 34.121151362961768 ], [ -110.973915377790107, 34.054191106049672 ], [ -111.054322483271477, 34.020368190568121 ], [ -111.095023199614658, 34.087243708769677 ], [ -111.014604225535123, 34.121151362961768 ] ] ] } },
{ "type": "Feature", "properties": { "ID": 100009, "date": "2022-11-20T00:00:00", "smokePM_pred": 3.9540767669677699 }, "geometry": { "type": "Polygon", "coordinates": [ [ [ -110.934050751510085, 34.155035343296831 ], [ -110.893374113563951, 34.087990340257313 ], [ -110.973915377790107, 34.054191106049672 ], [ -111.014604225535123, 34.121151362961768 ], [ -110.934050751510085, 34.155035343296831 ] ] ] } },
{ "type": "Feature", "properties": { "ID": 100010, "date": "2022-11-20T00:00:00", "smokePM_pred": 6.7081384658813503 }, "geometry": { "type": "Polygon", "coordinates": [ [ [ -110.853362654662163, 34.188895371011611 ], [ -110.812698569247402, 34.121765615126279 ], [ -110.893374113563951, 34.087990340257313 ], [ -110.934050751510085, 34.155035343296831 ], [ -110.853362654662163, 34.188895371011611 ] ] ] } },
{ "type": "Feature", "properties": { "ID": 164324, "date": "2022-11-20T00:00:00", "smokePM_pred": 5.5361838340759304 }, "geometry": { "type": "Polygon", "coordinates": [ [ [ -121.718176955262706, 39.404240303390992 ], [ -121.65952071524039, 39.349688574364045 ], [ -121.729750366158441, 39.304209711268008 ], [ -121.788366895704229, 39.358673687877129 ], [ -121.718176955262706, 39.404240303390992 ] ] ] } },
{ "type": "Feature", "properties": { "ID": 164325, "date": "2022-11-20T00:00:00", "smokePM_pred": 4.8348765373229998 }, "geometry": { "type": "Polygon", "coordinates": [ [ [ -121.647827537530688, 39.44980776990667 ], [ -121.589131850402254, 39.395168173675998 ], [ -121.659520715240461, 39.349688574364009 ], [ -121.718176955262777, 39.404240303390949 ], [ -121.647827537530688, 39.44980776990667 ] ] ] } },
{ "type": "Feature", "properties": { "ID": 164838, "date": "2022-11-20T00:00:00", "smokePM_pred": 4.8261609077453604 }, "geometry": { "type": "Polygon", "coordinates": [ [ [ -121.847142499318309, 39.413063832797704 ], [ -121.788366895704229, 39.358673687877129 ], [ -121.858397761983497, 39.313108196602151 ], [ -121.917132991590847, 39.36741068825846 ], [ -121.847142499318309, 39.413063832797704 ] ] ] } },
{ "type": "Feature", "properties": { "ID": 164839, "date": "2022-11-20T00:00:00", "smokePM_pred": 4.5800938606262198 }, "geometry": { "type": "Polygon", "coordinates": [ [ [ -121.776992672482834, 39.458718217229347 ], [ -121.718176955262706, 39.404240303390992 ], [ -121.788366895704229, 39.358673687877129 ], [ -121.847142499318309, 39.413063832797704 ], [ -121.776992672482834, 39.458718217229347 ] ] ] } },
{ "type": "Feature", "properties": { "ID": 164840, "date": "2022-11-20T00:00:00", "smokePM_pred": 5.31758737564087 }, "geometry": { "type": "Polygon", "coordinates": [ [ [ -121.706683105542666, 39.504373568133758 ], [ -121.647827537530688, 39.44980776990667 ], [ -121.718176955262777, 39.404240303390949 ], [ -121.776992672482919, 39.458718217229304 ], [ -121.706683105542666, 39.504373568133758 ] ] ] } },
{ "type": "Feature", "properties": { "ID": 165353, "date": "2022-11-20T00:00:00", "smokePM_pred": 4.6548833847045898 }, "geometry": { "type": "Polygon", "coordinates": [ [ [ -121.90607743739902, 39.467379891045695 ], [ -121.84714249931838, 39.413063832797768 ], [ -121.917132991590904, 39.367410688258524 ], [ -121.976027150699736, 39.421639077910235 ], [ -121.90607743739902, 39.467379891045695 ] ] ] } },
{ "type": "Feature", "properties": { "ID": 165354, "date": "2022-11-20T00:00:00", "smokePM_pred": 4.71301221847534 }, "geometry": { "type": "Polygon", "coordinates": [ [ [ -121.835968129712725, 39.513122060409358 ], [ -121.776992672482919, 39.458718217229304 ], [ -121.847142499318352, 39.413063832797668 ], [ -121.90607743739902, 39.467379891045596 ], [ -121.835968129712725, 39.513122060409358 ] ] ] } },
{ "type": "Feature", "properties": { "ID": 165355, "date": "2022-11-20T00:00:00", "smokePM_pred": 5.5362582206726101 }, "geometry": { "type": "Polygon", "coordinates": [ [ [ -121.765698819677937, 39.558865312403022 ], [ -121.706683105542609, 39.504373568133801 ], [ -121.776992672482834, 39.458718217229347 ], [ -121.835968129712654, 39.513122060409401 ], [ -121.765698819677937, 39.558865312403022 ] ] ] } },
{ "type": "Feature", "properties": { "ID": 165867, "date": "2022-11-20T00:00:00", "smokePM_pred": 4.9914455413818404 }, "geometry": { "type": "Polygon", "coordinates": [ [ [ -122.035080496723822, 39.475793110359135 ], [ -121.976027150699679, 39.421639077910186 ], [ -122.045817676985124, 39.375899893264439 ], [ -122.104829579849337, 39.429966359467173 ], [ -122.035080496723822, 39.475793110359135 ] ] ] } },
{ "type": "Feature", "properties": { "ID": 165868, "date": "2022-11-20T00:00:00", "smokePM_pred": 5.1256227493286097 }, "geometry": { "type": "Polygon", "coordinates": [ [ [ -121.96517196976653, 39.521621606931227 ], [ -121.90607743739902, 39.467379891045596 ], [ -121.976027150699736, 39.421639077910136 ], [ -122.035080496723864, 39.475793110359092 ], [ -121.96517196976653, 39.521621606931227 ] ] ] } },
{ "type": "Feature", "properties": { "ID": 165869, "date": "2022-11-20T00:00:00", "smokePM_pred": 4.8480548858642596 }, "geometry": { "type": "Polygon", "coordinates": [ [ [ -121.895103589193326, 39.567451576751019 ], [ -121.835968129712654, 39.513122060409401 ], [ -121.906077437398977, 39.467379891045638 ], [ -121.965171969766445, 39.521621606931262 ], [ -121.895103589193326, 39.567451576751019 ] ] ] } },
{ "type": "Feature", "properties": { "ID": 166382, "date": "2022-11-20T00:00:00", "smokePM_pred": 4.81591796875 }, "geometry": { "type": "Polygon", "coordinates": [ [ [ -122.094293286477381, 39.529872529706189 ], [ -122.035080496723822, 39.475793110359135 ], [ -122.104829579849337, 39.429966359467173 ], [ -122.164000517272186, 39.483958198904517 ], [ -122.094293286477381, 39.529872529706189 ] ] ] } },
{ "type": "Feature", "properties": { "ID": 166383, "date": "2022-11-20T00:00:00", "smokePM_pred": 5.1979637145996103 }, "geometry": { "type": "Polygon", "coordinates": [ [ [ -122.024426355648615, 39.575788724059073 ], [ -121.96517196976653, 39.521621606931227 ], [ -122.035080496723864, 39.475793110359092 ], [ -122.094293286477466, 39.529872529706147 ], [ -122.024426355648615, 39.575788724059073 ] ] ] } },
{ "type": "Feature", "properties": { "ID": 166898, "date": "2022-11-20T00:00:00", "smokePM_pred": 5.3141517639160201 }, "geometry": { "type": "Polygon", "coordinates": [ [ [ -122.08384085366572, 39.629880985327723 ], [ -122.024426355648544, 39.575788724059116 ], [ -122.094293286477381, 39.529872529706189 ], [ -122.153665776160196, 39.583877079351048 ], [ -122.08384085366572, 39.629880985327723 ] ] ] } },
{ "type": "Feature", "properties": { "ID": 193183, "date": "2022-11-20T00:00:00", "smokePM_pred": 14.762967109680201 }, "geometry": { "type": "Polygon", "coordinates": [ [ [ -123.953632591464938, 43.294168349908304 ], [ -123.884447501248928, 43.242466126004679 ], [ -123.955138630583519, 43.19195566400132 ], [ -124.024261947392532, 43.243567168770113 ], [ -123.953632591464938, 43.294168349908304 ] ] ] } },
{ "type": "Feature", "properties": { "ID": 193184, "date": "2022-11-20T00:00:00", "smokePM_pred": 13.3720254898071 }, "geometry": { "type": "Polygon", "coordinates": [ [ [ -123.88281966887223, 43.344772361937046 ], [ -123.813573067412889, 43.292979264315967 ], [ -123.884447501249014, 43.242466126004636 ], [ -123.953632591464995, 43.294168349908261 ], [ -123.88281966887223, 43.344772361937046 ] ] ] } },
{ "type": "Feature", "properties": { "ID": 193185, "date": "2022-11-20T00:00:00", "smokePM_pred": 12.166093826293899 }, "geometry": { "type": "Polygon", "coordinates": [ [ [ -123.811822601197235, 43.395378895881315 ], [ -123.742514753826626, 43.343494769974392 ], [ -123.813573067412889, 43.292979264316074 ], [ -123.88281966887223, 43.344772361937146 ], [ -123.811822601197235, 43.395378895881315 ] ] ] } },
{ "type": "Feature", "properties": { "ID": 193698, "date": "2022-11-20T00:00:00", "smokePM_pred": 11.842322349548301 }, "geometry": { "type": "Polygon", "coordinates": [ [ [ -124.023001248097742, 43.345781144128615 ], [ -123.953632591464938, 43.294168349908304 ], [ -124.024261947392532, 43.243567168770113 ], [ -124.093568253690236, 43.295089248425612 ], [ -124.023001248097742, 43.345781144128615 ] ] ] } },
{ "type": "Feature", "properties": { "ID": 193699, "date": "2022-11-20T00:00:00", "smokePM_pred": 13.1047096252441 }, "geometry": { "type": "Polygon", "coordinates": [ [ [ -123.95225041516639, 43.396476026112282 ], [ -123.88281966887223, 43.344772361937046 ], [ -123.953632591464995, 43.294168349908261 ], [ -124.023001248097799, 43.345781144128566 ], [ -123.95225041516639, 43.396476026112282 ] ] ] } },
{ "type": "Feature", "properties": { "ID": 193700, "date": "2022-11-20T00:00:00", "smokePM_pred": 11.7674312591553 }, "geometry": { "type": "Polygon", "coordinates": [ [ [ -123.881315173304927, 43.44717358539296 ], [ -123.811822601197164, 43.395378895881258 ], [ -123.882819668872159, 43.344772361937089 ], [ -123.952250415166318, 43.396476026112339 ], [ -123.881315173304927, 43.44717358539296 ] ] ] } },
{ "type": "Feature", "properties": { "ID": 193701, "date": "2022-11-20T00:00:00", "smokePM_pred": 10.1949872970581 }, "geometry": { "type": "Polygon", "coordinates": [ [ [ -123.810194939413662, 43.497873511324556 ], [ -123.740640808538657, 43.445987641107706 ], [ -123.811822601197164, 43.395378895881258 ], [ -123.881315173304927, 43.44717358539296 ], [ -123.810194939413662, 43.497873511324556 ] ] ] } },
{ "type": "Feature", "properties": { "ID": 194214, "date": "2022-11-20T00:00:00", "smokePM_pred": 10.86256980896 }, "geometry": { "type": "Polygon", "coordinates": [ [ [ -124.021865570139099, 43.448089946096175 ], [ -123.95225041516639, 43.396476026112381 ], [ -124.023001248097827, 43.345781144128665 ], [ -124.092553731817191, 43.397304198721926 ], [ -124.021865570139099, 43.448089946096175 ] ] ] } },
{ "type": "Feature", "properties": { "ID": 194215, "date": "2022-11-20T00:00:00", "smokePM_pred": 11.9400882720947 }, "geometry": { "type": "Polygon", "coordinates": [ [ [ -123.950992737191996, 43.498878526961981 ], [ -123.881315173304927, 43.44717358539296 ], [ -123.952250415166318, 43.396476026112339 ], [ -124.021865570138999, 43.448089946096118 ], [ -123.950992737191996, 43.498878526961981 ] ] ] } },
{ "type": "Feature", "properties": { "ID": 194216, "date": "2022-11-20T00:00:00", "smokePM_pred": 9.7744388580322301 }, "geometry": { "type": "Polygon", "coordinates": [ [ [ -123.879934646672055, 43.549669630666351 ], [ -123.810194939413662, 43.497873511324556 ], [ -123.881315173304927, 43.44717358539296 ], [ -123.950992737191996, 43.498878526961981 ], [ -123.879934646672055, 43.549669630666351 ] ] ] } },
{ "type": "Feature", "properties": { "ID": 196285, "date": "2022-11-20T00:00:00", "smokePM_pred": 6.1419343948364302 }, "geometry": { "type": "Polygon", "coordinates": [ [ [ -123.515038779376127, 44.21644216241048 ], [ -123.443985679535473, 44.164180589133565 ], [ -123.516555284910112, 44.113103269803446 ], [ -123.587546353526307, 44.165272250027805 ], [ -123.515038779376127, 44.21644216241048 ] ] ] } },
{ "type": "Feature", "properties": { "ID": 196286, "date": "2022-11-20T00:00:00", "smokePM_pred": 6.6020164489746103 }, "geometry": { "type": "Polygon", "coordinates": [ [ [ -123.442338820551598, 44.267612030426044 ], [ -123.371223982447447, 44.215257704715476 ], [ -123.443985679535473, 44.164180589133565 ], [ -123.515038779376127, 44.21644216241048 ], [ -123.442338820551598, 44.267612030426044 ] ] ] } },
{ "type": "Feature", "properties": { "ID": 196287, "date": "2022-11-20T00:00:00", "smokePM_pred": 6.7208495140075701 }, "geometry": { "type": "Polygon", "coordinates": [ [ [ -123.369445860262218, 44.318781524537101 ], [ -123.298269580370146, 44.266334287045375 ], [ -123.371223982447447, 44.215257704715476 ], [ -123.442338820551598, 44.267612030426044 ], [ -123.369445860262218, 44.318781524537101 ] ] ] } },
{ "type": "Feature", "properties": { "ID": 196288, "date": "2022-11-20T00:00:00", "smokePM_pred": 9.4923095703125 }, "geometry": { "type": "Polygon", "coordinates": [ [ [ -123.296359280153453, 44.369950313450701 ], [ -123.225121858491036, 44.31741000486879 ], [ -123.298269580370146, 44.266334287045375 ], [ -123.369445860262218, 44.318781524537101 ], [ -123.296359280153453, 44.369950313450701 ] ] ] } },
{ "type": "Feature", "properties": { "ID": 196289, "date": "2022-11-20T00:00:00", "smokePM_pred": 10.950543403625501 }, "geometry": { "type": "Polygon", "coordinates": [ [ [ -123.223078460313914, 44.421118064112314 ], [ -123.151780200468053, 44.368484525174587 ], [ -123.225121858491036, 44.31741000486879 ], [ -123.296359280153453, 44.369950313450701 ], [ -123.223078460313914, 44.421118064112314 ] ] ] } },
{ "type": "Feature", "properties": { "ID": 196290, "date": "2022-11-20T00:00:00", "smokePM_pred": 16.187879562377901 }, "geometry": { "type": "Polygon", "coordinates": [ [ [ -123.149602779282745, 44.472284441699877 ], [ -123.078243988437265, 44.419557513189048 ], [ -123.151780200468053, 44.368484525174587 ], [ -123.223078460313914, 44.421118064112314 ], [ -123.149602779282745, 44.472284441699877 ] ] ] } },
{ "type": "Feature", "properties": { "ID": 196291, "date": "2022-11-20T00:00:00", "smokePM_pred": 15.826025962829601 }, "geometry": { "type": "Polygon", "coordinates": [ [ [ -123.075931614056984, 44.523449109617687 ], [ -123.00451260302043, 44.470628632369895 ], [ -123.078243988437265, 44.419557513189048 ], [ -123.149602779282745, 44.472284441699877 ], [ -123.075931614056984, 44.523449109617687 ] ] ] } },
{ "type": "Feature", "properties": { "ID": 196800, "date": "2022-11-20T00:00:00", "smokePM_pred": 6.0434908866882298 }, "geometry": { "type": "Polygon", "coordinates": [ [ [ -123.586284263629196, 44.268612385196612 ], [ -123.515038779376127, 44.21644216241048 ], [ -123.587546353526307, 44.165272250027805 ], [ -123.658729191334231, 44.217349879174392 ], [ -123.586284263629196, 44.268612385196612 ] ] ] } },
{ "type": "Feature", "properties": { "ID": 196801, "date": "2022-11-20T00:00:00", "smokePM_pred": 6.8930521011352504 }, "geometry": { "type": "Polygon", "coordinates": [ [ [ -123.513646659859901, 44.31987500711142 ], [ -123.442338820551598, 44.267612030426044 ], [ -123.515038779376127, 44.21644216241048 ], [ -123.586284263629196, 44.268612385196612 ], [ -123.513646659859901, 44.31987500711142 ] ] ] } },
{ "type": "Feature", "properties": { "ID": 196802, "date": "2022-11-20T00:00:00", "smokePM_pred": 7.3712320327758798 }, "geometry": { "type": "Polygon", "coordinates": [ [ [ -123.440815759714155, 44.371137415353971 ], [ -123.369445860262218, 44.318781524537101 ], [ -123.442338820551598, 44.267612030426044 ], [ -123.513646659859901, 44.31987500711142 ], [ -123.440815759714155, 44.371137415353971 ] ] ] } },
{ "type": "Feature", "properties": { "ID": 196803, "date": "2022-11-20T00:00:00", "smokePM_pred": 8.1162958145141602 }, "geometry": { "type": "Polygon", "coordinates": [ [ [ -123.367790941288362, 44.422399278598974 ], [ -123.296359280153453, 44.369950313450701 ], [ -123.369445860262218, 44.318781524537101 ], [ -123.440815759714155, 44.371137415353971 ], [ -123.367790941288362, 44.422399278598974 ] ] ] } },
{ "type": "Feature", "properties": { "ID": 196804, "date": "2022-11-20T00:00:00", "smokePM_pred": 13.500028610229499 }, "geometry": { "type": "Polygon", "coordinates": [ [ [ -123.294571581094431, 44.473660263754752 ], [ -123.223078460313914, 44.421118064112314 ], [ -123.296359280153453, 44.369950313450701 ], [ -123.367790941288362, 44.422399278598974 ], [ -123.294571581094431, 44.473660263754752 ] ] ] } },
{ "type": "Feature", "properties": { "ID": 196805, "date": "2022-11-20T00:00:00", "smokePM_pred": 15.8011627197266 }, "geometry": { "type": "Polygon", "coordinates": [ [ [ -123.221157054067007, 44.524920035957024 ], [ -123.149602779282745, 44.472284441699877 ], [ -123.223078460313914, 44.421118064112314 ], [ -123.294571581094431, 44.473660263754752 ], [ -123.221157054067007, 44.524920035957024 ] ] ] } },
{ "type": "Feature", "properties": { "ID": 196806, "date": "2022-11-20T00:00:00", "smokePM_pred": 21.247545242309599 }, "geometry": { "type": "Polygon", "coordinates": [ [ [ -123.147546733570778, 44.576178258562912 ], [ -123.075931614056984, 44.523449109617687 ], [ -123.149602779282745, 44.472284441699877 ], [ -123.221157054067007, 44.524920035957024 ], [ -123.147546733570778, 44.576178258562912 ] ] ] } },
{ "type": "Feature", "properties": { "ID": 196807, "date": "2022-11-20T00:00:00", "smokePM_pred": 21.8402805328369 }, "geometry": { "type": "Polygon", "coordinates": [ [ [ -123.073739991408232, 44.627434593144869 ], [ -123.002064340099665, 44.574611729490471 ], [ -123.075931614056984, 44.523449109617687 ], [ -123.147546733570778, 44.576178258562912 ], [ -123.073739991408232, 44.627434593144869 ] ] ] } },
{ "type": "Feature", "properties": { "ID": 196808, "date": "2022-11-20T00:00:00", "smokePM_pred": 21.5542507171631 }, "geometry": { "type": "Polygon", "coordinates": [ [ [ -122.999736197827403, 44.678688699484589 ], [ -122.928000331347462, 44.625771961157355 ], [ -123.002064340099665, 44.574611729490471 ], [ -123.073739991408232, 44.627434593144869 ], [ -122.999736197827403, 44.678688699484589 ] ] ] } },
{ "type": "Feature", "properties": { "ID": 197317, "date": "2022-11-20T00:00:00", "smokePM_pred": 6.8728542327880904 }, "geometry": { "type": "Polygon", "coordinates": [ [ [ -123.512379577182074, 44.423401632960861 ], [ -123.440815759714155, 44.371137415353971 ], [ -123.513646659859901, 44.31987500711142 ], [ -123.585147795279426, 44.372046309081071 ], [ -123.512379577182074, 44.423401632960861 ] ] ] } },
{ "type": "Feature", "properties": { "ID": 197318, "date": "2022-11-20T00:00:00", "smokePM_pred": 8.3123655319213903 }, "geometry": { "type": "Polygon", "coordinates": [ [ [ -123.439417143928537, 44.474756572934226 ], [ -123.367790941288362, 44.422399278598974 ], [ -123.440815759714155, 44.371137415353971 ], [ -123.512379577182074, 44.423401632960861 ], [ -123.439417143928537, 44.474756572934226 ] ] ] } },
{ "type": "Feature", "properties": { "ID": 197319, "date": "2022-11-20T00:00:00", "smokePM_pred": 13.4993276596069 }, "geometry": { "type": "Polygon", "coordinates": [ [ [ -123.366259868446789, 44.526110795878459 ], [ -123.294571581094431, 44.473660263754752 ], [ -123.367790941288362, 44.422399278598974 ], [ -123.439417143928537, 44.474756572934226 ], [ -123.366259868446789, 44.526110795878459 ] ] ] } },
{ "type": "Feature", "properties": { "ID": 197320, "date": "2022-11-20T00:00:00", "smokePM_pred": 15.356563568115201 }, "geometry": { "type": "Polygon", "coordinates": [ [ [ -123.292907122059646, 44.577463966893369 ], [ -123.221157054067007, 44.524920035957024 ], [ -123.294571581094431, 44.473660263754752 ], [ -123.366259868446789, 44.526110795878459 ], [ -123.292907122059646, 44.577463966893369 ] ] ] } },
{ "type": "Feature", "properties": { "ID": 197321, "date": "2022-11-20T00:00:00", "smokePM_pred": 20.171289443969702 }, "geometry": { "type": "Polygon", "coordinates": [ [ [ -123.219358274491825, 44.62881574929515 ], [ -123.147546733570778, 44.576178258562912 ], [ -123.221157054067007, 44.524920035957024 ], [ -123.292907122059646, 44.577463966893369 ], [ -123.219358274491825, 44.62881574929515 ] ] ] } },
{ "type": "Feature", "properties": { "ID": 197322, "date": "2022-11-20T00:00:00", "smokePM_pred": 21.942308425903299 }, "geometry": { "type": "Polygon", "coordinates": [ [ [ -123.145612693877425, 44.680165804610255 ], [ -123.073739991408232, 44.627434593144869 ], [ -123.147546733570778, 44.576178258562912 ], [ -123.219358274491825, 44.62881574929515 ], [ -123.145612693877425, 44.680165804610255 ] ] ] } },
{ "type": "Feature", "properties": { "ID": 197323, "date": "2022-11-20T00:00:00", "smokePM_pred": 20.8946533203125 }, "geometry": { "type": "Polygon", "coordinates": [ [ [ -123.071669746767668, 44.731513792569224 ], [ -122.99973619782736, 44.678688699484532 ], [ -123.073739991408189, 44.627434593144827 ], [ -123.145612693877368, 44.680165804610205 ], [ -123.071669746767668, 44.731513792569224 ] ] ] } },
{ "type": "Feature", "properties": { "ID": 197324, "date": "2022-11-20T00:00:00", "smokePM_pred": 17.6855373382568 }, "geometry": { "type": "Polygon", "coordinates": [ [ [ -122.99752879813893, 44.782859371100749 ], [ -122.925534721529829, 44.729940235566936 ], [ -122.999736197827403, 44.678688699484589 ], [ -123.071669746767711, 44.731513792569274 ], [ -122.99752879813893, 44.782859371100749 ] ] ] } },
{ "type": "Feature", "properties": { "ID": 197325, "date": "2022-11-20T00:00:00", "smokePM_pred": 18.250921249389599 }, "geometry": { "type": "Polygon", "coordinates": [ [ [ -122.923189211400384, 44.834202196325144 ], [ -122.851134929679034, 44.781188857573959 ], [ -122.925534721529829, 44.729940235566936 ], [ -122.99752879813893, 44.782859371100749 ], [ -122.923189211400384, 44.834202196325144 ] ] ] } },
{ "type": "Feature", "properties": { "ID": 197330, "date": "2022-11-20T00:00:00", "smokePM_pred": 9.2558803558349592 }, "geometry": { "type": "Polygon", "coordinates": [ [ [ -122.548489316775374, 45.090862859717653 ], [ -122.476138981269273, 45.03737609588763 ], [ -122.551539896660714, 44.986147265050256 ], [ -122.623831697167276, 45.039539022934065 ], [ -122.548489316775374, 45.090862859717653 ] ] ] } },
{ "type": "Feature", "properties": { "ID": 197331, "date": "2022-11-20T00:00:00", "smokePM_pred": 7.5992269515991202 }, "geometry": { "type": "Polygon", "coordinates": [ [ [ -122.472944446308361, 45.142181841604206 ], [ -122.400535921497038, 45.088599911543376 ], [ -122.476138981269273, 45.03737609588763 ], [ -122.548489316775374, 45.090862859717653 ], [ -122.472944446308361, 45.142181841604206 ] ] ] } },
{ "type": "Feature", "properties": { "ID": 197834, "date": "2022-11-20T00:00:00", "smokePM_pred": 11.2423696517944 }, "geometry": { "type": "Polygon", "coordinates": [ [ [ -123.438143626438276, 44.578469331351535 ], [ -123.366259868446789, 44.526110795878459 ], [ -123.439417143928537, 44.474756572934226 ], [ -123.511238188529347, 44.527021868176448 ], [ -123.438143626438276, 44.578469331351535 ] ] ] } },
{ "type": "Feature", "properties": { "ID": 197835, "date": "2022-11-20T00:00:00", "smokePM_pred": 12.506598472595201 }, "geometry": { "type": "Polygon", "coordinates": [ [ [ -123.364853290967915, 44.629915904525397 ], [ -123.292907122059646, 44.577463966893369 ], [ -123.366259868446789, 44.526110795878459 ], [ -123.438143626438276, 44.578469331351535 ], [ -123.364853290967915, 44.629915904525397 ] ] ] } },
{ "type": "Feature", "properties": { "ID": 197836, "date": "2022-11-20T00:00:00", "smokePM_pred": 13.9039192199707 }, "geometry": { "type": "Polygon", "coordinates": [ [ [ -123.291366548195569, 44.681361250979606 ], [ -123.219358274491825, 44.62881574929515 ], [ -123.292907122059646, 44.577463966893369 ], [ -123.364853290967915, 44.629915904525397 ], [ -123.291366548195569, 44.681361250979606 ] ] ] } },
{ "type": "Feature", "properties": { "ID": 197837, "date": "2022-11-20T00:00:00", "smokePM_pred": 19.4841423034668 }, "geometry": { "type": "Polygon", "coordinates": [ [ [ -123.2176827625794, 44.732805032200986 ], [ -123.145612693877425, 44.680165804610255 ], [ -123.219358274491825, 44.62881574929515 ], [ -123.291366548195569, 44.681361250979606 ], [ -123.2176827625794, 44.732805032200986 ] ] ] } },
{ "type": "Feature", "properties": { "ID": 197838, "date": "2022-11-20T00:00:00", "smokePM_pred": 17.811882019043001 }, "geometry": { "type": "Polygon", "coordinates": [ [ [ -123.143801296965961, 44.784246907875293 ], [ -123.071669746767711, 44.731513792569274 ], [ -123.145612693877425, 44.680165804610255 ], [ -123.2176827625794, 44.732805032200986 ], [ -123.143801296965961, 44.784246907875293 ] ] ] } },
{ "type": "Feature", "properties": { "ID": 197839, "date": "2022-11-20T00:00:00", "smokePM_pred": 17.703382492065401 }, "geometry": { "type": "Polygon", "coordinates": [ [ [ -123.069721512598036, 44.835686535881166 ], [ -122.99752879813893, 44.782859371100749 ], [ -123.071669746767711, 44.731513792569274 ], [ -123.143801296965961, 44.784246907875293 ], [ -123.069721512598036, 44.835686535881166 ] ] ] } },
{ "type": "Feature", "properties": { "ID": 197840, "date": "2022-11-20T00:00:00", "smokePM_pred": 19.339384078979499 }, "geometry": { "type": "Polygon", "coordinates": [ [ [ -122.995442769122391, 44.887123572283876 ], [ -122.923189211400384, 44.834202196325144 ], [ -122.99752879813893, 44.782859371100749 ], [ -123.069721512598036, 44.835686535881166 ], [ -122.995442769122391, 44.887123572283876 ] ] ] } },
{ "type": "Feature", "properties": { "ID": 197841, "date": "2022-11-20T00:00:00", "smokePM_pred": 21.853441238403299 }, "geometry": { "type": "Polygon", "coordinates": [ [ [ -122.920964424598182, 44.93855767132915 ], [ -122.848650348402813, 44.885541922548626 ], [ -122.923189211400384, 44.834202196325144 ], [ -122.995442769122391, 44.887123572283876 ], [ -122.920964424598182, 44.93855767132915 ] ] ] } },
{ "type": "Feature", "properties": { "ID": 197845, "date": "2022-11-20T00:00:00", "smokePM_pred": 9.3661956787109393 }, "geometry": { "type": "Polygon", "coordinates": [ [ [ -122.621042142105964, 45.144257714820739 ], [ -122.548489316775374, 45.090862859717653 ], [ -122.623831697167276, 45.039539022934065 ], [ -122.696325341688009, 45.092838859354821 ], [ -122.621042142105964, 45.144257714820739 ] ] ] } },
{ "type": "Feature", "properties": { "ID": 197846, "date": "2022-11-20T00:00:00", "smokePM_pred": 9.0419769287109393 }, "geometry": { "type": "Polygon", "coordinates": [ [ [ -122.545556108258083, 45.195671876648767 ], [ -122.472944446308361, 45.142181841604206 ], [ -122.548489316775374, 45.090862859717653 ], [ -122.621042142105964, 45.144257714820739 ], [ -122.545556108258083, 45.195671876648767 ] ] ] } },
{ "type": "Feature", "properties": { "ID": 198351, "date": "2022-11-20T00:00:00", "smokePM_pred": 11.8229417800903 }, "geometry": { "type": "Polygon", "coordinates": [ [ [ -123.363571864474565, 44.733814431858349 ], [ -123.291366548195569, 44.681361250979606 ], [ -123.364853290967915, 44.629915904525397 ], [ -123.436995866908305, 44.682275517954423 ], [ -123.363571864474565, 44.733814431858349 ] ] ] } },
{ "type": "Feature", "properties": { "ID": 198352, "date": "2022-11-20T00:00:00", "smokePM_pred": 11.813865661621101 }, "geometry": { "type": "Polygon", "coordinates": [ [ [ -123.289950511011298, 44.785351943300114 ], [ -123.2176827625794, 44.732805032200986 ], [ -123.291366548195569, 44.681361250979606 ], [ -123.363571864474565, 44.733814431858349 ], [ -123.289950511011298, 44.785351943300114 ] ] ] } },
{ "type": "Feature", "properties": { "ID": 198353, "date": "2022-11-20T00:00:00", "smokePM_pred": 17.172803878784201 }, "geometry": { "type": "Polygon", "coordinates": [ [ [ -123.216131165652769, 44.836887711927147 ], [ -123.143801296965961, 44.784246907875293 ], [ -123.2176827625794, 44.732805032200986 ], [ -123.289950511011298, 44.785351943300114 ], [ -123.216131165652769, 44.836887711927147 ] ] ] } },
{ "type": "Feature", "properties": { "ID": 198354, "date": "2022-11-20T00:00:00", "smokePM_pred": 22.790683746337901 }, "geometry": { "type": "Polygon", "coordinates": [ [ [ -123.142113185900172, 44.888421395574554 ], [ -123.069721512598036, 44.835686535881166 ], [ -123.143801296965961, 44.784246907875293 ], [ -123.216131165652769, 44.836887711927147 ], [ -123.142113185900172, 44.888421395574554 ] ] ] } },
{ "type": "Feature", "properties": { "ID": 198355, "date": "2022-11-20T00:00:00", "smokePM_pred": 27.873725891113299 }, "geometry": { "type": "Polygon", "coordinates": [ [ [ -123.067895927629721, 44.939952650258846 ], [ -122.995442769122391, 44.887123572283876 ], [ -123.069721512598036, 44.835686535881166 ], [ -123.142113185900172, 44.888421395574554 ], [ -123.067895927629721, 44.939952650258846 ] ] ] } },
{ "type": "Feature", "properties": { "ID": 198356, "date": "2022-11-20T00:00:00", "smokePM_pred": 28.6713962554932 }, "geometry": { "type": "Polygon", "coordinates": [ [ [ -122.993478745100504, 44.991481130171763 ], [ -122.920964424598182, 44.93855767132915 ], [ -122.995442769122391, 44.887123572283876 ], [ -123.067895927629721, 44.939952650258846 ], [ -122.993478745100504, 44.991481130171763 ] ] ] } },
{ "type": "Feature", "properties": { "ID": 198357, "date": "2022-11-20T00:00:00", "smokePM_pred": 24.5328159332275 }, "geometry": { "type": "Polygon", "coordinates": [ [ [ -122.918860990962628, 45.043006487673928 ], [ -122.846285835505213, 44.989988485436996 ], [ -122.920964424598182, 44.93855767132915 ], [ -122.993478745100504, 44.991481130171763 ], [ -122.918860990962628, 45.043006487673928 ] ] ] } },
{ "type": "Feature", "properties": { "ID": 198868, "date": "2022-11-20T00:00:00", "smokePM_pred": 14.1727142333984 }, "geometry": { "type": "Polygon", "coordinates": [ [ [ -123.288659668462628, 44.889435870311196 ], [ -123.216131165652698, 44.836887711927091 ], [ -123.289950511011241, 44.785351943300071 ], [ -123.362416251066264, 44.837806204360703 ], [ -123.288659668462628, 44.889435870311196 ] ] ] } },
{ "type": "Feature", "properties": { "ID": 198869, "date": "2022-11-20T00:00:00", "smokePM_pred": 17.174665451049801 }, "geometry": { "type": "Polygon", "coordinates": [ [ [ -123.214704137450667, 44.941063614900955 ], [ -123.142113185900172, 44.888421395574554 ], [ -123.216131165652769, 44.836887711927147 ], [ -123.288659668462699, 44.889435870311239 ], [ -123.214704137450667, 44.941063614900955 ] ] ] } },
{ "type": "Feature", "properties": { "ID": 198870, "date": "2022-11-20T00:00:00", "smokePM_pred": 21.360263824462901 }, "geometry": { "type": "Polygon", "coordinates": [ [ [ -123.140549010127728, 44.992689094104179 ], [ -123.067895927629721, 44.939952650258846 ], [ -123.142113185900172, 44.888421395574554 ], [ -123.214704137450667, 44.941063614900955 ], [ -123.140549010127728, 44.992689094104179 ] ] ] } },
{ "type": "Feature", "properties": { "ID": 198871, "date": "2022-11-20T00:00:00", "smokePM_pred": 25.086641311645501 }, "geometry": { "type": "Polygon", "coordinates": [ [ [ -123.066193636944661, 45.044311962065123 ], [ -122.993478745100504, 44.991481130171763 ], [ -123.067895927629721, 44.939952650258846 ], [ -123.140549010127728, 44.992689094104179 ], [ -123.066193636944661, 45.044311962065123 ] ] ] } },
{ "type": "Feature", "properties": { "ID": 198872, "date": "2022-11-20T00:00:00", "smokePM_pred": 26.378633499145501 }, "geometry": { "type": "Polygon", "coordinates": [ [ [ -122.991637366713491, 45.095931871091594 ], [ -122.918860990962628, 45.043006487673928 ], [ -122.993478745100504, 44.991481130171763 ], [ -123.066193636944661, 45.044311962065123 ], [ -122.991637366713491, 45.095931871091594 ] ] ] } },
{ "type": "Feature", "properties": { "ID": 198873, "date": "2022-11-20T00:00:00", "smokePM_pred": 17.609178543090799 }, "geometry": { "type": "Polygon", "coordinates": [ [ [ -122.916879546616101, 45.147548471648726 ], [ -122.844042016266016, 45.094528373288696 ], [ -122.918860990962628, 45.043006487673928 ], [ -122.991637366713491, 45.095931871091594 ], [ -122.916879546616101, 45.147548471648726 ] ] ] } },
{ "type": "Feature", "properties": { "ID": 198874, "date": "2022-11-20T00:00:00", "smokePM_pred": 12.2913265228271 }, "geometry": { "type": "Polygon", "coordinates": [ [ [ -122.841919522212493, 45.19916141235263 ], [ -122.769021170468889, 45.146046435695865 ], [ -122.844042016266016, 45.094528373288696 ], [ -122.916879546616101, 45.147548471648726 ], [ -122.841919522212493, 45.19916141235263 ] ] ] } },
{ "type": "Feature", "properties": { "ID": 198890, "date": "2022-11-20T00:00:00", "smokePM_pred": 13.7906951904297 }, "geometry": { "type": "Polygon", "coordinates": [ [ [ -121.61451918337626, 46.024176730304006 ], [ -121.540696305478207, 45.969521558925919 ], [ -121.619036823665297, 45.918113975752476 ], [ -121.692804766819677, 45.972671668554796 ], [ -121.61451918337626, 46.024176730304006 ] ] ] } },
{ "type": "Feature", "properties": { "ID": 198891, "date": "2022-11-20T00:00:00", "smokePM_pred": 11.8417501449585 }, "geometry": { "type": "Polygon", "coordinates": [ [ [ -121.536020031532814, 46.0756718697072 ], [ -121.462142623131442, 46.020919058386283 ], [ -121.540696305478207, 45.969521558925919 ], [ -121.61451918337626, 46.024176730304006 ], [ -121.536020031532814, 46.0756718697072 ] ] ] } },
{ "type": "Feature", "properties": { "ID": 198892, "date": "2022-11-20T00:00:00", "smokePM_pred": 10.450950622558601 }, "geometry": { "type": "Polygon", "coordinates": [ [ [ -121.457306629412543, 46.127156701029989 ], [ -121.383375099216224, 46.07230608857359 ], [ -121.462142623131442, 46.020919058386283 ], [ -121.536020031532814, 46.0756718697072 ], [ -121.457306629412543, 46.127156701029989 ] ] ] } },
{ "type": "Feature", "properties": { "ID": 199384, "date": "2022-11-20T00:00:00", "smokePM_pred": 14.170274734497101 }, "geometry": { "type": "Polygon", "coordinates": [ [ [ -123.287494685037643, 44.993612857635277 ], [ -123.214704137450667, 44.941063614900955 ], [ -123.288659668462699, 44.889435870311239 ], [ -123.361387119405251, 44.941891047677018 ], [ -123.287494685037643, 44.993612857635277 ] ] ] } },
{ "type": "Feature", "properties": { "ID": 199385, "date": "2022-11-20T00:00:00", "smokePM_pred": 18.1231575012207 }, "geometry": { "type": "Polygon", "coordinates": [ [ [ -123.213402338212816, 45.045332566720596 ], [ -123.140549010127728, 44.992689094104179 ], [ -123.214704137450667, 44.941063614900955 ], [ -123.287494685037643, 44.993612857635277 ], [ -123.213402338212816, 45.045332566720596 ] ] ] } },
{ "type": "Feature", "properties": { "ID": 199386, "date": "2022-11-20T00:00:00", "smokePM_pred": 21.238988876342798 }, "geometry": { "type": "Polygon", "coordinates": [ [ [ -123.139109425565181, 45.097049829036173 ], [ -123.066193636944661, 45.044311962065123 ], [ -123.140549010127728, 44.992689094104179 ], [ -123.213402338212816, 45.045332566720596 ], [ -123.139109425565181, 45.097049829036173 ] ] ] } },
{ "type": "Feature", "properties": { "ID": 199387, "date": "2022-11-20T00:00:00", "smokePM_pred": 20.449306488037099 }, "geometry": { "type": "Polygon", "coordinates": [ [ [ -123.064615292060338, 45.148764296843609 ], [ -122.991637366713491, 45.095931871091594 ], [ -123.066193636944661, 45.044311962065123 ], [ -123.139109425565181, 45.097049829036173 ], [ -123.064615292060338, 45.148764296843609 ] ] ] } },
{ "type": "Feature", "properties": { "ID": 199388, "date": "2022-11-20T00:00:00", "smokePM_pred": 15.795069694519 }, "geometry": { "type": "Polygon", "coordinates": [ [ [ -122.989919281003552, 45.200475620556425 ], [ -122.916879546616101, 45.147548471648726 ], [ -122.991637366713491, 45.095931871091594 ], [ -123.064615292060338, 45.148764296843609 ], [ -122.989919281003552, 45.200475620556425 ] ] ] } },
{ "type": "Feature", "properties": { "ID": 199389, "date": "2022-11-20T00:00:00", "smokePM_pred": 11.7592420578003 }, "geometry": { "type": "Polygon", "coordinates": [ [ [ -122.915020734047843, 45.252183448733582 ], [ -122.84191952221245, 45.199161412352588 ], [ -122.916879546616016, 45.147548471648669 ], [ -122.98991928100348, 45.200475620556361 ], [ -122.915020734047843, 45.252183448733582 ] ] ] } },
{ "type": "Feature", "properties": { "ID": 199405, "date": "2022-11-20T00:00:00", "smokePM_pred": 10.053113937377899 }, "geometry": { "type": "Polygon", "coordinates": [ [ [ -121.68855562943709, 46.078739244730194 ], [ -121.61451918337626, 46.024176730304006 ], [ -121.692804766819677, 45.972671668554796 ], [ -121.766785597680979, 46.02713667889698 ], [ -121.68855562943709, 46.078739244730194 ] ] ] } },
{ "type": "Feature", "properties": { "ID": 199406, "date": "2022-11-20T00:00:00", "smokePM_pred": 10.5634908676147 }, "geometry": { "type": "Polygon", "coordinates": [ [ [ -121.610111689976023, 46.130332050663625 ], [ -121.536020031532743, 46.075671869707151 ], [ -121.614519183376174, 46.024176730303957 ], [ -121.688555629437019, 46.078739244730137 ], [ -121.610111689976023, 46.130332050663625 ] ] ] } },
{ "type": "Feature", "properties": { "ID": 199407, "date": "2022-11-20T00:00:00", "smokePM_pred": 12.639097213745099 }, "geometry": { "type": "Polygon", "coordinates": [ [ [ -121.531453092939358, 46.181914710795617 ], [ -121.457306629412471, 46.127156701029925 ], [ -121.536020031532743, 46.075671869707151 ], [ -121.610111689976023, 46.130332050663625 ], [ -121.531453092939358, 46.181914710795617 ] ] ] } },
{ "type": "Feature", "properties": { "ID": 199901, "date": "2022-11-20T00:00:00", "smokePM_pred": 16.397069931030298 }, "geometry": { "type": "Polygon", "coordinates": [ [ [ -123.212226434766066, 45.149694392151218 ], [ -123.139109425565181, 45.097049829036173 ], [ -123.213402338212816, 45.045332566720596 ], [ -123.286456231842607, 45.097882730056476 ], [ -123.212226434766066, 45.149694392151218 ] ] ] } },
{ "type": "Feature", "properties": { "ID": 199902, "date": "2022-11-20T00:00:00", "smokePM_pred": 15.9709882736206 }, "geometry": { "type": "Polygon", "coordinates": [ [ [ -123.137795094683767, 45.201503425114559 ], [ -123.064615292060338, 45.148764296843609 ], [ -123.139109425565181, 45.097049829036173 ], [ -123.212226434766066, 45.149694392151218 ], [ -123.137795094683767, 45.201503425114559 ] ] ] } },
{ "type": "Feature", "properties": { "ID": 199903, "date": "2022-11-20T00:00:00", "smokePM_pred": 15.359556198120099 }, "geometry": { "type": "Polygon", "coordinates": [ [ [ -123.063161551016023, 45.253309479314993 ], [ -122.989919281003623, 45.200475620556368 ], [ -123.064615292060424, 45.148764296843559 ], [ -123.137795094683852, 45.201503425114502 ], [ -123.063161551016023, 45.253309479314993 ] ] ] } },
{ "type": "Feature", "properties": { "ID": 199904, "date": "2022-11-20T00:00:00", "smokePM_pred": 10.6316566467285 }, "geometry": { "type": "Polygon", "coordinates": [ [ [ -122.988325141500098, 45.30511220326138 ], [ -122.915020734047914, 45.252183448733639 ], [ -122.989919281003552, 45.200475620556425 ], [ -123.063161551015966, 45.25330947931505 ], [ -122.988325141500098, 45.30511220326138 ] ] ] } },
{ "type": "Feature", "properties": { "ID": 200417, "date": "2022-11-20T00:00:00", "smokePM_pred": 12.709510803222701 }, "geometry": { "type": "Polygon", "coordinates": [ [ [ -123.211177100612204, 45.254148915121156 ], [ -123.137795094683725, 45.201503425114495 ], [ -123.212226434765995, 45.149694392151169 ], [ -123.285544986690809, 45.202245311517139 ], [ -123.211177100612204, 45.254148915121156 ] ] ] } },
{ "type": "Feature", "properties": { "ID": 200418, "date": "2022-11-20T00:00:00", "smokePM_pred": 13.5390682220459 }, "geometry": { "type": "Polygon", "coordinates": [ [ [ -123.136606686597347, 45.306049706251656 ], [ -123.063161551015966, 45.25330947931505 ], [ -123.137795094683767, 45.201503425114559 ], [ -123.211177100612289, 45.254148915121206 ], [ -123.136606686597347, 45.306049706251656 ] ] ] } },
{ "type": "Feature", "properties": { "ID": 200419, "date": "2022-11-20T00:00:00", "smokePM_pred": 8.6850624084472692 }, "geometry": { "type": "Polygon", "coordinates": [ [ [ -123.0618330784595, 45.357947333373545 ], [ -122.988325141500098, 45.30511220326138 ], [ -123.063161551015966, 45.25330947931505 ], [ -123.136606686597347, 45.306049706251656 ], [ -123.0618330784595, 45.357947333373545 ] ] ] } },
{ "type": "Feature", "properties": { "ID": 207123, "date": "2022-11-20T00:00:00", "smokePM_pred": 11.593017578125 }, "geometry": { "type": "Polygon", "coordinates": [ [ [ -123.36160377274345, 46.514211018030167 ], [ -123.284788552505901, 46.461762341867264 ], [ -123.360650698601617, 46.408751618383675 ], [ -123.437397042291423, 46.461103769513549 ], [ -123.36160377274345, 46.514211018030167 ] ] ] } },
{ "type": "Feature", "properties": { "ID": 207124, "date": "2022-11-20T00:00:00", "smokePM_pred": 10.853187561035201 }, "geometry": { "type": "Polygon", "coordinates": [ [ [ -123.285595913329232, 46.567313728939943 ], [ -123.208712162227798, 46.514768348760597 ], [ -123.284788552505901, 46.461762341867264 ], [ -123.36160377274345, 46.514211018030167 ], [ -123.285595913329232, 46.567313728939943 ] ] ] } },
{ "type": "Feature", "properties": { "ID": 207638, "date": "2022-11-20T00:00:00", "smokePM_pred": 10.9252710342407 }, "geometry": { "type": "Polygon", "coordinates": [ [ [ -123.438633582503982, 46.566561162245748 ], [ -123.36160377274345, 46.514211018030167 ], [ -123.437397042291423, 46.461103769513549 ], [ -123.514357236608433, 46.513357385639637 ], [ -123.438633582503982, 46.566561162245748 ] ] ] } },
{ "type": "Feature", "properties": { "ID": 207639, "date": "2022-11-20T00:00:00", "smokePM_pred": 10.8425951004028 }, "geometry": { "type": "Polygon", "coordinates": [ [ [ -123.362694994909162, 46.619760581268579 ], [ -123.285595913329232, 46.567313728939943 ], [ -123.36160377274345, 46.514211018030167 ], [ -123.438633582503982, 46.566561162245748 ], [ -123.362694994909162, 46.619760581268579 ] ] ] } },
{ "type": "Feature", "properties": { "ID": 207640, "date": "2022-11-20T00:00:00", "smokePM_pred": 10.623816490173301 }, "geometry": { "type": "Polygon", "coordinates": [ [ [ -123.286540728456004, 46.672955269481953 ], [ -123.209372723094603, 46.62041152902114 ], [ -123.285595913329232, 46.567313728939943 ], [ -123.362694994909162, 46.619760581268579 ], [ -123.286540728456004, 46.672955269481953 ] ] ] } }
]
}
