{
"type": "FeatureCollection",
"name": "geo_2022-12-07",
"crs": { "type": "name", "properties": { "name": "urn:ogc:def:crs:OGC:1.3:CRS84" } },
"features": [
{ "type": "Feature", "properties": { "ID": 12222, "date": "2022-12-07T00:00:00", "smokePM_pred": 1.8377339839935301 }, "geometry": { "type": "Polygon", "coordinates": [ [ [ -80.937514473576215, 26.481019176275495 ], [ -80.928280854765063, 26.39268572129879 ], [ -81.026343266960893, 26.384356630784282 ], [ -81.035648297753397, 26.472657952434687 ], [ -80.937514473576215, 26.481019176275495 ] ] ] } },
{ "type": "Feature", "properties": { "ID": 12223, "date": "2022-12-07T00:00:00", "smokePM_pred": 2.5454523563385001 }, "geometry": { "type": "Polygon", "coordinates": [ [ [ -80.839337868675869, 26.489315318718081 ], [ -80.830175801275814, 26.400949976049269 ], [ -80.928280854765063, 26.39268572129879 ], [ -80.937514473576215, 26.481019176275495 ], [ -80.839337868675869, 26.489315318718081 ] ] ] } },
{ "type": "Feature", "properties": { "ID": 12224, "date": "2022-12-07T00:00:00", "smokePM_pred": 3.07501888275146 }, "geometry": { "type": "Polygon", "coordinates": [ [ [ -80.741118804409425, 26.497546268304369 ], [ -80.732028426916983, 26.40914928410897 ], [ -80.830175801275814, 26.400949976049269 ], [ -80.839337868675869, 26.489315318718081 ], [ -80.741118804409425, 26.497546268304369 ] ] ] } },
{ "type": "Feature", "properties": { "ID": 12732, "date": "2022-12-07T00:00:00", "smokePM_pred": 1.45932841300964 }, "geometry": { "type": "Polygon", "coordinates": [ [ [ -81.437383031300428, 26.526730509013159 ], [ -81.427749390998642, 26.438564499233383 ], [ -81.525664522187355, 26.429879567201603 ], [ -81.535369179514419, 26.518012175379717 ], [ -81.437383031300428, 26.526730509013159 ] ] ] } },
{ "type": "Feature", "properties": { "ID": 12733, "date": "2022-12-07T00:00:00", "smokePM_pred": 2.3470480442047101 }, "geometry": { "type": "Polygon", "coordinates": [ [ [ -81.339352363963158, 26.535384086839819 ], [ -81.329789885606317, 26.447184918679142 ], [ -81.427749390998642, 26.438564499233383 ], [ -81.437383031300428, 26.526730509013159 ], [ -81.339352363963158, 26.535384086839819 ] ] ] } },
{ "type": "Feature", "properties": { "ID": 12734, "date": "2022-12-07T00:00:00", "smokePM_pred": 2.7978630065918 }, "geometry": { "type": "Polygon", "coordinates": [ [ [ -81.241277495318087, 26.543972793023485 ], [ -81.231786322915013, 26.455740710253011 ], [ -81.329789885606317, 26.447184918679142 ], [ -81.339352363963158, 26.535384086839819 ], [ -81.241277495318087, 26.543972793023485 ] ] ] } },
{ "type": "Feature", "properties": { "ID": 12736, "date": "2022-12-07T00:00:00", "smokePM_pred": 2.0913717746734601 }, "geometry": { "type": "Polygon", "coordinates": [ [ [ -81.044996429893757, 26.560955130926942 ], [ -81.035648297753397, 26.472657952434687 ], [ -81.133739020730275, 26.464231759426951 ], [ -81.143158744087174, 26.552496512489157 ], [ -81.044996429893757, 26.560955130926942 ] ] ] } },
{ "type": "Feature", "properties": { "ID": 12737, "date": "2022-12-07T00:00:00", "smokePM_pred": 1.56846415996552 }, "geometry": { "type": "Polygon", "coordinates": [ [ [ -80.946790873257214, 26.569348534795946 ], [ -80.937514473576215, 26.481019176275495 ], [ -81.035648297753397, 26.472657952434687 ], [ -81.044996429893757, 26.560955130926942 ], [ -80.946790873257214, 26.569348534795946 ] ] ] } },
{ "type": "Feature", "properties": { "ID": 12738, "date": "2022-12-07T00:00:00", "smokePM_pred": 3.0737752914428702 }, "geometry": { "type": "Polygon", "coordinates": [ [ [ -80.848542395587771, 26.57767661132813 ], [ -80.839337868675869, 26.489315318718081 ], [ -80.937514473576215, 26.481019176275495 ], [ -80.946790873257214, 26.569348534795946 ], [ -80.848542395587771, 26.57767661132813 ] ] ] } },
{ "type": "Feature", "properties": { "ID": 12739, "date": "2022-12-07T00:00:00", "smokePM_pred": 3.9385793209075901 }, "geometry": { "type": "Polygon", "coordinates": [ [ [ -80.750251319181103, 26.585939248532121 ], [ -80.741118804409425, 26.497546268304369 ], [ -80.839337868675869, 26.489315318718081 ], [ -80.848542395587771, 26.57767661132813 ], [ -80.750251319181103, 26.585939248532121 ] ] ] } },
{ "type": "Feature", "properties": { "ID": 12740, "date": "2022-12-07T00:00:00", "smokePM_pred": 2.1968395709991499 }, "geometry": { "type": "Polygon", "coordinates": [ [ [ -80.651917967213009, 26.594136335197042 ], [ -80.642857603008622, 26.505711914353306 ], [ -80.741118804409425, 26.497546268304369 ], [ -80.750251319181103, 26.585939248532121 ], [ -80.651917967213009, 26.594136335197042 ] ] ] } },
{ "type": "Feature", "properties": { "ID": 13247, "date": "2022-12-07T00:00:00", "smokePM_pred": 1.61873579025269 }, "geometry": { "type": "Polygon", "coordinates": [ [ [ -81.447061190877406, 26.614892165892787 ], [ -81.437383031300428, 26.526730509013159 ], [ -81.535369179514419, 26.518012175379717 ], [ -81.545118673021321, 26.606140382206597 ], [ -81.447061190877406, 26.614892165892787 ] ] ] } },
{ "type": "Feature", "properties": { "ID": 13248, "date": "2022-12-07T00:00:00", "smokePM_pred": 1.63381123542786 }, "geometry": { "type": "Polygon", "coordinates": [ [ [ -81.348959043778876, 26.623578950255602 ], [ -81.339352363963158, 26.535384086839819 ], [ -81.437383031300428, 26.526730509013159 ], [ -81.447061190877406, 26.614892165892787 ], [ -81.348959043778876, 26.623578950255602 ] ] ] } },
{ "type": "Feature", "properties": { "ID": 13249, "date": "2022-12-07T00:00:00", "smokePM_pred": 2.2481276988983199 }, "geometry": { "type": "Polygon", "coordinates": [ [ [ -81.250812550457184, 26.632200618906467 ], [ -81.241277495318087, 26.543972793023485 ], [ -81.339352363963158, 26.535384086839819 ], [ -81.348959043778876, 26.623578950255602 ], [ -81.250812550457184, 26.632200618906467 ] ] ] } },
{ "type": "Feature", "properties": { "ID": 13250, "date": "2022-12-07T00:00:00", "smokePM_pred": 2.39100289344788 }, "geometry": { "type": "Polygon", "coordinates": [ [ [ -81.152622030555946, 26.640757056221371 ], [ -81.143158744087174, 26.552496512489157 ], [ -81.241277495318087, 26.543972793023485 ], [ -81.250812550457184, 26.632200618906467 ], [ -81.152622030555946, 26.640757056221371 ] ] ] } },
{ "type": "Feature", "properties": { "ID": 13251, "date": "2022-12-07T00:00:00", "smokePM_pred": 1.78226447105408 }, "geometry": { "type": "Polygon", "coordinates": [ [ [ -81.054387804625676, 26.649248147344842 ], [ -81.044996429893757, 26.560955130926942 ], [ -81.143158744087174, 26.552496512489157 ], [ -81.152622030555946, 26.640757056221371 ], [ -81.054387804625676, 26.649248147344842 ] ] ] } },
{ "type": "Feature", "properties": { "ID": 13252, "date": "2022-12-07T00:00:00", "smokePM_pred": 2.8069972991943399 }, "geometry": { "type": "Polygon", "coordinates": [ [ [ -80.956110194118679, 26.657673778193775 ], [ -80.946790873257214, 26.569348534795946 ], [ -81.044996429893757, 26.560955130926942 ], [ -81.054387804625676, 26.649248147344842 ], [ -80.956110194118679, 26.657673778193775 ] ] ] } },
{ "type": "Feature", "properties": { "ID": 13253, "date": "2022-12-07T00:00:00", "smokePM_pred": 2.8272795677185099 }, "geometry": { "type": "Polygon", "coordinates": [ [ [ -80.85778952138358, 26.666033835461391 ], [ -80.848542395587771, 26.57767661132813 ], [ -80.946790873257214, 26.569348534795946 ], [ -80.956110194118679, 26.657673778193775 ], [ -80.85778952138358, 26.666033835461391 ] ] ] } },
{ "type": "Feature", "properties": { "ID": 13254, "date": "2022-12-07T00:00:00", "smokePM_pred": 4.4617991447448704 }, "geometry": { "type": "Polygon", "coordinates": [ [ [ -80.759426109660012, 26.674328206621063 ], [ -80.750251319181103, 26.585939248532121 ], [ -80.848542395587771, 26.57767661132813 ], [ -80.85778952138358, 26.666033835461391 ], [ -80.759426109660012, 26.674328206621063 ] ] ] } },
{ "type": "Feature", "properties": { "ID": 13255, "date": "2022-12-07T00:00:00", "smokePM_pred": 1.5947916507720901 }, "geometry": { "type": "Polygon", "coordinates": [ [ [ -80.661020283073256, 26.682556779930138 ], [ -80.651917967213009, 26.594136335197042 ], [ -80.750251319181103, 26.585939248532121 ], [ -80.759426109660012, 26.674328206621063 ], [ -80.661020283073256, 26.682556779930138 ] ] ] } },
{ "type": "Feature", "properties": { "ID": 13762, "date": "2022-12-07T00:00:00", "smokePM_pred": 2.3476548194885298 }, "geometry": { "type": "Polygon", "coordinates": [ [ [ -81.45678401556188, 26.703049449870203 ], [ -81.447061190877406, 26.614892165892787 ], [ -81.545118673021321, 26.606140382206597 ], [ -81.554913149450641, 26.694264167422016 ], [ -81.45678401556188, 26.703049449870203 ] ] ] } },
{ "type": "Feature", "properties": { "ID": 13763, "date": "2022-12-07T00:00:00", "smokePM_pred": 1.6187213659286499 }, "geometry": { "type": "Polygon", "coordinates": [ [ [ -81.358610069969828, 26.711769489181172 ], [ -81.348959043778876, 26.623578950255602 ], [ -81.447061190877406, 26.614892165892787 ], [ -81.45678401556188, 26.703049449870203 ], [ -81.358610069969828, 26.711769489181172 ] ] ] } },
{ "type": "Feature", "properties": { "ID": 13764, "date": "2022-12-07T00:00:00", "smokePM_pred": 2.4862108230590798 }, "geometry": { "type": "Polygon", "coordinates": [ [ [ -81.260391632327043, 26.720424168411963 ], [ -81.250812550457184, 26.632200618906467 ], [ -81.348959043778876, 26.623578950255602 ], [ -81.358610069969828, 26.711769489181172 ], [ -81.260391632327043, 26.720424168411963 ] ] ] } },
{ "type": "Feature", "properties": { "ID": 13765, "date": "2022-12-07T00:00:00", "smokePM_pred": 1.3375101089477499 }, "geometry": { "type": "Polygon", "coordinates": [ [ [ -81.162129023203988, 26.729013371387506 ], [ -81.152622030555946, 26.640757056221371 ], [ -81.250812550457184, 26.632200618906467 ], [ -81.260391632327043, 26.720424168411963 ], [ -81.162129023203988, 26.729013371387506 ] ] ] } },
{ "type": "Feature", "properties": { "ID": 13766, "date": "2022-12-07T00:00:00", "smokePM_pred": 1.3672339916229199 }, "geometry": { "type": "Polygon", "coordinates": [ [ [ -81.063822564083765, 26.737536982704704 ], [ -81.054387804625676, 26.649248147344842 ], [ -81.152622030555946, 26.640757056221371 ], [ -81.162129023203988, 26.729013371387506 ], [ -81.063822564083765, 26.737536982704704 ] ] ] } },
{ "type": "Feature", "properties": { "ID": 13767, "date": "2022-12-07T00:00:00", "smokePM_pred": 2.3107428550720202 }, "geometry": { "type": "Polygon", "coordinates": [ [ [ -80.965472577356778, 26.745994887736284 ], [ -80.956110194118679, 26.657673778193775 ], [ -81.054387804625676, 26.649248147344842 ], [ -81.063822564083765, 26.737536982704704 ], [ -80.965472577356778, 26.745994887736284 ] ] ] } },
{ "type": "Feature", "properties": { "ID": 13768, "date": "2022-12-07T00:00:00", "smokePM_pred": 0.89624130725860596 }, "geometry": { "type": "Polygon", "coordinates": [ [ [ -80.867079386315453, 26.754386972634705 ], [ -80.85778952138358, 26.666033835461391 ], [ -80.956110194118679, 26.657673778193775 ], [ -80.965472577356778, 26.745994887736284 ], [ -80.867079386315453, 26.754386972634705 ] ] ] } },
{ "type": "Feature", "properties": { "ID": 13769, "date": "2022-12-07T00:00:00", "smokePM_pred": 0.85597062110900901 }, "geometry": { "type": "Polygon", "coordinates": [ [ [ -80.768643315148807, 26.762713124336059 ], [ -80.759426109660012, 26.674328206621063 ], [ -80.85778952138358, 26.666033835461391 ], [ -80.867079386315453, 26.754386972634705 ], [ -80.768643315148807, 26.762713124336059 ] ] ] } },
{ "type": "Feature", "properties": { "ID": 14278, "date": "2022-12-07T00:00:00", "smokePM_pred": 1.18472540378571 }, "geometry": { "type": "Polygon", "coordinates": [ [ [ -81.36830558836445, 26.799955683799698 ], [ -81.358610069969828, 26.711769489181172 ], [ -81.45678401556188, 26.703049449870203 ], [ -81.466551652103504, 26.79120234087063 ], [ -81.36830558836445, 26.799955683799698 ] ] ] } },
{ "type": "Feature", "properties": { "ID": 14279, "date": "2022-12-07T00:00:00", "smokePM_pred": 1.3215686082839999 }, "geometry": { "type": "Polygon", "coordinates": [ [ [ -81.270014885829255, 26.808643421979607 ], [ -81.260391632327043, 26.720424168411963 ], [ -81.358610069969828, 26.711769489181172 ], [ -81.36830558836445, 26.799955683799698 ], [ -81.270014885829255, 26.808643421979607 ] ] ] } },
{ "type": "Feature", "properties": { "ID": 14280, "date": "2022-12-07T00:00:00", "smokePM_pred": 1.58957231044769 }, "geometry": { "type": "Polygon", "coordinates": [ [ [ -81.171679866000446, 26.817265438682266 ], [ -81.162129023203988, 26.729013371387506 ], [ -81.260391632327043, 26.720424168411963 ], [ -81.270014885829255, 26.808643421979607 ], [ -81.171679866000446, 26.817265438682266 ] ] ] } },
{ "type": "Feature", "properties": { "ID": 14281, "date": "2022-12-07T00:00:00", "smokePM_pred": 1.4879294633865401 }, "geometry": { "type": "Polygon", "coordinates": [ [ [ -81.073300851298939, 26.82582161795488 ], [ -81.063822564083765, 26.737536982704704 ], [ -81.162129023203988, 26.729013371387506 ], [ -81.171679866000446, 26.817265438682266 ], [ -81.073300851298939, 26.82582161795488 ] ] ] } },
{ "type": "Feature", "properties": { "ID": 14282, "date": "2022-12-07T00:00:00", "smokePM_pred": 1.42161536216736 }, "geometry": { "type": "Polygon", "coordinates": [ [ [ -80.974878165058641, 26.834311844623951 ], [ -80.965472577356778, 26.745994887736284 ], [ -81.063822564083765, 26.737536982704704 ], [ -81.073300851298939, 26.82582161795488 ], [ -80.974878165058641, 26.834311844623951 ] ] ] } },
{ "type": "Feature", "properties": { "ID": 14798, "date": "2022-12-07T00:00:00", "smokePM_pred": 3.2120773792266801 }, "geometry": { "type": "Polygon", "coordinates": [ [ [ -80.88578789902968, 26.931080911839789 ], [ -80.876412131521164, 26.842736004299191 ], [ -80.974878165058641, 26.834311844623951 ], [ -80.984327100208077, 26.922624629989862 ], [ -80.88578789902968, 26.931080911839789 ] ] ] } },
{ "type": "Feature", "properties": { "ID": 14799, "date": "2022-12-07T00:00:00", "smokePM_pred": 4.0295267105102504 }, "geometry": { "type": "Polygon", "coordinates": [ [ [ -80.787205532773115, 26.939470765380428 ], [ -80.777903075830324, 26.851093983377435 ], [ -80.876412131521164, 26.842736004299191 ], [ -80.88578789902968, 26.931080911839789 ], [ -80.787205532773115, 26.939470765380428 ] ] ] } },
{ "type": "Feature", "properties": { "ID": 14800, "date": "2022-12-07T00:00:00", "smokePM_pred": 3.5707516670227002 }, "geometry": { "type": "Polygon", "coordinates": [ [ [ -80.6885803284449, 26.94779407726184 ], [ -80.679351324026754, 26.859385669046503 ], [ -80.777903075830324, 26.851093983377435 ], [ -80.787205532773115, 26.939470765380428 ], [ -80.6885803284449, 26.94779407726184 ] ] ] } },
{ "type": "Feature", "properties": { "ID": 15314, "date": "2022-12-07T00:00:00", "smokePM_pred": 2.9781219959259002 }, "geometry": { "type": "Polygon", "coordinates": [ [ [ -80.796550827937011, 27.027843451914688 ], [ -80.787205532773115, 26.939470765380428 ], [ -80.88578789902968, 26.931080911839789 ], [ -80.895206831766814, 27.019421676574609 ], [ -80.796550827937011, 27.027843451914688 ] ] ] } },
{ "type": "Feature", "properties": { "ID": 15315, "date": "2022-12-07T00:00:00", "smokePM_pred": 3.0806200504303001 }, "geometry": { "type": "Polygon", "coordinates": [ [ [ -80.697851843179777, 27.036198437029611 ], [ -80.6885803284449, 26.94779407726184 ], [ -80.787205532773115, 26.939470765380428 ], [ -80.796550827937011, 27.027843451914688 ], [ -80.697851843179777, 27.036198437029611 ] ] ] } },
{ "type": "Feature", "properties": { "ID": 15316, "date": "2022-12-07T00:00:00", "smokePM_pred": 1.70591580867767 }, "geometry": { "type": "Polygon", "coordinates": [ [ [ -80.599110206375698, 27.044486518831611 ], [ -80.589912613948528, 26.956050734932504 ], [ -80.6885803284449, 26.94779407726184 ], [ -80.697851843179777, 27.036198437029611 ], [ -80.599110206375698, 27.044486518831611 ] ] ] } },
{ "type": "Feature", "properties": { "ID": 15830, "date": "2022-12-07T00:00:00", "smokePM_pred": 2.1637158393859899 }, "geometry": { "type": "Polygon", "coordinates": [ [ [ -80.707166010110996, 27.12459873010447 ], [ -80.697851843179777, 27.036198437029611 ], [ -80.796550827937011, 27.027843451914688 ], [ -80.805939104178805, 27.116212024483694 ], [ -80.707166010110996, 27.12459873010447 ] ] ] } },
{ "type": "Feature", "properties": { "ID": 15831, "date": "2022-12-07T00:00:00", "smokePM_pred": 1.46410608291626 }, "geometry": { "type": "Polygon", "coordinates": [ [ [ -80.608350121220681, 27.132918282990726 ], [ -80.599110206375698, 27.044486518831611 ], [ -80.697851843179777, 27.036198437029611 ], [ -80.707166010110996, 27.12459873010447 ], [ -80.608350121220681, 27.132918282990726 ] ] ] } },
{ "type": "Feature", "properties": { "ID": 16339, "date": "2022-12-07T00:00:00", "smokePM_pred": 1.5559173822403001 }, "geometry": { "type": "Polygon", "coordinates": [ [ [ -81.308952546257856, 27.161477083169551 ], [ -81.29915113887067, 27.073275210384367 ], [ -81.39766056885847, 27.064488002558825 ], [ -81.407535532797212, 27.152656620329079 ], [ -81.308952546257856, 27.161477083169551 ] ] ] } },
{ "type": "Feature", "properties": { "ID": 16340, "date": "2022-12-07T00:00:00", "smokePM_pred": 2.2845945358276398 }, "geometry": { "type": "Polygon", "coordinates": [ [ [ -81.210324649930044, 27.170230840588218 ], [ -81.200596948615996, 27.081995959235599 ], [ -81.29915113887067, 27.073275210384367 ], [ -81.308952546257856, 27.161477083169551 ], [ -81.210324649930044, 27.170230840588218 ] ] ] } },
{ "type": "Feature", "properties": { "ID": 16341, "date": "2022-12-07T00:00:00", "smokePM_pred": 1.99121117591858 }, "geometry": { "type": "Polygon", "coordinates": [ [ [ -81.111652170039392, 27.17891777441298 ], [ -81.101998323360789, 27.090650131498407 ], [ -81.200596948615996, 27.081995959235599 ], [ -81.210324649930044, 27.170230840588218 ], [ -81.111652170039392, 27.17891777441298 ] ] ] } },
{ "type": "Feature", "properties": { "ID": 16855, "date": "2022-12-07T00:00:00", "smokePM_pred": 1.46517026424408 }, "geometry": { "type": "Polygon", "coordinates": [ [ [ -81.220096934962982, 27.258461376485101 ], [ -81.210324649930044, 27.170230840588218 ], [ -81.308952546257856, 27.161477083169551 ], [ -81.318798863590445, 27.249674561139294 ], [ -81.220096934962982, 27.258461376485101 ] ] ] } },
{ "type": "Feature", "properties": { "ID": 16856, "date": "2022-12-07T00:00:00", "smokePM_pred": 1.76037657260895 }, "geometry": { "type": "Polygon", "coordinates": [ [ [ -81.121350273274089, 27.267181120919442 ], [ -81.111652170039392, 27.17891777441298 ], [ -81.210324649930044, 27.170230840588218 ], [ -81.220096934962982, 27.258461376485101 ], [ -81.121350273274089, 27.267181120919442 ] ] ] } },
{ "type": "Feature", "properties": { "ID": 25604, "date": "2022-12-07T00:00:00", "smokePM_pred": 3.5827853679657 }, "geometry": { "type": "Polygon", "coordinates": [ [ [ -81.99254038279571, 28.700491215473559 ], [ -81.981510664175133, 28.612545034086736 ], [ -82.081151562117185, 28.60279864853123 ], [ -82.092259990780846, 28.690709387276062 ], [ -81.99254038279571, 28.700491215473559 ] ] ] } },
{ "type": "Feature", "properties": { "ID": 26117, "date": "2022-12-07T00:00:00", "smokePM_pred": 3.2477951049804701 }, "geometry": { "type": "Polygon", "coordinates": [ [ [ -82.203166900932374, 28.768727044077199 ], [ -82.191929786297095, 28.680857152450056 ], [ -82.291549432418464, 28.670934645461347 ], [ -82.302865244615816, 28.758768540982029 ], [ -82.203166900932374, 28.768727044077199 ] ] ] } },
{ "type": "Feature", "properties": { "ID": 26118, "date": "2022-12-07T00:00:00", "smokePM_pred": 3.4498460292816202 }, "geometry": { "type": "Polygon", "coordinates": [ [ [ -82.103418232095322, 28.778615026722122 ], [ -82.092259990780846, 28.690709387276062 ], [ -82.191929786297095, 28.680857152450056 ], [ -82.203166900932374, 28.768727044077199 ], [ -82.103418232095322, 28.778615026722122 ] ] ] } },
{ "type": "Feature", "properties": { "ID": 26119, "date": "2022-12-07T00:00:00", "smokePM_pred": 3.5255603790283199 }, "geometry": { "type": "Polygon", "coordinates": [ [ [ -82.003619576048635, 28.788432353825332 ], [ -81.99254038279571, 28.700491215473559 ], [ -82.092259990780846, 28.690709387276062 ], [ -82.103418232095322, 28.778615026722122 ], [ -82.003619576048635, 28.788432353825332 ] ] ] } },
{ "type": "Feature", "properties": { "ID": 26632, "date": "2022-12-07T00:00:00", "smokePM_pred": 3.2748575210571298 }, "geometry": { "type": "Polygon", "coordinates": [ [ [ -82.21445434090532, 28.85659175634099 ], [ -82.203166900932374, 28.768727044077199 ], [ -82.302865244615816, 28.758768540982029 ], [ -82.31423171899155, 28.846597199935122 ], [ -82.21445434090532, 28.85659175634099 ] ] ] } },
{ "type": "Feature", "properties": { "ID": 26633, "date": "2022-12-07T00:00:00", "smokePM_pred": 3.3994569778442401 }, "geometry": { "type": "Polygon", "coordinates": [ [ [ -82.114626460802498, 28.866515543687544 ], [ -82.103418232095322, 28.778615026722122 ], [ -82.203166900932374, 28.768727044077199 ], [ -82.21445434090532, 28.85659175634099 ], [ -82.114626460802498, 28.866515543687544 ] ] ] } },
{ "type": "Feature", "properties": { "ID": 35891, "date": "2022-12-07T00:00:00", "smokePM_pred": 2.9863154888153098 }, "geometry": { "type": "Polygon", "coordinates": [ [ [ -83.537246132811759, 30.315944976070131 ], [ -83.524094576323719, 30.228599966930972 ], [ -83.624654330811097, 30.217167888716446 ], [ -83.637888913701559, 30.304473006758144 ], [ -83.537246132811759, 30.315944976070131 ] ] ] } },
{ "type": "Feature", "properties": { "ID": 35892, "date": "2022-12-07T00:00:00", "smokePM_pred": 3.35984206199646 }, "geometry": { "type": "Polygon", "coordinates": [ [ [ -83.436545610848754, 30.327343324578653 ], [ -83.423477290646389, 30.239958671320156 ], [ -83.524094576323719, 30.228599966930972 ], [ -83.537246132811759, 30.315944976070131 ], [ -83.436545610848754, 30.327343324578653 ] ] ] } },
{ "type": "Feature", "properties": { "ID": 36406, "date": "2022-12-07T00:00:00", "smokePM_pred": 3.3016333580017099 }, "geometry": { "type": "Polygon", "coordinates": [ [ [ -83.550455430592024, 30.403283627286605 ], [ -83.537246132811759, 30.315944976070131 ], [ -83.637888913701559, 30.304473006758144 ], [ -83.651181580854271, 30.391771700072365 ], [ -83.550455430592024, 30.403283627286605 ] ] ] } },
{ "type": "Feature", "properties": { "ID": 36407, "date": "2022-12-07T00:00:00", "smokePM_pred": 2.9285752773284899 }, "geometry": { "type": "Polygon", "coordinates": [ [ [ -83.449671328059168, 30.414721686401517 ], [ -83.436545610848754, 30.327343324578653 ], [ -83.537246132811759, 30.315944976070131 ], [ -83.550455430592024, 30.403283627286605 ], [ -83.449671328059168, 30.414721686401517 ] ] ] } },
{ "type": "Feature", "properties": { "ID": 38897, "date": "2022-12-07T00:00:00", "smokePM_pred": 6.1734776496887198 }, "geometry": { "type": "Polygon", "coordinates": [ [ [ -91.876475296784108, 29.611718278521355 ], [ -91.856670900099061, 29.528586322142726 ], [ -91.95169376419031, 29.511273278892336 ], [ -91.971562103450495, 29.594346910795426 ], [ -91.876475296784108, 29.611718278521355 ] ] ] } },
{ "type": "Feature", "properties": { "ID": 38898, "date": "2022-12-07T00:00:00", "smokePM_pred": 6.3204312324523899 }, "geometry": { "type": "Polygon", "coordinates": [ [ [ -91.781305267377121, 29.629030540894398 ], [ -91.761565087471837, 29.545840438994713 ], [ -91.856670900099061, 29.528586322142726 ], [ -91.876475296784108, 29.611718278521355 ], [ -91.781305267377121, 29.629030540894398 ] ] ] } },
{ "type": "Feature", "properties": { "ID": 39409, "date": "2022-12-07T00:00:00", "smokePM_pred": 2.9066143035888699 }, "geometry": { "type": "Polygon", "coordinates": [ [ [ -92.1815644463843, 29.64237075796618 ], [ -92.16148515911388, 29.559427708742128 ], [ -92.256320967275073, 29.541880299979471 ], [ -92.276463590946364, 29.624764408109119 ], [ -92.1815644463843, 29.64237075796618 ] ] ] } },
{ "type": "Feature", "properties": { "ID": 39410, "date": "2022-12-07T00:00:00", "smokePM_pred": 2.9200856685638401 }, "geometry": { "type": "Polygon", "coordinates": [ [ [ -92.08658113892173, 29.659918463984788 ], [ -92.066565464625512, 29.576916649996701 ], [ -92.16148515911388, 29.559427708742128 ], [ -92.1815644463843, 29.64237075796618 ], [ -92.08658113892173, 29.659918463984788 ] ] ] } },
{ "type": "Feature", "properties": { "ID": 39411, "date": "2022-12-07T00:00:00", "smokePM_pred": 4.2224025726318404 }, "geometry": { "type": "Polygon", "coordinates": [ [ [ -91.991513888461284, 29.67740731232178 ], [ -91.971562103450495, 29.594346910795426 ], [ -92.066565464625512, 29.576916649996701 ], [ -92.08658113892173, 29.659918463984788 ], [ -91.991513888461284, 29.67740731232178 ] ] ] } },
{ "type": "Feature", "properties": { "ID": 39412, "date": "2022-12-07T00:00:00", "smokePM_pred": 5.9734659194946298 }, "geometry": { "type": "Polygon", "coordinates": [ [ [ -91.896362916469116, 29.694837089465246 ], [ -91.876475296784108, 29.611718278521355 ], [ -91.971562103450495, 29.594346910795426 ], [ -91.991513888461284, 29.67740731232178 ], [ -91.896362916469116, 29.694837089465246 ] ] ] } },
{ "type": "Feature", "properties": { "ID": 39413, "date": "2022-12-07T00:00:00", "smokePM_pred": 6.0924320220947301 }, "geometry": { "type": "Polygon", "coordinates": [ [ [ -91.801128445975536, 29.712207582240559 ], [ -91.781305267377121, 29.629030540894398 ], [ -91.876475296784108, 29.611718278521355 ], [ -91.896362916469116, 29.694837089465246 ], [ -91.801128445975536, 29.712207582240559 ] ] ] } },
{ "type": "Feature", "properties": { "ID": 39414, "date": "2022-12-07T00:00:00", "smokePM_pred": 4.6508502960205096 }, "geometry": { "type": "Polygon", "coordinates": [ [ [ -91.705810701575828, 29.729518577816403 ], [ -91.686052239536494, 29.64628348597731 ], [ -91.781305267377121, 29.629030540894398 ], [ -91.801128445975536, 29.712207582240559 ], [ -91.705810701575828, 29.729518577816403 ] ] ] } },
{ "type": "Feature", "properties": { "ID": 39415, "date": "2022-12-07T00:00:00", "smokePM_pred": 3.6535987854003902 }, "geometry": { "type": "Polygon", "coordinates": [ [ [ -91.610409909430871, 29.74676986371081 ], [ -91.59071643912597, 29.663476902181678 ], [ -91.686052239536494, 29.64628348597731 ], [ -91.705810701575828, 29.729518577816403 ], [ -91.610409909430871, 29.74676986371081 ] ] ] } },
{ "type": "Feature", "properties": { "ID": 39923, "date": "2022-12-07T00:00:00", "smokePM_pred": 1.66595470905304 }, "geometry": { "type": "Polygon", "coordinates": [ [ [ -92.296690596118509, 29.707634966812996 ], [ -92.276463590946364, 29.624764408109119 ], [ -92.371278354267858, 29.607099628582016 ], [ -92.391568635792254, 29.689910985212943 ], [ -92.296690596118509, 29.707634966812996 ] ] ] } },
{ "type": "Feature", "properties": { "ID": 39924, "date": "2022-12-07T00:00:00", "smokePM_pred": 2.7572326660156201 }, "geometry": { "type": "Polygon", "coordinates": [ [ [ -92.201727896815683, 29.725300343259981 ], [ -92.1815644463843, 29.64237075796618 ], [ -92.276463590946364, 29.624764408109119 ], [ -92.296690596118509, 29.707634966812996 ], [ -92.201727896815683, 29.725300343259981 ] ] ] } },
{ "type": "Feature", "properties": { "ID": 39925, "date": "2022-12-07T00:00:00", "smokePM_pred": 3.03949069976807 }, "geometry": { "type": "Polygon", "coordinates": [ [ [ -92.106680756476379, 29.74290689948673 ], [ -92.08658113892173, 29.659918463984788 ], [ -92.1815644463843, 29.64237075796618 ], [ -92.201727896815683, 29.725300343259981 ], [ -92.106680756476379, 29.74290689948673 ] ] ] } },
{ "type": "Feature", "properties": { "ID": 39926, "date": "2022-12-07T00:00:00", "smokePM_pred": 3.6727833747863801 }, "geometry": { "type": "Polygon", "coordinates": [ [ [ -92.011549395264552, 29.760454420751714 ], [ -91.991513888461284, 29.67740731232178 ], [ -92.08658113892173, 29.659918463984788 ], [ -92.106680756476379, 29.74290689948673 ], [ -92.011549395264552, 29.760454420751714 ] ] ] } },
{ "type": "Feature", "properties": { "ID": 39927, "date": "2022-12-07T00:00:00", "smokePM_pred": 4.2647848129272496 }, "geometry": { "type": "Polygon", "coordinates": [ [ [ -91.916334034916346, 29.777942692645045 ], [ -91.896362916469116, 29.694837089465246 ], [ -91.991513888461284, 29.67740731232178 ], [ -92.011549395264552, 29.760454420751714 ], [ -91.916334034916346, 29.777942692645045 ] ] ] } },
{ "type": "Feature", "properties": { "ID": 39928, "date": "2022-12-07T00:00:00", "smokePM_pred": 2.9829688072204599 }, "geometry": { "type": "Polygon", "coordinates": [ [ [ -91.82103489874099, 29.795371501094561 ], [ -91.801128445975536, 29.712207582240559 ], [ -91.896362916469116, 29.694837089465246 ], [ -91.916334034916346, 29.777942692645045 ], [ -91.82103489874099, 29.795371501094561 ] ] ] } },
{ "type": "Feature", "properties": { "ID": 39929, "date": "2022-12-07T00:00:00", "smokePM_pred": 1.8637509346008301 }, "geometry": { "type": "Polygon", "coordinates": [ [ [ -91.725652211621437, 29.812740632371856 ], [ -91.705810701575828, 29.729518577816403 ], [ -91.801128445975536, 29.712207582240559 ], [ -91.82103489874099, 29.795371501094561 ], [ -91.725652211621437, 29.812740632371856 ] ] ] } },
{ "type": "Feature", "properties": { "ID": 39930, "date": "2022-12-07T00:00:00", "smokePM_pred": 4.5111069679260298 }, "geometry": { "type": "Polygon", "coordinates": [ [ [ -91.630186200015075, 29.830049873098346 ], [ -91.610409909430871, 29.74676986371081 ], [ -91.705810701575828, 29.729518577816403 ], [ -91.725652211621437, 29.812740632371856 ], [ -91.630186200015075, 29.830049873098346 ] ] ] } },
{ "type": "Feature", "properties": { "ID": 39931, "date": "2022-12-07T00:00:00", "smokePM_pred": 2.1364009380340598 }, "geometry": { "type": "Polygon", "coordinates": [ [ [ -91.53463709195438, 29.847299010251362 ], [ -91.514926297267735, 29.763961227797179 ], [ -91.610409909430871, 29.74676986371081 ], [ -91.630186200015075, 29.830049873098346 ], [ -91.53463709195438, 29.847299010251362 ] ] ] } },
{ "type": "Feature", "properties": { "ID": 40438, "date": "2022-12-07T00:00:00", "smokePM_pred": 2.0063681602478001 }, "geometry": { "type": "Polygon", "coordinates": [ [ [ -92.317002261181472, 29.790491911915584 ], [ -92.296690596118509, 29.707634966812996 ], [ -92.391568635792254, 29.689910985212943 ], [ -92.411943794229487, 29.772708642308555 ], [ -92.317002261181472, 29.790491911915584 ] ] ] } },
{ "type": "Feature", "properties": { "ID": 40439, "date": "2022-12-07T00:00:00", "smokePM_pred": 2.7837722301483199 }, "geometry": { "type": "Polygon", "coordinates": [ [ [ -92.22197578854545, 29.808216400838543 ], [ -92.201727896815683, 29.725300343259981 ], [ -92.296690596118509, 29.707634966812996 ], [ -92.317002261181472, 29.790491911915584 ], [ -92.22197578854545, 29.808216400838543 ] ] ] } },
{ "type": "Feature", "properties": { "ID": 40440, "date": "2022-12-07T00:00:00", "smokePM_pred": 1.62740290164948 }, "geometry": { "type": "Polygon", "coordinates": [ [ [ -92.1268645951656, 29.825881893108527 ], [ -92.106680756476379, 29.74290689948673 ], [ -92.201727896815683, 29.725300343259981 ], [ -92.22197578854545, 29.808216400838543 ], [ -92.1268645951656, 29.825881893108527 ] ] ] } },
{ "type": "Feature", "properties": { "ID": 40441, "date": "2022-12-07T00:00:00", "smokePM_pred": 4.18060350418091 }, "geometry": { "type": "Polygon", "coordinates": [ [ [ -92.031668901466318, 29.843488173082626 ], [ -92.011549395264552, 29.760454420751714 ], [ -92.106680756476379, 29.74290689948673 ], [ -92.1268645951656, 29.825881893108527 ], [ -92.031668901466318, 29.843488173082626 ] ] ] } },
{ "type": "Feature", "properties": { "ID": 40442, "date": "2022-12-07T00:00:00", "smokePM_pred": 5.3203020095825204 }, "geometry": { "type": "Polygon", "coordinates": [ [ [ -91.936388929453059, 29.861035025449979 ], [ -91.916334034916346, 29.777942692645045 ], [ -92.011549395264552, 29.760454420751714 ], [ -92.031668901466318, 29.843488173082626 ], [ -91.936388929453059, 29.861035025449979 ] ] ] } },
{ "type": "Feature", "properties": { "ID": 40443, "date": "2022-12-07T00:00:00", "smokePM_pred": 4.4979496002197301 }, "geometry": { "type": "Polygon", "coordinates": [ [ [ -91.841024902713087, 29.878522235237821 ], [ -91.82103489874099, 29.795371501094561 ], [ -91.916334034916346, 29.777942692645045 ], [ -91.936388929453059, 29.861035025449979 ], [ -91.841024902713087, 29.878522235237821 ] ] ] } },
{ "type": "Feature", "properties": { "ID": 40444, "date": "2022-12-07T00:00:00", "smokePM_pred": 2.5965347290039098 }, "geometry": { "type": "Polygon", "coordinates": [ [ [ -91.745577046416344, 29.895949587817626 ], [ -91.725652211621437, 29.812740632371856 ], [ -91.82103489874099, 29.795371501094561 ], [ -91.841024902713087, 29.878522235237821 ], [ -91.745577046416344, 29.895949587817626 ] ] ] } },
{ "type": "Feature", "properties": { "ID": 40445, "date": "2022-12-07T00:00:00", "smokePM_pred": 2.1478509902954102 }, "geometry": { "type": "Polygon", "coordinates": [ [ [ -91.6500455873162, 29.913316868911178 ], [ -91.630186200015075, 29.830049873098346 ], [ -91.725652211621437, 29.812740632371856 ], [ -91.745577046416344, 29.895949587817626 ], [ -91.6500455873162, 29.913316868911178 ] ] ] } },
{ "type": "Feature", "properties": { "ID": 40446, "date": "2022-12-07T00:00:00", "smokePM_pred": 2.1470000743865998 }, "geometry": { "type": "Polygon", "coordinates": [ [ [ -91.554430753749926, 29.93062386459669 ], [ -91.53463709195438, 29.847299010251362 ], [ -91.630186200015075, 29.830049873098346 ], [ -91.6500455873162, 29.913316868911178 ], [ -91.554430753749926, 29.93062386459669 ] ] ] } },
{ "type": "Feature", "properties": { "ID": 40447, "date": "2022-12-07T00:00:00", "smokePM_pred": 2.1308996677398699 }, "geometry": { "type": "Polygon", "coordinates": [ [ [ -91.45873277563949, 29.947870361314898 ], [ -91.4390051170475, 29.864487831170273 ], [ -91.53463709195438, 29.847299010251362 ], [ -91.554430753749926, 29.93062386459669 ], [ -91.45873277563949, 29.947870361314898 ] ] ] } },
{ "type": "Feature", "properties": { "ID": 40953, "date": "2022-12-07T00:00:00", "smokePM_pred": 1.9087275266647299 }, "geometry": { "type": "Polygon", "coordinates": [ [ [ -92.337398866095668, 29.873335178951937 ], [ -92.317002261181472, 29.790491911915584 ], [ -92.411943794229487, 29.772708642308555 ], [ -92.432404109782823, 29.855492535012356 ], [ -92.337398866095668, 29.873335178951937 ] ] ] } },
{ "type": "Feature", "properties": { "ID": 40954, "date": "2022-12-07T00:00:00", "smokePM_pred": 2.0344252586364702 }, "geometry": { "type": "Polygon", "coordinates": [ [ [ -92.242308401282358, 29.891118866628943 ], [ -92.22197578854545, 29.808216400838543 ], [ -92.317002261181472, 29.790491911915584 ], [ -92.337398866095668, 29.873335178951937 ], [ -92.242308401282358, 29.891118866628943 ] ] ] } },
{ "type": "Feature", "properties": { "ID": 40955, "date": "2022-12-07T00:00:00", "smokePM_pred": 2.0446150302886998 }, "geometry": { "type": "Polygon", "coordinates": [ [ [ -92.147132934437749, 29.908843381169735 ], [ -92.1268645951656, 29.825881893108527 ], [ -92.22197578854545, 29.808216400838543 ], [ -92.242308401282358, 29.891118866628943 ], [ -92.147132934437749, 29.908843381169735 ] ] ] } },
{ "type": "Feature", "properties": { "ID": 40956, "date": "2022-12-07T00:00:00", "smokePM_pred": 1.5410796403884901 }, "geometry": { "type": "Polygon", "coordinates": [ [ [ -92.051872686245758, 29.92650850602698 ], [ -92.031668901466318, 29.843488173082626 ], [ -92.1268645951656, 29.825881893108527 ], [ -92.147132934437749, 29.908843381169735 ], [ -92.051872686245758, 29.92650850602698 ] ] ] } },
{ "type": "Feature", "properties": { "ID": 40957, "date": "2022-12-07T00:00:00", "smokePM_pred": 2.00564360618591 }, "geometry": { "type": "Polygon", "coordinates": [ [ [ -91.956527878980239, 29.944114024985787 ], [ -91.936388929453059, 29.861035025449979 ], [ -92.031668901466318, 29.843488173082626 ], [ -92.051872686245758, 29.92650850602698 ], [ -91.956527878980239, 29.944114024985787 ] ] ] } },
{ "type": "Feature", "properties": { "ID": 40958, "date": "2022-12-07T00:00:00", "smokePM_pred": 2.0619113445282 }, "geometry": { "type": "Polygon", "coordinates": [ [ [ -91.861098736505824, 29.96165972216977 ], [ -91.841024902713087, 29.878522235237821 ], [ -91.936388929453059, 29.861035025449979 ], [ -91.956527878980239, 29.944114024985787 ], [ -91.861098736505824, 29.96165972216977 ] ] ] } },
{ "type": "Feature", "properties": { "ID": 40959, "date": "2022-12-07T00:00:00", "smokePM_pred": 2.27305960655212 }, "geometry": { "type": "Polygon", "coordinates": [ [ [ -91.765585484278731, 29.979145382047239 ], [ -91.745577046416344, 29.895949587817626 ], [ -91.841024902713087, 29.878522235237821 ], [ -91.861098736505824, 29.96165972216977 ], [ -91.765585484278731, 29.979145382047239 ] ] ] } },
{ "type": "Feature", "properties": { "ID": 40960, "date": "2022-12-07T00:00:00", "smokePM_pred": 1.9892280101776101 }, "geometry": { "type": "Polygon", "coordinates": [ [ [ -91.669988349347548, 29.99657078943725 ], [ -91.6500455873162, 29.913316868911178 ], [ -91.745577046416344, 29.895949587817626 ], [ -91.765585484278731, 29.979145382047239 ], [ -91.669988349347548, 29.99657078943725 ] ] ] } },
{ "type": "Feature", "properties": { "ID": 40961, "date": "2022-12-07T00:00:00", "smokePM_pred": 5.31897068023682 }, "geometry": { "type": "Polygon", "coordinates": [ [ [ -91.574307560353844, 30.013935729515836 ], [ -91.554430753749926, 29.93062386459669 ], [ -91.6500455873162, 29.913316868911178 ], [ -91.669988349347548, 29.99657078943725 ], [ -91.574307560353844, 30.013935729515836 ] ] ] } },
{ "type": "Feature", "properties": { "ID": 40962, "date": "2022-12-07T00:00:00", "smokePM_pred": 5.6028676033020002 }, "geometry": { "type": "Polygon", "coordinates": [ [ [ -91.478543347532877, 30.031239987822069 ], [ -91.45873277563949, 29.947870361314898 ], [ -91.554430753749926, 29.93062386459669 ], [ -91.574307560353844, 30.013935729515836 ], [ -91.478543347532877, 30.031239987822069 ] ] ] } },
{ "type": "Feature", "properties": { "ID": 41472, "date": "2022-12-07T00:00:00", "smokePM_pred": 1.7451045513153101 }, "geometry": { "type": "Polygon", "coordinates": [ [ [ -91.976751163981575, 30.027179628072737 ], [ -91.956527878980239, 29.944114024985787 ], [ -92.051872686245758, 29.92650850602698 ], [ -92.072161030363858, 30.009515356010237 ], [ -91.976751163981575, 30.027179628072737 ] ] ] } },
{ "type": "Feature", "properties": { "ID": 41473, "date": "2022-12-07T00:00:00", "smokePM_pred": 1.9358996152877801 }, "geometry": { "type": "Polygon", "coordinates": [ [ [ -91.881256680316611, 30.044783899105891 ], [ -91.861098736505824, 29.96165972216977 ], [ -91.956527878980239, 29.944114024985787 ], [ -91.976751163981575, 30.027179628072737 ], [ -91.881256680316611, 30.044783899105891 ] ] ] } },
{ "type": "Feature", "properties": { "ID": 41474, "date": "2022-12-07T00:00:00", "smokePM_pred": 2.2722797393798801 }, "geometry": { "type": "Polygon", "coordinates": [ [ [ -91.785677805110694, 30.062327952671737 ], [ -91.765585484278731, 29.979145382047239 ], [ -91.861098736505824, 29.96165972216977 ], [ -91.881256680316611, 30.044783899105891 ], [ -91.785677805110694, 30.062327952671737 ] ] ] } },
{ "type": "Feature", "properties": { "ID": 41475, "date": "2022-12-07T00:00:00", "smokePM_pred": 2.05058789253235 }, "geometry": { "type": "Polygon", "coordinates": [ [ [ -91.690014765707005, 30.079811572683592 ], [ -91.669988349347548, 29.99657078943725 ], [ -91.765585484278731, 29.979145382047239 ], [ -91.785677805110694, 30.062327952671737 ], [ -91.690014765707005, 30.079811572683592 ] ] ] } },
{ "type": "Feature", "properties": { "ID": 41476, "date": "2022-12-07T00:00:00", "smokePM_pred": 2.2829220294952401 }, "geometry": { "type": "Polygon", "coordinates": [ [ [ -91.59426779105074, 30.097234543412146 ], [ -91.574307560353844, 30.013935729515836 ], [ -91.669988349347548, 29.99657078943725 ], [ -91.690014765707005, 30.079811572683592 ], [ -91.59426779105074, 30.097234543412146 ] ] ] } },
{ "type": "Feature", "properties": { "ID": 41477, "date": "2022-12-07T00:00:00", "smokePM_pred": 3.9710807800293 }, "geometry": { "type": "Polygon", "coordinates": [ [ [ -91.498437111689896, 30.11459664949173 ], [ -91.478543347532877, 30.031239987822069 ], [ -91.574307560353844, 30.013935729515836 ], [ -91.59426779105074, 30.097234543412146 ], [ -91.498437111689896, 30.11459664949173 ] ] ] } },
{ "type": "Feature", "properties": { "ID": 41478, "date": "2022-12-07T00:00:00", "smokePM_pred": 3.6411998271942099 }, "geometry": { "type": "Polygon", "coordinates": [ [ [ -91.402522959775737, 30.131897675926485 ], [ -91.382695942713994, 30.048483350264291 ], [ -91.478543347532877, 30.031239987822069 ], [ -91.498437111689896, 30.11459664949173 ], [ -91.402522959775737, 30.131897675926485 ] ] ] } },
{ "type": "Feature", "properties": { "ID": 41569, "date": "2022-12-07T00:00:00", "smokePM_pred": 3.5762352943420401 }, "geometry": { "type": "Polygon", "coordinates": [ [ [ -82.359903514174107, 31.424204452339822 ], [ -82.347254154923576, 31.336425692870659 ], [ -82.449497032290864, 31.32555305008049 ], [ -82.462236082983509, 31.413294478807803 ], [ -82.359903514174107, 31.424204452339822 ] ] ] } },
{ "type": "Feature", "properties": { "ID": 41570, "date": "2022-12-07T00:00:00", "smokePM_pred": 3.5603907108306898 }, "geometry": { "type": "Polygon", "coordinates": [ [ [ -82.25751554335443, 31.435035991416242 ], [ -82.24495608542199, 31.34722016119559 ], [ -82.347254154923576, 31.336425692870659 ], [ -82.359903514174107, 31.424204452339822 ], [ -82.25751554335443, 31.435035991416242 ] ] ] } },
{ "type": "Feature", "properties": { "ID": 41576, "date": "2022-12-07T00:00:00", "smokePM_pred": 3.5853424072265598 }, "geometry": { "type": "Polygon", "coordinates": [ [ [ -81.642045305787292, 31.498369588931251 ], [ -81.630029594464148, 31.410336832965221 ], [ -81.732650944984783, 31.40001458098488 ], [ -81.744757791041934, 31.488011840719555 ], [ -81.642045305787292, 31.498369588931251 ] ] ] } },
{ "type": "Feature", "properties": { "ID": 41577, "date": "2022-12-07T00:00:00", "smokePM_pred": 3.9340057373046902 }, "geometry": { "type": "Polygon", "coordinates": [ [ [ -81.539280063315687, 31.50864785030058 ], [ -81.527355687904929, 31.420579862915996 ], [ -81.630029594464148, 31.410336832965221 ], [ -81.642045305787292, 31.498369588931251 ], [ -81.539280063315687, 31.50864785030058 ] ] ] } },
{ "type": "Feature", "properties": { "ID": 41578, "date": "2022-12-07T00:00:00", "smokePM_pred": 3.9117431640625 }, "geometry": { "type": "Polygon", "coordinates": [ [ [ -81.436462446663825, 31.518846478372559 ], [ -81.424629607065327, 31.430743525055135 ], [ -81.527355687904929, 31.420579862915996 ], [ -81.539280063315687, 31.50864785030058 ], [ -81.436462446663825, 31.518846478372559 ] ] ] } },
{ "type": "Feature", "properties": { "ID": 41579, "date": "2022-12-07T00:00:00", "smokePM_pred": 3.8958599567413299 }, "geometry": { "type": "Polygon", "coordinates": [ [ [ -81.333592840149578, 31.528965327680051 ], [ -81.321851734975937, 31.44082767458433 ], [ -81.424629607065327, 31.430743525055135 ], [ -81.436462446663825, 31.518846478372559 ], [ -81.333592840149578, 31.528965327680051 ] ] ] } },
{ "type": "Feature", "properties": { "ID": 41988, "date": "2022-12-07T00:00:00", "smokePM_pred": 1.93214583396912 }, "geometry": { "type": "Polygon", "coordinates": [ [ [ -91.901499015935244, 30.127894702975745 ], [ -91.881256680316611, 30.044783899105891 ], [ -91.976751163981575, 30.027179628072737 ], [ -91.997059066532415, 30.110231771243694 ], [ -91.901499015935244, 30.127894702975745 ] ] ] } },
{ "type": "Feature", "properties": { "ID": 41989, "date": "2022-12-07T00:00:00", "smokePM_pred": 2.1426143646240199 }, "geometry": { "type": "Polygon", "coordinates": [ [ [ -91.805854290407467, 30.145497237017832 ], [ -91.785677805110694, 30.062327952671737 ], [ -91.881256680316611, 30.044783899105891 ], [ -91.901499015935244, 30.127894702975745 ], [ -91.805854290407467, 30.145497237017832 ] ] ] } },
{ "type": "Feature", "properties": { "ID": 41990, "date": "2022-12-07T00:00:00", "smokePM_pred": 2.2667748928070099 }, "geometry": { "type": "Polygon", "coordinates": [ [ [ -91.710125117586131, 30.163039156374346 ], [ -91.690014765707005, 30.079811572683592 ], [ -91.785677805110694, 30.062327952671737 ], [ -91.805854290407467, 30.145497237017832 ], [ -91.710125117586131, 30.163039156374346 ] ] ] } },
{ "type": "Feature", "properties": { "ID": 41991, "date": "2022-12-07T00:00:00", "smokePM_pred": 2.1523351669311501 }, "geometry": { "type": "Polygon", "coordinates": [ [ [ -91.61431172671945, 30.180520244407607 ], [ -91.59426779105074, 30.097234543412146 ], [ -91.690014765707005, 30.079811572683592 ], [ -91.710125117586131, 30.163039156374346 ], [ -91.61431172671945, 30.180520244407607 ] ] ] } },
{ "type": "Feature", "properties": { "ID": 41992, "date": "2022-12-07T00:00:00", "smokePM_pred": 3.7668013572692902 }, "geometry": { "type": "Polygon", "coordinates": [ [ [ -91.518414348667562, 30.197940284844059 ], [ -91.498437111689896, 30.11459664949173 ], [ -91.59426779105074, 30.097234543412146 ], [ -91.61431172671945, 30.180520244407607 ], [ -91.518414348667562, 30.197940284844059 ] ] ] } },
{ "type": "Feature", "properties": { "ID": 41993, "date": "2022-12-07T00:00:00", "smokePM_pred": 3.3430521488189702 }, "geometry": { "type": "Polygon", "coordinates": [ [ [ -91.422433215903069, 30.21529906178052 ], [ -91.402522959775737, 30.131897675926485 ], [ -91.498437111689896, 30.11459664949173 ], [ -91.518414348667562, 30.197940284844059 ], [ -91.422433215903069, 30.21529906178052 ] ] ] } },
{ "type": "Feature", "properties": { "ID": 42084, "date": "2022-12-07T00:00:00", "smokePM_pred": 3.4656708240509002 }, "geometry": { "type": "Polygon", "coordinates": [ [ [ -82.372608275657626, 31.511977412155886 ], [ -82.359903514174107, 31.424204452339822 ], [ -82.462236082983509, 31.413294478807803 ], [ -82.475030908446897, 31.50103004176113 ], [ -82.372608275657626, 31.511977412155886 ] ] ] } },
{ "type": "Feature", "properties": { "ID": 42085, "date": "2022-12-07T00:00:00", "smokePM_pred": 3.4932165145874001 }, "geometry": { "type": "Polygon", "coordinates": [ [ [ -82.270130029645941, 31.522846087731924 ], [ -82.25751554335443, 31.435035991416242 ], [ -82.359903514174107, 31.424204452339822 ], [ -82.372608275657626, 31.511977412155886 ], [ -82.270130029645941, 31.522846087731924 ] ] ] } },
{ "type": "Feature", "properties": { "ID": 42086, "date": "2022-12-07T00:00:00", "smokePM_pred": 3.50063228607178 }, "geometry": { "type": "Polygon", "coordinates": [ [ [ -82.167596545506569, 31.533635914568652 ], [ -82.155072544397228, 31.445788942820222 ], [ -82.25751554335443, 31.435035991416242 ], [ -82.270130029645941, 31.522846087731924 ], [ -82.167596545506569, 31.533635914568652 ] ] ] } },
{ "type": "Feature", "properties": { "ID": 42091, "date": "2022-12-07T00:00:00", "smokePM_pred": 3.6053109169006299 }, "geometry": { "type": "Polygon", "coordinates": [ [ [ -81.654113774542068, 31.586396997483078 ], [ -81.642045305787292, 31.498369588931251 ], [ -81.744757791041934, 31.488011840719555 ], [ -81.756917776280275, 31.576003689592088 ], [ -81.654113774542068, 31.586396997483078 ] ] ] } },
{ "type": "Feature", "properties": { "ID": 42092, "date": "2022-12-07T00:00:00", "smokePM_pred": 4.2999987602233896 }, "geometry": { "type": "Polygon", "coordinates": [ [ [ -81.551256813120247, 31.596710553325053 ], [ -81.539280063315687, 31.50864785030058 ], [ -81.642045305787292, 31.498369588931251 ], [ -81.654113774542068, 31.586396997483078 ], [ -81.551256813120247, 31.596710553325053 ] ] ] } },
{ "type": "Feature", "properties": { "ID": 42093, "date": "2022-12-07T00:00:00", "smokePM_pred": 4.0674676895141602 }, "geometry": { "type": "Polygon", "coordinates": [ [ [ -81.448347276337046, 31.606944209987144 ], [ -81.436462446663825, 31.518846478372559 ], [ -81.539280063315687, 31.50864785030058 ], [ -81.551256813120247, 31.596710553325053 ], [ -81.448347276337046, 31.606944209987144 ] ] ] } },
{ "type": "Feature", "properties": { "ID": 42094, "date": "2022-12-07T00:00:00", "smokePM_pred": 3.8310816287994398 }, "geometry": { "type": "Polygon", "coordinates": [ [ [ -81.34538554980486, 31.617097821330489 ], [ -81.333592840149578, 31.528965327680051 ], [ -81.436462446663825, 31.518846478372559 ], [ -81.448347276337046, 31.606944209987144 ], [ -81.34538554980486, 31.617097821330489 ] ] ] } },
{ "type": "Feature", "properties": { "ID": 42504, "date": "2022-12-07T00:00:00", "smokePM_pred": 2.0568139553070099 }, "geometry": { "type": "Polygon", "coordinates": [ [ [ -91.826115223266342, 30.228653172125661 ], [ -91.805854290407467, 30.145497237017832 ], [ -91.901499015935244, 30.127894702975745 ], [ -91.921826026752868, 30.210992070420886 ], [ -91.826115223266342, 30.228653172125661 ] ] ] } },
{ "type": "Feature", "properties": { "ID": 42505, "date": "2022-12-07T00:00:00", "smokePM_pred": 1.8847188949585001 }, "geometry": { "type": "Polygon", "coordinates": [ [ [ -91.730319687779257, 30.246253477948695 ], [ -91.710125117586131, 30.163039156374346 ], [ -91.805854290407467, 30.145497237017832 ], [ -91.826115223266342, 30.228653172125661 ], [ -91.730319687779257, 30.246253477948695 ] ] ] } },
{ "type": "Feature", "properties": { "ID": 42506, "date": "2022-12-07T00:00:00", "smokePM_pred": 1.73281610012054 }, "geometry": { "type": "Polygon", "coordinates": [ [ [ -91.634439649842136, 30.263792770340789 ], [ -91.61431172671945, 30.180520244407607 ], [ -91.710125117586131, 30.163039156374346 ], [ -91.730319687779257, 30.246253477948695 ], [ -91.634439649842136, 30.263792770340789 ] ] ] } },
{ "type": "Feature", "properties": { "ID": 42507, "date": "2022-12-07T00:00:00", "smokePM_pred": 2.52230024337769 }, "geometry": { "type": "Polygon", "coordinates": [ [ [ -91.538475340626675, 30.281270832117379 ], [ -91.518414348667562, 30.197940284844059 ], [ -91.61431172671945, 30.180520244407607 ], [ -91.634439649842136, 30.263792770340789 ], [ -91.538475340626675, 30.281270832117379 ] ] ] } },
{ "type": "Feature", "properties": { "ID": 44151, "date": "2022-12-07T00:00:00", "smokePM_pred": 3.1149051189422599 }, "geometry": { "type": "Polygon", "coordinates": [ [ [ -81.702919292756476, 31.938452679758093 ], [ -81.690637756574205, 31.850446900030601 ], [ -81.793718611061564, 31.839946529079604 ], [ -81.80609320356254, 31.927916491992804 ], [ -81.702919292756476, 31.938452679758093 ] ] ] } },
{ "type": "Feature", "properties": { "ID": 44152, "date": "2022-12-07T00:00:00", "smokePM_pred": 3.1179549694061302 }, "geometry": { "type": "Polygon", "coordinates": [ [ [ -81.5996915993356, 31.948908050673829 ], [ -81.587503327182773, 31.860866720931817 ], [ -81.690637756574205, 31.850446900030601 ], [ -81.702919292756476, 31.938452679758093 ], [ -81.5996915993356, 31.948908050673829 ] ] ] } },
{ "type": "Feature", "properties": { "ID": 44153, "date": "2022-12-07T00:00:00", "smokePM_pred": 3.0649678707122798 }, "geometry": { "type": "Polygon", "coordinates": [ [ [ -81.496410512836576, 31.959282454875641 ], [ -81.484315711109431, 31.871205842606848 ], [ -81.587503327182773, 31.860866720931817 ], [ -81.5996915993356, 31.948908050673829 ], [ -81.496410512836576, 31.959282454875641 ] ] ] } },
{ "type": "Feature", "properties": { "ID": 44665, "date": "2022-12-07T00:00:00", "smokePM_pred": 3.1336975097656201 }, "geometry": { "type": "Polygon", "coordinates": [ [ [ -81.818521967104516, 32.015880922231695 ], [ -81.80609320356254, 31.927916491992804 ], [ -81.90921294355114, 31.91729963824535 ], [ -81.921734941258393, 32.005227920034194 ], [ -81.818521967104516, 32.015880922231695 ] ] ] } },
{ "type": "Feature", "properties": { "ID": 44666, "date": "2022-12-07T00:00:00", "smokePM_pred": 3.4423508644103999 }, "geometry": { "type": "Polygon", "coordinates": [ [ [ -81.715254611775919, 32.026452991939642 ], [ -81.702919292756476, 31.938452679758093 ], [ -81.80609320356254, 31.927916491992804 ], [ -81.818521967104516, 32.015880922231695 ], [ -81.715254611775919, 32.026452991939642 ] ] ] } },
{ "type": "Feature", "properties": { "ID": 44667, "date": "2022-12-07T00:00:00", "smokePM_pred": 3.1168665885925302 }, "geometry": { "type": "Polygon", "coordinates": [ [ [ -81.611933264787694, 32.036943977595485 ], [ -81.5996915993356, 31.948908050673829 ], [ -81.702919292756476, 31.938452679758093 ], [ -81.715254611775919, 32.026452991939642 ], [ -81.611933264787694, 32.036943977595485 ] ] ] } },
{ "type": "Feature", "properties": { "ID": 44668, "date": "2022-12-07T00:00:00", "smokePM_pred": 3.1284303665161102 }, "geometry": { "type": "Polygon", "coordinates": [ [ [ -81.508558316998361, 32.047353728643898 ], [ -81.496410512836576, 31.959282454875641 ], [ -81.5996915993356, 31.948908050673829 ], [ -81.611933264787694, 32.036943977595485 ], [ -81.508558316998361, 32.047353728643898 ] ] ] } },
{ "type": "Feature", "properties": { "ID": 167909, "date": "2022-12-07T00:00:00", "smokePM_pred": 3.77516388893127 }, "geometry": { "type": "Polygon", "coordinates": [ [ [ -123.501168404222, 38.861069850186674 ], [ -123.442288055552737, 38.808774454128617 ], [ -123.509097090916427, 38.76276789754089 ], [ -123.567930169048424, 38.814977856594695 ], [ -123.501168404222, 38.861069850186674 ] ] ] } },
{ "type": "Feature", "properties": { "ID": 167910, "date": "2022-12-07T00:00:00", "smokePM_pred": 4.5286307334899902 }, "geometry": { "type": "Polygon", "coordinates": [ [ [ -123.43425360437368, 38.907168752557574 ], [ -123.375326198008352, 38.854787797411781 ], [ -123.442288055552737, 38.808774454128617 ], [ -123.501168404222, 38.861069850186674 ], [ -123.43425360437368, 38.907168752557574 ] ] ] } },
{ "type": "Feature", "properties": { "ID": 167911, "date": "2022-12-07T00:00:00", "smokePM_pred": 4.5366630554199201 }, "geometry": { "type": "Polygon", "coordinates": [ [ [ -123.367185363071258, 38.953274314429571 ], [ -123.308211114030271, 38.900807678202732 ], [ -123.375326198008352, 38.854787797411781 ], [ -123.43425360437368, 38.907168752557574 ], [ -123.367185363071258, 38.953274314429571 ] ] ] } },
{ "type": "Feature", "properties": { "ID": 167912, "date": "2022-12-07T00:00:00", "smokePM_pred": 4.6093029975891104 }, "geometry": { "type": "Polygon", "coordinates": [ [ [ -123.299963273108574, 38.999386285234181 ], [ -123.240942398605455, 38.9468338460265 ], [ -123.308211114030271, 38.900807678202732 ], [ -123.367185363071258, 38.953274314429571 ], [ -123.299963273108574, 38.999386285234181 ] ] ] } },
{ "type": "Feature", "properties": { "ID": 168424, "date": "2022-12-07T00:00:00", "smokePM_pred": 3.6587233543396001 }, "geometry": { "type": "Polygon", "coordinates": [ [ [ -123.56020178778337, 38.913289494281464 ], [ -123.501168404222, 38.861069850186674 ], [ -123.567930169048424, 38.814977856594695 ], [ -123.626915876418423, 38.867112063728413 ], [ -123.56020178778337, 38.913289494281464 ] ] ] } },
{ "type": "Feature", "properties": { "ID": 168425, "date": "2022-12-07T00:00:00", "smokePM_pred": 4.7113313674926802 }, "geometry": { "type": "Polygon", "coordinates": [ [ [ -123.493334452064147, 38.959473956313332 ], [ -123.434253604373737, 38.907168752557524 ], [ -123.501168404222085, 38.861069850186631 ], [ -123.560201787783456, 38.913289494281422 ], [ -123.493334452064147, 38.959473956313332 ] ] ] } },
{ "type": "Feature", "properties": { "ID": 168426, "date": "2022-12-07T00:00:00", "smokePM_pred": 4.7929868698120099 }, "geometry": { "type": "Polygon", "coordinates": [ [ [ -123.426313460644323, 39.005665200459909 ], [ -123.367185363071258, 38.953274314429571 ], [ -123.43425360437368, 38.907168752557574 ], [ -123.493334452064076, 38.959473956313381 ], [ -123.426313460644323, 39.005665200459909 ] ] ] } },
{ "type": "Feature", "properties": { "ID": 168427, "date": "2022-12-07T00:00:00", "smokePM_pred": 4.2595558166503897 }, "geometry": { "type": "Polygon", "coordinates": [ [ [ -123.359138404119818, 39.051862976062715 ], [ -123.299963273108574, 38.999386285234181 ], [ -123.367185363071258, 38.953274314429571 ], [ -123.426313460644323, 39.005665200459909 ], [ -123.359138404119818, 39.051862976062715 ] ] ] } },
{ "type": "Feature", "properties": { "ID": 168428, "date": "2022-12-07T00:00:00", "smokePM_pred": 4.7449207305908203 }, "geometry": { "type": "Polygon", "coordinates": [ [ [ -123.29180887230288, 39.098067031165691 ], [ -123.232586926510535, 39.045504413108482 ], [ -123.299963273108574, 38.999386285234181 ], [ -123.359138404119818, 39.051862976062715 ], [ -123.29180887230288, 39.098067031165691 ] ] ] } },
{ "type": "Feature", "properties": { "ID": 168939, "date": "2022-12-07T00:00:00", "smokePM_pred": 4.5908694267273003 }, "geometry": { "type": "Polygon", "coordinates": [ [ [ -123.61938841829685, 38.965433136505631 ], [ -123.56020178778337, 38.913289494281464 ], [ -123.626915876418423, 38.867112063728413 ], [ -123.686054422916584, 38.919170269567566 ], [ -123.61938841829685, 38.965433136505631 ] ] ] } },
{ "type": "Feature", "properties": { "ID": 168940, "date": "2022-12-07T00:00:00", "smokePM_pred": 5.1543002128601101 }, "geometry": { "type": "Polygon", "coordinates": [ [ [ -123.552568955323537, 39.011703158239435 ], [ -123.493334452064076, 38.959473956313381 ], [ -123.56020178778337, 38.913289494281464 ], [ -123.61938841829685, 38.965433136505631 ], [ -123.552568955323537, 39.011703158239435 ] ] ] } },
{ "type": "Feature", "properties": { "ID": 168941, "date": "2022-12-07T00:00:00", "smokePM_pred": 4.8620867729187003 }, "geometry": { "type": "Polygon", "coordinates": [ [ [ -123.485595623191642, 39.057980085321937 ], [ -123.426313460644323, 39.005665200459909 ], [ -123.493334452064076, 38.959473956313381 ], [ -123.552568955323537, 39.011703158239435 ], [ -123.485595623191642, 39.057980085321937 ] ] ] } },
{ "type": "Feature", "properties": { "ID": 168942, "date": "2022-12-07T00:00:00", "smokePM_pred": 5.1838216781616202 }, "geometry": { "type": "Polygon", "coordinates": [ [ [ -123.418468010293708, 39.104263667008738 ], [ -123.359138404119818, 39.051862976062715 ], [ -123.426313460644323, 39.005665200459909 ], [ -123.485595623191642, 39.057980085321937 ], [ -123.418468010293708, 39.104263667008738 ] ] ] } },
{ "type": "Feature", "properties": { "ID": 168943, "date": "2022-12-07T00:00:00", "smokePM_pred": 4.6268358230590803 }, "geometry": { "type": "Polygon", "coordinates": [ [ [ -123.351185704224648, 39.150553651254178 ], [ -123.291808872302965, 39.098067031165634 ], [ -123.359138404119861, 39.051862976062672 ], [ -123.418468010293751, 39.104263667008688 ], [ -123.351185704224648, 39.150553651254178 ] ] ] } },
{ "type": "Feature", "properties": { "ID": 189071, "date": "2022-12-07T00:00:00", "smokePM_pred": 31.027368545532202 }, "geometry": { "type": "Polygon", "coordinates": [ [ [ -122.829830203986049, 43.277107392297879 ], [ -122.76165602271189, 43.223969644432465 ], [ -122.834285671399996, 43.174181989586167 ], [ -122.902404856411934, 43.227227826660688 ], [ -122.829830203986049, 43.277107392297879 ] ] ] } },
{ "type": "Feature", "properties": { "ID": 189072, "date": "2022-12-07T00:00:00", "smokePM_pred": 30.270671844482401 }, "geometry": { "type": "Polygon", "coordinates": [ [ [ -122.75706966017556, 43.326986059382612 ], [ -122.688840781469025, 43.273756253192204 ], [ -122.76165602271189, 43.223969644432465 ], [ -122.829830203986049, 43.277107392297879 ], [ -122.75706966017556, 43.326986059382612 ] ] ] } },
{ "type": "Feature", "properties": { "ID": 189073, "date": "2022-12-07T00:00:00", "smokePM_pred": 33.192874908447301 }, "geometry": { "type": "Polygon", "coordinates": [ [ [ -122.684122661590862, 43.376863506078642 ], [ -122.615839387588565, 43.323541494124505 ], [ -122.688840781469096, 43.273756253192261 ], [ -122.757069660175631, 43.326986059382669 ], [ -122.684122661590862, 43.376863506078642 ] ] ] } },
{ "type": "Feature", "properties": { "ID": 189586, "date": "2022-12-07T00:00:00", "smokePM_pred": 41.9263725280762 }, "geometry": { "type": "Polygon", "coordinates": [ [ [ -122.898190276437759, 43.330158203425889 ], [ -122.829830203986148, 43.277107392297943 ], [ -122.902404856412005, 43.227227826660751 ], [ -122.970709370453562, 43.280186718800252 ], [ -122.898190276437759, 43.330158203425889 ] ] ] } },
{ "type": "Feature", "properties": { "ID": 189587, "date": "2022-12-07T00:00:00", "smokePM_pred": 43.275138854980497 }, "geometry": { "type": "Polygon", "coordinates": [ [ [ -122.82548499345053, 43.380128937882645 ], [ -122.75706966017556, 43.326986059382612 ], [ -122.829830203986049, 43.277107392297879 ], [ -122.898190276437688, 43.330158203425825 ], [ -122.82548499345053, 43.380128937882645 ] ] ] } },
{ "type": "Feature", "properties": { "ID": 189588, "date": "2022-12-07T00:00:00", "smokePM_pred": 39.338455200195298 }, "geometry": { "type": "Polygon", "coordinates": [ [ [ -122.752592954787772, 43.430098600244555 ], [ -122.684122661590862, 43.376863506078642 ], [ -122.757069660175631, 43.326986059382669 ], [ -122.82548499345063, 43.380128937882702 ], [ -122.752592954787772, 43.430098600244555 ] ] ] } },
{ "type": "Feature", "properties": { "ID": 189589, "date": "2022-12-07T00:00:00", "smokePM_pred": 32.8094291687012 }, "geometry": { "type": "Polygon", "coordinates": [ [ [ -122.679513592485563, 43.480066866915529 ], [ -122.610988643606888, 43.426739408884671 ], [ -122.684122661590777, 43.376863506078585 ], [ -122.752592954787701, 43.430098600244499 ], [ -122.679513592485563, 43.480066866915529 ] ] ] } },
{ "type": "Feature", "properties": { "ID": 190101, "date": "2022-12-07T00:00:00", "smokePM_pred": 37.021999359130902 }, "geometry": { "type": "Polygon", "coordinates": [ [ [ -122.966736537649538, 43.383121768332956 ], [ -122.898190276437759, 43.330158203425889 ], [ -122.970709370453562, 43.280186718800252 ], [ -123.039199507816818, 43.333058357264981 ], [ -122.966736537649538, 43.383121768332956 ] ] ] } },
{ "type": "Feature", "properties": { "ID": 190102, "date": "2022-12-07T00:00:00", "smokePM_pred": 47.372730255127003 }, "geometry": { "type": "Polygon", "coordinates": [ [ [ -122.894087082191319, 43.43318457846587 ], [ -122.82548499345053, 43.380128937882645 ], [ -122.898190276437688, 43.330158203425825 ], [ -122.966736537649496, 43.383121768332906 ], [ -122.894087082191319, 43.43318457846587 ] ] ] } },
{ "type": "Feature", "properties": { "ID": 190103, "date": "2022-12-07T00:00:00", "smokePM_pred": 43.139358520507798 }, "geometry": { "type": "Polygon", "coordinates": [ [ [ -122.821250571415447, 43.483246465653409 ], [ -122.752592954787772, 43.430098600244555 ], [ -122.82548499345063, 43.380128937882702 ], [ -122.894087082191376, 43.433184578465912 ], [ -122.821250571415447, 43.483246465653409 ] ] ] } },
{ "type": "Feature", "properties": { "ID": 190104, "date": "2022-12-07T00:00:00", "smokePM_pred": 35.565032958984403 }, "geometry": { "type": "Polygon", "coordinates": [ [ [ -122.748226434011215, 43.533307106210408 ], [ -122.679513592485648, 43.480066866915585 ], [ -122.752592954787772, 43.430098600244555 ], [ -122.821250571415447, 43.483246465653409 ], [ -122.748226434011215, 43.533307106210408 ] ] ] } },
{ "type": "Feature", "properties": { "ID": 190105, "date": "2022-12-07T00:00:00", "smokePM_pred": 32.3167915344238 }, "geometry": { "type": "Polygon", "coordinates": [ [ [ -122.675014097392591, 43.583366174771946 ], [ -122.606246337329424, 43.53003341262491 ], [ -122.679513592485563, 43.480066866915529 ], [ -122.748226434011144, 43.533307106210358 ], [ -122.675014097392591, 43.583366174771946 ] ] ] } },
{ "type": "Feature", "properties": { "ID": 190616, "date": "2022-12-07T00:00:00", "smokePM_pred": 43.251758575439503 }, "geometry": { "type": "Polygon", "coordinates": [ [ [ -123.035469283936976, 43.435997776673744 ], [ -122.966736537649538, 43.383121768332956 ], [ -123.039199507816818, 43.333058357264981 ], [ -123.107875561518881, 43.385842432460187 ], [ -123.035469283936976, 43.435997776673744 ] ] ] } },
{ "type": "Feature", "properties": { "ID": 190617, "date": "2022-12-07T00:00:00", "smokePM_pred": 46.363002777099602 }, "geometry": { "type": "Polygon", "coordinates": [ [ [ -122.962876226035945, 43.486152670036702 ], [ -122.894087082191319, 43.43318457846587 ], [ -122.966736537649496, 43.383121768332906 ], [ -123.035469283936919, 43.435997776673702 ], [ -122.962876226035945, 43.486152670036702 ] ] ] } },
{ "type": "Feature", "properties": { "ID": 190618, "date": "2022-12-07T00:00:00", "smokePM_pred": 43.365978240966797 }, "geometry": { "type": "Polygon", "coordinates": [ [ [ -122.890095814458775, 43.536306790460124 ], [ -122.821250571415447, 43.483246465653409 ], [ -122.894087082191376, 43.433184578465912 ], [ -122.96287622603603, 43.486152670036752 ], [ -122.890095814458775, 43.536306790460124 ] ] ] } },
{ "type": "Feature", "properties": { "ID": 190619, "date": "2022-12-07T00:00:00", "smokePM_pred": 35.161262512207003 }, "geometry": { "type": "Polygon", "coordinates": [ [ [ -122.817127474539802, 43.586459814175171 ], [ -122.748226434011144, 43.533307106210358 ], [ -122.821250571415376, 43.483246465653352 ], [ -122.890095814458689, 43.536306790460074 ], [ -122.817127474539802, 43.586459814175171 ] ] ] } },
{ "type": "Feature", "properties": { "ID": 190620, "date": "2022-12-07T00:00:00", "smokePM_pred": 31.1068935394287 }, "geometry": { "type": "Polygon", "coordinates": [ [ [ -122.743970630313797, 43.636611415728687 ], [ -122.675014097392634, 43.583366174771996 ], [ -122.748226434011215, 43.533307106210408 ], [ -122.817127474539888, 43.586459814175214 ], [ -122.743970630313797, 43.636611415728687 ] ] ] } },
{ "type": "Feature", "properties": { "ID": 190621, "date": "2022-12-07T00:00:00", "smokePM_pred": 23.344266891479499 }, "geometry": { "type": "Polygon", "coordinates": [ [ [ -122.670624704522737, 43.68676126797682 ], [ -122.601612987706162, 43.633423344287927 ], [ -122.675014097392591, 43.583366174771946 ], [ -122.743970630313726, 43.63661141572863 ], [ -122.670624704522737, 43.68676126797682 ] ] ] } },
{ "type": "Feature", "properties": { "ID": 191132, "date": "2022-12-07T00:00:00", "smokePM_pred": 37.682510375976598 }, "geometry": { "type": "Polygon", "coordinates": [ [ [ -123.031852723338872, 43.539032900631263 ], [ -122.962876226035945, 43.486152670036702 ], [ -123.035469283936919, 43.435997776673702 ], [ -123.10438881032411, 43.488785917241501 ], [ -123.031852723338872, 43.539032900631263 ] ] ] } },
{ "type": "Feature", "properties": { "ID": 191133, "date": "2022-12-07T00:00:00", "smokePM_pred": 45.691970825195298 }, "geometry": { "type": "Polygon", "coordinates": [ [ [ -122.959128985627018, 43.58927926194405 ], [ -122.890095814458775, 43.536306790460124 ], [ -122.96287622603603, 43.486152670036752 ], [ -123.031852723338972, 43.539032900631319 ], [ -122.959128985627018, 43.58927926194405 ] ] ] } },
{ "type": "Feature", "properties": { "ID": 191134, "date": "2022-12-07T00:00:00", "smokePM_pred": 30.513992309570298 }, "geometry": { "type": "Polygon", "coordinates": [ [ [ -122.886217019160398, 43.639524677333299 ], [ -122.817127474539888, 43.586459814175214 ], [ -122.890095814458775, 43.536306790460124 ], [ -122.959128985627018, 43.58927926194405 ], [ -122.886217019160398, 43.639524677333299 ] ] ] } },
{ "type": "Feature", "properties": { "ID": 191135, "date": "2022-12-07T00:00:00", "smokePM_pred": 27.319116592407202 }, "geometry": { "type": "Polygon", "coordinates": [ [ [ -122.813116244585899, 43.689768821262817 ], [ -122.743970630313797, 43.636611415728687 ], [ -122.817127474539888, 43.586459814175214 ], [ -122.886217019160398, 43.639524677333299 ], [ -122.813116244585899, 43.689768821262817 ] ] ] } },
{ "type": "Feature", "properties": { "ID": 191136, "date": "2022-12-07T00:00:00", "smokePM_pred": 19.603042602539102 }, "geometry": { "type": "Polygon", "coordinates": [ [ [ -122.739826081233375, 43.740011366501278 ], [ -122.670624704522808, 43.68676126797687 ], [ -122.743970630313797, 43.636611415728687 ], [ -122.813116244585899, 43.689768821262817 ], [ -122.739826081233375, 43.740011366501278 ] ] ] } },
{ "type": "Feature", "properties": { "ID": 191137, "date": "2022-12-07T00:00:00", "smokePM_pred": 15.4148826599121 }, "geometry": { "type": "Polygon", "coordinates": [ [ [ -122.66634594712346, 43.790251984116686 ], [ -122.597089118625149, 43.736909042080583 ], [ -122.670624704522737, 43.68676126797682 ], [ -122.739826081233304, 43.740011366501228 ], [ -122.66634594712346, 43.790251984116686 ] ] ] } },
{ "type": "Feature", "properties": { "ID": 191649, "date": "2022-12-07T00:00:00", "smokePM_pred": 24.0381183624268 }, "geometry": { "type": "Polygon", "coordinates": [ [ [ -122.955495371669173, 43.692501381325798 ], [ -122.886217019160398, 43.639524677333299 ], [ -122.959128985627018, 43.58927926194405 ], [ -123.028350385329176, 43.642163566509709 ], [ -122.955495371669173, 43.692501381325798 ] ] ] } },
{ "type": "Feature", "properties": { "ID": 191650, "date": "2022-12-07T00:00:00", "smokePM_pred": 21.1255207061768 }, "geometry": { "type": "Polygon", "coordinates": [ [ [ -122.882451247417777, 43.742838076252845 ], [ -122.813116244585828, 43.689768821262767 ], [ -122.886217019160313, 43.639524677333249 ], [ -122.955495371669102, 43.692501381325748 ], [ -122.882451247417777, 43.742838076252845 ] ] ] } },
{ "type": "Feature", "properties": { "ID": 191651, "date": "2022-12-07T00:00:00", "smokePM_pred": 15.5967569351196 }, "geometry": { "type": "Polygon", "coordinates": [ [ [ -122.809217428484402, 43.793173323977598 ], [ -122.739826081233375, 43.740011366501278 ], [ -122.813116244585899, 43.689768821262817 ], [ -122.882451247417848, 43.742838076252902 ], [ -122.809217428484402, 43.793173323977598 ] ] ] } },
{ "type": "Feature", "properties": { "ID": 191652, "date": "2022-12-07T00:00:00", "smokePM_pred": 14.2731266021729 }, "geometry": { "type": "Polygon", "coordinates": [ [ [ -122.735793329443723, 43.843506795480955 ], [ -122.666345947123546, 43.790251984116736 ], [ -122.739826081233375, 43.740011366501278 ], [ -122.809217428484402, 43.793173323977598 ], [ -122.735793329443723, 43.843506795480955 ] ] ] } },
{ "type": "Feature", "properties": { "ID": 192166, "date": "2022-12-07T00:00:00", "smokePM_pred": 13.593849182128899 }, "geometry": { "type": "Polygon", "coordinates": [ [ [ -122.87879905562167, 43.846246823626259 ], [ -122.809217428484402, 43.793173323977598 ], [ -122.882451247417848, 43.742838076252902 ], [ -122.951975944709531, 43.795818864688776 ], [ -122.87879905562167, 43.846246823626259 ] ] ] } },
{ "type": "Feature", "properties": { "ID": 192167, "date": "2022-12-07T00:00:00", "smokePM_pred": 12.097250938415501 }, "geometry": { "type": "Polygon", "coordinates": [ [ [ -122.805431578402619, 43.896673158624878 ], [ -122.735793329443638, 43.843506795480899 ], [ -122.809217428484331, 43.793173323977548 ], [ -122.878799055621585, 43.84624682362621 ], [ -122.805431578402619, 43.896673158624878 ] ] ] } }
]
}
