{
"type": "FeatureCollection",
"name": "geo_2022-12-06",
"crs": { "type": "name", "properties": { "name": "urn:ogc:def:crs:OGC:1.3:CRS84" } },
"features": [
{ "type": "Feature", "properties": { "ID": 11704, "date": "2022-12-06T00:00:00", "smokePM_pred": 2.5111670494079599 }, "geometry": { "type": "Polygon", "coordinates": [ [ [ -81.222338890154688, 26.367504390015249 ], [ -81.212935054839534, 26.279263851661216 ], [ -81.310796958131235, 26.270773746750219 ], [ -81.320271464698621, 26.358981465447943 ], [ -81.222338890154688, 26.367504390015249 ] ] ] } },
{ "type": "Feature", "properties": { "ID": 11705, "date": "2022-12-06T00:00:00", "smokePM_pred": 3.1949589252471902 }, "geometry": { "type": "Polygon", "coordinates": [ [ [ -81.124362718313932, 26.375962816202261 ], [ -81.115029695557411, 26.287689701914516 ], [ -81.212935054839534, 26.279263851661216 ], [ -81.222338890154688, 26.367504390015249 ], [ -81.124362718313932, 26.375962816202261 ] ] ] } },
{ "type": "Feature", "properties": { "ID": 11706, "date": "2022-12-06T00:00:00", "smokePM_pred": 2.7893731594085698 }, "geometry": { "type": "Polygon", "coordinates": [ [ [ -81.026343266960893, 26.384356630784282 ], [ -81.017081197157779, 26.296051184825028 ], [ -81.115029695557411, 26.287689701914516 ], [ -81.124362718313932, 26.375962816202261 ], [ -81.026343266960893, 26.384356630784282 ] ] ] } },
{ "type": "Feature", "properties": { "ID": 11707, "date": "2022-12-06T00:00:00", "smokePM_pred": 3.8223514556884801 }, "geometry": { "type": "Polygon", "coordinates": [ [ [ -80.928280854765063, 26.39268572129879 ], [ -80.919089877393091, 26.304348188466466 ], [ -81.017081197157779, 26.296051184825028 ], [ -81.026343266960893, 26.384356630784282 ], [ -80.928280854765063, 26.39268572129879 ] ] ] } },
{ "type": "Feature", "properties": { "ID": 12219, "date": "2022-12-06T00:00:00", "smokePM_pred": 3.3388376235961901 }, "geometry": { "type": "Polygon", "coordinates": [ [ [ -81.231786322915013, 26.455740710253011 ], [ -81.222338890154688, 26.367504390015249 ], [ -81.320271464698621, 26.358981465447943 ], [ -81.329789885606317, 26.447184918679142 ], [ -81.231786322915013, 26.455740710253011 ] ] ] } },
{ "type": "Feature", "properties": { "ID": 12220, "date": "2022-12-06T00:00:00", "smokePM_pred": 3.4551246166229199 }, "geometry": { "type": "Polygon", "coordinates": [ [ [ -81.133739020730275, 26.464231759426951 ], [ -81.124362718313932, 26.375962816202261 ], [ -81.222338890154688, 26.367504390015249 ], [ -81.231786322915013, 26.455740710253011 ], [ -81.133739020730275, 26.464231759426951 ] ] ] } },
{ "type": "Feature", "properties": { "ID": 12221, "date": "2022-12-06T00:00:00", "smokePM_pred": 3.0332765579223602 }, "geometry": { "type": "Polygon", "coordinates": [ [ [ -81.035648297753397, 26.472657952434687 ], [ -81.026343266960893, 26.384356630784282 ], [ -81.124362718313932, 26.375962816202261 ], [ -81.133739020730275, 26.464231759426951 ], [ -81.035648297753397, 26.472657952434687 ] ] ] } },
{ "type": "Feature", "properties": { "ID": 12222, "date": "2022-12-06T00:00:00", "smokePM_pred": 3.0323569774627699 }, "geometry": { "type": "Polygon", "coordinates": [ [ [ -80.937514473576215, 26.481019176275495 ], [ -80.928280854765063, 26.39268572129879 ], [ -81.026343266960893, 26.384356630784282 ], [ -81.035648297753397, 26.472657952434687 ], [ -80.937514473576215, 26.481019176275495 ] ] ] } },
{ "type": "Feature", "properties": { "ID": 12223, "date": "2022-12-06T00:00:00", "smokePM_pred": 5.9534273147582999 }, "geometry": { "type": "Polygon", "coordinates": [ [ [ -80.839337868675869, 26.489315318718081 ], [ -80.830175801275814, 26.400949976049269 ], [ -80.928280854765063, 26.39268572129879 ], [ -80.937514473576215, 26.481019176275495 ], [ -80.839337868675869, 26.489315318718081 ] ] ] } },
{ "type": "Feature", "properties": { "ID": 12224, "date": "2022-12-06T00:00:00", "smokePM_pred": 6.4085745811462402 }, "geometry": { "type": "Polygon", "coordinates": [ [ [ -80.741118804409425, 26.497546268304369 ], [ -80.732028426916983, 26.40914928410897 ], [ -80.830175801275814, 26.400949976049269 ], [ -80.839337868675869, 26.489315318718081 ], [ -80.741118804409425, 26.497546268304369 ] ] ] } },
{ "type": "Feature", "properties": { "ID": 12225, "date": "2022-12-06T00:00:00", "smokePM_pred": 7.24122858047485 }, "geometry": { "type": "Polygon", "coordinates": [ [ [ -80.642857603008622, 26.505711914353306 ], [ -80.633839052981628, 26.417283535324696 ], [ -80.732028426916983, 26.40914928410897 ], [ -80.741118804409425, 26.497546268304369 ], [ -80.642857603008622, 26.505711914353306 ] ] ] } },
{ "type": "Feature", "properties": { "ID": 12733, "date": "2022-12-06T00:00:00", "smokePM_pred": 3.2436320781707799 }, "geometry": { "type": "Polygon", "coordinates": [ [ [ -81.339352363963158, 26.535384086839819 ], [ -81.329789885606317, 26.447184918679142 ], [ -81.427749390998642, 26.438564499233383 ], [ -81.437383031300428, 26.526730509013159 ], [ -81.339352363963158, 26.535384086839819 ] ] ] } },
{ "type": "Feature", "properties": { "ID": 12734, "date": "2022-12-06T00:00:00", "smokePM_pred": 4.0473685264587402 }, "geometry": { "type": "Polygon", "coordinates": [ [ [ -81.241277495318087, 26.543972793023485 ], [ -81.231786322915013, 26.455740710253011 ], [ -81.329789885606317, 26.447184918679142 ], [ -81.339352363963158, 26.535384086839819 ], [ -81.241277495318087, 26.543972793023485 ] ] ] } },
{ "type": "Feature", "properties": { "ID": 12735, "date": "2022-12-06T00:00:00", "smokePM_pred": 3.5224757194518999 }, "geometry": { "type": "Polygon", "coordinates": [ [ [ -81.143158744087174, 26.552496512489157 ], [ -81.133739020730275, 26.464231759426951 ], [ -81.231786322915013, 26.455740710253011 ], [ -81.241277495318087, 26.543972793023485 ], [ -81.143158744087174, 26.552496512489157 ] ] ] } },
{ "type": "Feature", "properties": { "ID": 12736, "date": "2022-12-06T00:00:00", "smokePM_pred": 3.7863209247589098 }, "geometry": { "type": "Polygon", "coordinates": [ [ [ -81.044996429893757, 26.560955130926942 ], [ -81.035648297753397, 26.472657952434687 ], [ -81.133739020730275, 26.464231759426951 ], [ -81.143158744087174, 26.552496512489157 ], [ -81.044996429893757, 26.560955130926942 ] ] ] } },
{ "type": "Feature", "properties": { "ID": 12737, "date": "2022-12-06T00:00:00", "smokePM_pred": 3.56106400489807 }, "geometry": { "type": "Polygon", "coordinates": [ [ [ -80.946790873257214, 26.569348534795946 ], [ -80.937514473576215, 26.481019176275495 ], [ -81.035648297753397, 26.472657952434687 ], [ -81.044996429893757, 26.560955130926942 ], [ -80.946790873257214, 26.569348534795946 ] ] ] } },
{ "type": "Feature", "properties": { "ID": 12738, "date": "2022-12-06T00:00:00", "smokePM_pred": 6.7119183540344203 }, "geometry": { "type": "Polygon", "coordinates": [ [ [ -80.848542395587771, 26.57767661132813 ], [ -80.839337868675869, 26.489315318718081 ], [ -80.937514473576215, 26.481019176275495 ], [ -80.946790873257214, 26.569348534795946 ], [ -80.848542395587771, 26.57767661132813 ] ] ] } },
{ "type": "Feature", "properties": { "ID": 12739, "date": "2022-12-06T00:00:00", "smokePM_pred": 8.6511945724487305 }, "geometry": { "type": "Polygon", "coordinates": [ [ [ -80.750251319181103, 26.585939248532121 ], [ -80.741118804409425, 26.497546268304369 ], [ -80.839337868675869, 26.489315318718081 ], [ -80.848542395587771, 26.57767661132813 ], [ -80.750251319181103, 26.585939248532121 ] ] ] } },
{ "type": "Feature", "properties": { "ID": 12740, "date": "2022-12-06T00:00:00", "smokePM_pred": 6.1302204132080096 }, "geometry": { "type": "Polygon", "coordinates": [ [ [ -80.651917967213009, 26.594136335197042 ], [ -80.642857603008622, 26.505711914353306 ], [ -80.741118804409425, 26.497546268304369 ], [ -80.750251319181103, 26.585939248532121 ], [ -80.651917967213009, 26.594136335197042 ] ] ] } },
{ "type": "Feature", "properties": { "ID": 12741, "date": "2022-12-06T00:00:00", "smokePM_pred": 9.2382745742797905 }, "geometry": { "type": "Polygon", "coordinates": [ [ [ -80.553542663733907, 26.60226776089635 ], [ -80.544554587574396, 26.513812146964643 ], [ -80.642857603008622, 26.505711914353306 ], [ -80.651917967213009, 26.594136335197042 ], [ -80.553542663733907, 26.60226776089635 ] ] ] } },
{ "type": "Feature", "properties": { "ID": 12742, "date": "2022-12-06T00:00:00", "smokePM_pred": 8.4765434265136701 }, "geometry": { "type": "Polygon", "coordinates": [ [ [ -80.455125733663451, 26.610333415991551 ], [ -80.44621008207146, 26.521846857022666 ], [ -80.544554587574396, 26.513812146964643 ], [ -80.553542663733907, 26.60226776089635 ], [ -80.455125733663451, 26.610333415991551 ] ] ] } },
{ "type": "Feature", "properties": { "ID": 13248, "date": "2022-12-06T00:00:00", "smokePM_pred": 2.78342485427856 }, "geometry": { "type": "Polygon", "coordinates": [ [ [ -81.348959043778876, 26.623578950255602 ], [ -81.339352363963158, 26.535384086839819 ], [ -81.437383031300428, 26.526730509013159 ], [ -81.447061190877406, 26.614892165892787 ], [ -81.348959043778876, 26.623578950255602 ] ] ] } },
{ "type": "Feature", "properties": { "ID": 13249, "date": "2022-12-06T00:00:00", "smokePM_pred": 3.4854316711425799 }, "geometry": { "type": "Polygon", "coordinates": [ [ [ -81.250812550457184, 26.632200618906467 ], [ -81.241277495318087, 26.543972793023485 ], [ -81.339352363963158, 26.535384086839819 ], [ -81.348959043778876, 26.623578950255602 ], [ -81.250812550457184, 26.632200618906467 ] ] ] } },
{ "type": "Feature", "properties": { "ID": 13250, "date": "2022-12-06T00:00:00", "smokePM_pred": 3.6315333843231201 }, "geometry": { "type": "Polygon", "coordinates": [ [ [ -81.152622030555946, 26.640757056221371 ], [ -81.143158744087174, 26.552496512489157 ], [ -81.241277495318087, 26.543972793023485 ], [ -81.250812550457184, 26.632200618906467 ], [ -81.152622030555946, 26.640757056221371 ] ] ] } },
{ "type": "Feature", "properties": { "ID": 13251, "date": "2022-12-06T00:00:00", "smokePM_pred": 3.58591628074646 }, "geometry": { "type": "Polygon", "coordinates": [ [ [ -81.054387804625676, 26.649248147344842 ], [ -81.044996429893757, 26.560955130926942 ], [ -81.143158744087174, 26.552496512489157 ], [ -81.152622030555946, 26.640757056221371 ], [ -81.054387804625676, 26.649248147344842 ] ] ] } },
{ "type": "Feature", "properties": { "ID": 13252, "date": "2022-12-06T00:00:00", "smokePM_pred": 4.5263562202453604 }, "geometry": { "type": "Polygon", "coordinates": [ [ [ -80.956110194118679, 26.657673778193775 ], [ -80.946790873257214, 26.569348534795946 ], [ -81.044996429893757, 26.560955130926942 ], [ -81.054387804625676, 26.649248147344842 ], [ -80.956110194118679, 26.657673778193775 ] ] ] } },
{ "type": "Feature", "properties": { "ID": 13253, "date": "2022-12-06T00:00:00", "smokePM_pred": 6.0851526260376003 }, "geometry": { "type": "Polygon", "coordinates": [ [ [ -80.85778952138358, 26.666033835461391 ], [ -80.848542395587771, 26.57767661132813 ], [ -80.946790873257214, 26.569348534795946 ], [ -80.956110194118679, 26.657673778193775 ], [ -80.85778952138358, 26.666033835461391 ] ] ] } },
{ "type": "Feature", "properties": { "ID": 13254, "date": "2022-12-06T00:00:00", "smokePM_pred": 10.616551399231 }, "geometry": { "type": "Polygon", "coordinates": [ [ [ -80.759426109660012, 26.674328206621063 ], [ -80.750251319181103, 26.585939248532121 ], [ -80.848542395587771, 26.57767661132813 ], [ -80.85778952138358, 26.666033835461391 ], [ -80.759426109660012, 26.674328206621063 ] ] ] } },
{ "type": "Feature", "properties": { "ID": 13255, "date": "2022-12-06T00:00:00", "smokePM_pred": 5.11389207839966 }, "geometry": { "type": "Polygon", "coordinates": [ [ [ -80.661020283073256, 26.682556779930138 ], [ -80.651917967213009, 26.594136335197042 ], [ -80.750251319181103, 26.585939248532121 ], [ -80.759426109660012, 26.674328206621063 ], [ -80.661020283073256, 26.682556779930138 ] ] ] } },
{ "type": "Feature", "properties": { "ID": 13256, "date": "2022-12-06T00:00:00", "smokePM_pred": 6.0405120849609402 }, "geometry": { "type": "Polygon", "coordinates": [ [ [ -80.562572366628714, 26.690719444433785 ], [ -80.553542663733907, 26.60226776089635 ], [ -80.651917967213009, 26.594136335197042 ], [ -80.661020283073256, 26.682556779930138 ], [ -80.562572366628714, 26.690719444433785 ] ] ] } },
{ "type": "Feature", "properties": { "ID": 13257, "date": "2022-12-06T00:00:00", "smokePM_pred": 8.2823152542114293 }, "geometry": { "type": "Polygon", "coordinates": [ [ [ -80.464082686206496, 26.698816089968798 ], [ -80.455125733663451, 26.610333415991551 ], [ -80.553542663733907, 26.60226776089635 ], [ -80.562572366628714, 26.690719444433785 ], [ -80.464082686206496, 26.698816089968798 ] ] ] } },
{ "type": "Feature", "properties": { "ID": 13258, "date": "2022-12-06T00:00:00", "smokePM_pred": 2.70597267150879 }, "geometry": { "type": "Polygon", "coordinates": [ [ [ -80.365551568555787, 26.706846607167336 ], [ -80.356667502784958, 26.618333191635987 ], [ -80.455125733663451, 26.610333415991551 ], [ -80.464082686206496, 26.698816089968798 ], [ -80.365551568555787, 26.706846607167336 ] ] ] } },
{ "type": "Feature", "properties": { "ID": 13259, "date": "2022-12-06T00:00:00", "smokePM_pred": 2.5848546028137198 }, "geometry": { "type": "Polygon", "coordinates": [ [ [ -80.266979341289257, 26.714810887460704 ], [ -80.258168297739886, 26.626266979778542 ], [ -80.356667502784958, 26.618333191635987 ], [ -80.365551568555787, 26.706846607167336 ], [ -80.266979341289257, 26.714810887460704 ] ] ] } },
{ "type": "Feature", "properties": { "ID": 13763, "date": "2022-12-06T00:00:00", "smokePM_pred": 2.9590754508972199 }, "geometry": { "type": "Polygon", "coordinates": [ [ [ -81.358610069969828, 26.711769489181172 ], [ -81.348959043778876, 26.623578950255602 ], [ -81.447061190877406, 26.614892165892787 ], [ -81.45678401556188, 26.703049449870203 ], [ -81.358610069969828, 26.711769489181172 ] ] ] } },
{ "type": "Feature", "properties": { "ID": 13764, "date": "2022-12-06T00:00:00", "smokePM_pred": 3.3077564239502002 }, "geometry": { "type": "Polygon", "coordinates": [ [ [ -81.260391632327043, 26.720424168411963 ], [ -81.250812550457184, 26.632200618906467 ], [ -81.348959043778876, 26.623578950255602 ], [ -81.358610069969828, 26.711769489181172 ], [ -81.260391632327043, 26.720424168411963 ] ] ] } },
{ "type": "Feature", "properties": { "ID": 13765, "date": "2022-12-06T00:00:00", "smokePM_pred": 2.9376480579376198 }, "geometry": { "type": "Polygon", "coordinates": [ [ [ -81.162129023203988, 26.729013371387506 ], [ -81.152622030555946, 26.640757056221371 ], [ -81.250812550457184, 26.632200618906467 ], [ -81.260391632327043, 26.720424168411963 ], [ -81.162129023203988, 26.729013371387506 ] ] ] } },
{ "type": "Feature", "properties": { "ID": 13766, "date": "2022-12-06T00:00:00", "smokePM_pred": 3.4805219173431401 }, "geometry": { "type": "Polygon", "coordinates": [ [ [ -81.063822564083765, 26.737536982704704 ], [ -81.054387804625676, 26.649248147344842 ], [ -81.152622030555946, 26.640757056221371 ], [ -81.162129023203988, 26.729013371387506 ], [ -81.063822564083765, 26.737536982704704 ] ] ] } },
{ "type": "Feature", "properties": { "ID": 13767, "date": "2022-12-06T00:00:00", "smokePM_pred": 3.8775491714477499 }, "geometry": { "type": "Polygon", "coordinates": [ [ [ -80.965472577356778, 26.745994887736284 ], [ -80.956110194118679, 26.657673778193775 ], [ -81.054387804625676, 26.649248147344842 ], [ -81.063822564083765, 26.737536982704704 ], [ -80.965472577356778, 26.745994887736284 ] ] ] } },
{ "type": "Feature", "properties": { "ID": 13768, "date": "2022-12-06T00:00:00", "smokePM_pred": 2.9664332866668701 }, "geometry": { "type": "Polygon", "coordinates": [ [ [ -80.867079386315453, 26.754386972634705 ], [ -80.85778952138358, 26.666033835461391 ], [ -80.956110194118679, 26.657673778193775 ], [ -80.965472577356778, 26.745994887736284 ], [ -80.867079386315453, 26.754386972634705 ] ] ] } },
{ "type": "Feature", "properties": { "ID": 13769, "date": "2022-12-06T00:00:00", "smokePM_pred": 5.1416463851928702 }, "geometry": { "type": "Polygon", "coordinates": [ [ [ -80.768643315148807, 26.762713124336059 ], [ -80.759426109660012, 26.674328206621063 ], [ -80.85778952138358, 26.666033835461391 ], [ -80.867079386315453, 26.754386972634705 ], [ -80.768643315148807, 26.762713124336059 ] ] ] } },
{ "type": "Feature", "properties": { "ID": 13770, "date": "2022-12-06T00:00:00", "smokePM_pred": 4.0708389282226598 }, "geometry": { "type": "Polygon", "coordinates": [ [ [ -80.670164688937049, 26.770973230563964 ], [ -80.661020283073256, 26.682556779930138 ], [ -80.759426109660012, 26.674328206621063 ], [ -80.768643315148807, 26.762713124336059 ], [ -80.670164688937049, 26.770973230563964 ] ] ] } },
{ "type": "Feature", "properties": { "ID": 13771, "date": "2022-12-06T00:00:00", "smokePM_pred": 5.4406709671020499 }, "geometry": { "type": "Polygon", "coordinates": [ [ [ -80.571643833646078, 26.779167179833326 ], [ -80.562572366628714, 26.690719444433785 ], [ -80.661020283073256, 26.682556779930138 ], [ -80.670164688937049, 26.770973230563964 ], [ -80.571643833646078, 26.779167179833326 ] ] ] } },
{ "type": "Feature", "properties": { "ID": 13772, "date": "2022-12-06T00:00:00", "smokePM_pred": 6.7666873931884801 }, "geometry": { "type": "Polygon", "coordinates": [ [ [ -80.473081076121957, 26.787294861454249 ], [ -80.464082686206496, 26.698816089968798 ], [ -80.562572366628714, 26.690719444433785 ], [ -80.571643833646078, 26.779167179833326 ], [ -80.473081076121957, 26.787294861454249 ] ] ] } },
{ "type": "Feature", "properties": { "ID": 13773, "date": "2022-12-06T00:00:00", "smokePM_pred": 3.1454935073852499 }, "geometry": { "type": "Polygon", "coordinates": [ [ [ -80.374476744085356, 26.795356165535779 ], [ -80.365551568555787, 26.706846607167336 ], [ -80.464082686206496, 26.698816089968798 ], [ -80.473081076121957, 26.787294861454249 ], [ -80.374476744085356, 26.795356165535779 ] ] ] } },
{ "type": "Feature", "properties": { "ID": 13774, "date": "2022-12-06T00:00:00", "smokePM_pred": 2.5362861156463601 }, "geometry": { "type": "Polygon", "coordinates": [ [ [ -80.275831166125883, 26.803350982989688 ], [ -80.266979341289257, 26.714810887460704 ], [ -80.365551568555787, 26.706846607167336 ], [ -80.374476744085356, 26.795356165535779 ], [ -80.275831166125883, 26.803350982989688 ] ] ] } },
{ "type": "Feature", "properties": { "ID": 14279, "date": "2022-12-06T00:00:00", "smokePM_pred": 2.6906113624572798 }, "geometry": { "type": "Polygon", "coordinates": [ [ [ -81.270014885829255, 26.808643421979607 ], [ -81.260391632327043, 26.720424168411963 ], [ -81.358610069969828, 26.711769489181172 ], [ -81.36830558836445, 26.799955683799698 ], [ -81.270014885829255, 26.808643421979607 ] ] ] } },
{ "type": "Feature", "properties": { "ID": 14280, "date": "2022-12-06T00:00:00", "smokePM_pred": 3.1947615146636998 }, "geometry": { "type": "Polygon", "coordinates": [ [ [ -81.171679866000446, 26.817265438682266 ], [ -81.162129023203988, 26.729013371387506 ], [ -81.260391632327043, 26.720424168411963 ], [ -81.270014885829255, 26.808643421979607 ], [ -81.171679866000446, 26.817265438682266 ] ] ] } },
{ "type": "Feature", "properties": { "ID": 14281, "date": "2022-12-06T00:00:00", "smokePM_pred": 3.3207991123199498 }, "geometry": { "type": "Polygon", "coordinates": [ [ [ -81.073300851298939, 26.82582161795488 ], [ -81.063822564083765, 26.737536982704704 ], [ -81.162129023203988, 26.729013371387506 ], [ -81.171679866000446, 26.817265438682266 ], [ -81.073300851298939, 26.82582161795488 ] ] ] } },
{ "type": "Feature", "properties": { "ID": 14282, "date": "2022-12-06T00:00:00", "smokePM_pred": 3.2905406951904301 }, "geometry": { "type": "Polygon", "coordinates": [ [ [ -80.974878165058641, 26.834311844623951 ], [ -80.965472577356778, 26.745994887736284 ], [ -81.063822564083765, 26.737536982704704 ], [ -81.073300851298939, 26.82582161795488 ], [ -80.974878165058641, 26.834311844623951 ] ] ] } },
{ "type": "Feature", "properties": { "ID": 14283, "date": "2022-12-06T00:00:00", "smokePM_pred": 3.34383344650269 }, "geometry": { "type": "Polygon", "coordinates": [ [ [ -80.876412131521164, 26.842736004299191 ], [ -80.867079386315453, 26.754386972634705 ], [ -80.965472577356778, 26.745994887736284 ], [ -80.974878165058641, 26.834311844623951 ], [ -80.876412131521164, 26.842736004299191 ] ] ] } },
{ "type": "Feature", "properties": { "ID": 14286, "date": "2022-12-06T00:00:00", "smokePM_pred": 4.1780233383178702 }, "geometry": { "type": "Polygon", "coordinates": [ [ [ -80.580757203042353, 26.867610949289102 ], [ -80.571643833646078, 26.779167179833326 ], [ -80.670164688937049, 26.770973230563964 ], [ -80.679351324026754, 26.859385669046503 ], [ -80.580757203042353, 26.867610949289102 ] ] ] } },
{ "type": "Feature", "properties": { "ID": 14287, "date": "2022-12-06T00:00:00", "smokePM_pred": 9.3799972534179705 }, "geometry": { "type": "Polygon", "coordinates": [ [ [ -80.482121040694764, 26.875769712886665 ], [ -80.473081076121957, 26.787294861454249 ], [ -80.571643833646078, 26.779167179833326 ], [ -80.580757203042353, 26.867610949289102 ], [ -80.482121040694764, 26.875769712886665 ] ] ] } },
{ "type": "Feature", "properties": { "ID": 14794, "date": "2022-12-06T00:00:00", "smokePM_pred": 3.1769616603851301 }, "geometry": { "type": "Polygon", "coordinates": [ [ [ -81.279682456778147, 26.896858359978122 ], [ -81.270014885829255, 26.808643421979607 ], [ -81.36830558836445, 26.799955683799698 ], [ -81.378045745709187, 26.888137514222166 ], [ -81.279682456778147, 26.896858359978122 ] ] ] } },
{ "type": "Feature", "properties": { "ID": 14795, "date": "2022-12-06T00:00:00", "smokePM_pred": 3.57023048400879 }, "geometry": { "type": "Polygon", "coordinates": [ [ [ -81.181274703821785, 26.905513238730602 ], [ -81.171679866000446, 26.817265438682266 ], [ -81.270014885829255, 26.808643421979607 ], [ -81.279682456778147, 26.896858359978122 ], [ -81.181274703821785, 26.905513238730602 ] ] ] } },
{ "type": "Feature", "properties": { "ID": 14796, "date": "2022-12-06T00:00:00", "smokePM_pred": 3.2969713211059601 }, "geometry": { "type": "Polygon", "coordinates": [ [ [ -81.082822810204178, 26.914102033975102 ], [ -81.073300851298939, 26.82582161795488 ], [ -81.171679866000446, 26.817265438682266 ], [ -81.181274703821785, 26.905513238730602 ], [ -81.082822810204178, 26.914102033975102 ] ] ] } },
{ "type": "Feature", "properties": { "ID": 14797, "date": "2022-12-06T00:00:00", "smokePM_pred": 7.0147686004638699 }, "geometry": { "type": "Polygon", "coordinates": [ [ [ -80.984327100208077, 26.922624629989862 ], [ -80.974878165058641, 26.834311844623951 ], [ -81.073300851298939, 26.82582161795488 ], [ -81.082822810204178, 26.914102033975102 ], [ -80.984327100208077, 26.922624629989862 ] ] ] } },
{ "type": "Feature", "properties": { "ID": 15825, "date": "2022-12-06T00:00:00", "smokePM_pred": 2.6742384433746298 }, "geometry": { "type": "Polygon", "coordinates": [ [ [ -81.200596948615996, 27.081995959235599 ], [ -81.190913682457534, 26.993756752087137 ], [ -81.28939449190635, 26.985068962704684 ], [ -81.29915113887067, 27.073275210384367 ], [ -81.200596948615996, 27.081995959235599 ] ] ] } },
{ "type": "Feature", "properties": { "ID": 16340, "date": "2022-12-06T00:00:00", "smokePM_pred": 4.2758045196533203 }, "geometry": { "type": "Polygon", "coordinates": [ [ [ -81.210324649930044, 27.170230840588218 ], [ -81.200596948615996, 27.081995959235599 ], [ -81.29915113887067, 27.073275210384367 ], [ -81.308952546257856, 27.161477083169551 ], [ -81.210324649930044, 27.170230840588218 ] ] ] } },
{ "type": "Feature", "properties": { "ID": 16341, "date": "2022-12-06T00:00:00", "smokePM_pred": 4.6860165596008301 }, "geometry": { "type": "Polygon", "coordinates": [ [ [ -81.111652170039392, 27.17891777441298 ], [ -81.101998323360789, 27.090650131498407 ], [ -81.200596948615996, 27.081995959235599 ], [ -81.210324649930044, 27.170230840588218 ], [ -81.111652170039392, 27.17891777441298 ] ] ] } },
{ "type": "Feature", "properties": { "ID": 16342, "date": "2022-12-06T00:00:00", "smokePM_pred": 2.8281102180481001 }, "geometry": { "type": "Polygon", "coordinates": [ [ [ -81.012935433747785, 27.187537767264903 ], [ -81.003355589301805, 27.099237610348286 ], [ -81.101998323360789, 27.090650131498407 ], [ -81.111652170039392, 27.17891777441298 ], [ -81.012935433747785, 27.187537767264903 ] ] ] } },
{ "type": "Feature", "properties": { "ID": 16855, "date": "2022-12-06T00:00:00", "smokePM_pred": 2.4622032642364502 }, "geometry": { "type": "Polygon", "coordinates": [ [ [ -81.220096934962982, 27.258461376485101 ], [ -81.210324649930044, 27.170230840588218 ], [ -81.308952546257856, 27.161477083169551 ], [ -81.318798863590445, 27.249674561139294 ], [ -81.220096934962982, 27.258461376485101 ] ] ] } },
{ "type": "Feature", "properties": { "ID": 16856, "date": "2022-12-06T00:00:00", "smokePM_pred": 3.1084392070770299 }, "geometry": { "type": "Polygon", "coordinates": [ [ [ -81.121350273274089, 27.267181120919442 ], [ -81.111652170039392, 27.17891777441298 ], [ -81.210324649930044, 27.170230840588218 ], [ -81.220096934962982, 27.258461376485101 ], [ -81.121350273274089, 27.267181120919442 ] ] ] } },
{ "type": "Feature", "properties": { "ID": 16857, "date": "2022-12-06T00:00:00", "smokePM_pred": 2.6265494823455802 }, "geometry": { "type": "Polygon", "coordinates": [ [ [ -81.02255920665624, 27.275833676506782 ], [ -81.012935433747785, 27.187537767264903 ], [ -81.111652170039392, 27.17891777441298 ], [ -81.121350273274089, 27.267181120919442 ], [ -81.02255920665624, 27.275833676506782 ] ] ] } },
{ "type": "Feature", "properties": { "ID": 186486, "date": "2022-12-06T00:00:00", "smokePM_pred": 6.44474220275879 }, "geometry": { "type": "Polygon", "coordinates": [ [ [ -123.211045336312495, 42.516333323687633 ], [ -123.144331634250108, 42.46367762695148 ], [ -123.21541679613442, 42.414348975998529 ], [ -123.282075391254608, 42.46691425248121 ], [ -123.211045336312495, 42.516333323687633 ] ] ] } },
{ "type": "Feature", "properties": { "ID": 186487, "date": "2022-12-06T00:00:00", "smokePM_pred": 6.1430068016052202 }, "geometry": { "type": "Polygon", "coordinates": [ [ [ -123.139836302228247, 42.565753891086395 ], [ -123.073067766507876, 42.513007629838519 ], [ -123.144331634250108, 42.46367762695148 ], [ -123.211045336312495, 42.516333323687633 ], [ -123.139836302228247, 42.565753891086395 ] ] ] } },
{ "type": "Feature", "properties": { "ID": 186488, "date": "2022-12-06T00:00:00", "smokePM_pred": 6.1303291320800799 }, "geometry": { "type": "Polygon", "coordinates": [ [ [ -123.068447753678967, 42.61517564950087 ], [ -123.001624660625851, 42.56233867955855 ], [ -123.073067766507876, 42.513007629838519 ], [ -123.139836302228247, 42.565753891086395 ], [ -123.068447753678967, 42.61517564950087 ] ] ] } },
{ "type": "Feature", "properties": { "ID": 187001, "date": "2022-12-06T00:00:00", "smokePM_pred": 7.3570404052734402 }, "geometry": { "type": "Polygon", "coordinates": [ [ [ -123.277938017316671, 42.568903537235947 ], [ -123.211045336312495, 42.516333323687633 ], [ -123.282075391254608, 42.46691425248121 ], [ -123.348912431194393, 42.519394042135481 ], [ -123.277938017316671, 42.568903537235947 ] ] ] } },
{ "type": "Feature", "properties": { "ID": 187002, "date": "2022-12-06T00:00:00", "smokePM_pred": 7.2436165809631303 }, "geometry": { "type": "Polygon", "coordinates": [ [ [ -123.206784352214498, 42.618414673580673 ], [ -123.139836302228247, 42.565753891086395 ], [ -123.211045336312495, 42.516333323687633 ], [ -123.277938017316671, 42.568903537235947 ], [ -123.206784352214498, 42.618414673580673 ] ] ] } },
{ "type": "Feature", "properties": { "ID": 187003, "date": "2022-12-06T00:00:00", "smokePM_pred": 7.1787819862365696 }, "geometry": { "type": "Polygon", "coordinates": [ [ [ -123.135450897517117, 42.667927145922611 ], [ -123.068447753678967, 42.61517564950087 ], [ -123.139836302228247, 42.565753891086395 ], [ -123.206784352214498, 42.618414673580673 ], [ -123.135450897517117, 42.667927145922611 ] ] ] } },
{ "type": "Feature", "properties": { "ID": 187004, "date": "2022-12-06T00:00:00", "smokePM_pred": 7.5042972564697301 }, "geometry": { "type": "Polygon", "coordinates": [ [ [ -123.063937113636669, 42.717440647420013 ], [ -122.99687915414664, 42.664598292164051 ], [ -123.068447753678967, 42.61517564950087 ], [ -123.135450897517117, 42.667927145922611 ], [ -123.063937113636669, 42.717440647420013 ] ] ] } },
{ "type": "Feature", "properties": { "ID": 187517, "date": "2022-12-06T00:00:00", "smokePM_pred": 7.7546091079711896 }, "geometry": { "type": "Polygon", "coordinates": [ [ [ -123.273912191593141, 42.670989678562002 ], [ -123.206784352214555, 42.618414673580723 ], [ -123.277938017316757, 42.56890353723599 ], [ -123.345009949341474, 42.621387969551449 ], [ -123.273912191593141, 42.670989678562002 ] ] ] } },
{ "type": "Feature", "properties": { "ID": 187518, "date": "2022-12-06T00:00:00", "smokePM_pred": 8.0764808654785192 }, "geometry": { "type": "Polygon", "coordinates": [ [ [ -123.202634370336568, 42.720592869350526 ], [ -123.135450897517117, 42.667927145922611 ], [ -123.206784352214498, 42.618414673580673 ], [ -123.27391219159307, 42.670989678561945 ], [ -123.202634370336568, 42.720592869350526 ] ] ] } },
{ "type": "Feature", "properties": { "ID": 188035, "date": "2022-12-06T00:00:00", "smokePM_pred": 8.5198068618774396 }, "geometry": { "type": "Polygon", "coordinates": [ [ [ -123.127011966030935, 42.872564001132019 ], [ -123.059536365408206, 42.819802467012003 ], [ -123.131175942907376, 42.770197235005824 ], [ -123.198595922043623, 42.822867753917023 ], [ -123.127011966030935, 42.872564001132019 ] ] ] } },
{ "type": "Feature", "properties": { "ID": 188036, "date": "2022-12-06T00:00:00", "smokePM_pred": 9.3613147735595703 }, "geometry": { "type": "Polygon", "coordinates": [ [ [ -123.055246032833793, 42.922260950946907 ], [ -122.987715092716229, 42.869408255243989 ], [ -123.059536365408206, 42.819802467012003 ], [ -123.127011966030935, 42.872564001132019 ], [ -123.055246032833793, 42.922260950946907 ] ] ] } },
{ "type": "Feature", "properties": { "ID": 188550, "date": "2022-12-06T00:00:00", "smokePM_pred": 8.5634307861328107 }, "geometry": { "type": "Polygon", "coordinates": [ [ [ -123.194669543631178, 42.925239169443735 ], [ -123.127011966030878, 42.872564001131963 ], [ -123.19859592204358, 42.822867753916974 ], [ -123.266197329904728, 42.875451902332308 ], [ -123.194669543631178, 42.925239169443735 ] ] ] } },
{ "type": "Feature", "properties": { "ID": 188551, "date": "2022-12-06T00:00:00", "smokePM_pred": 9.09643650054932 }, "geometry": { "type": "Polygon", "coordinates": [ [ [ -123.122959499422961, 42.97502728634516 ], [ -123.055246032833793, 42.922260950946907 ], [ -123.127011966030935, 42.872564001132019 ], [ -123.194669543631235, 42.925239169443792 ], [ -123.122959499422961, 42.97502728634516 ] ] ] } },
{ "type": "Feature", "properties": { "ID": 188552, "date": "2022-12-06T00:00:00", "smokePM_pred": 9.8729772567749006 }, "geometry": { "type": "Polygon", "coordinates": [ [ [ -123.051066644628534, 43.024815941146421 ], [ -122.983297572959287, 42.971958291544134 ], [ -123.055246032833722, 42.922260950946857 ], [ -123.122959499422905, 42.975027286345103 ], [ -123.051066644628534, 43.024815941146421 ] ] ] } },
{ "type": "Feature", "properties": { "ID": 188553, "date": "2022-12-06T00:00:00", "smokePM_pred": 11.820594787597701 }, "geometry": { "type": "Polygon", "coordinates": [ [ [ -122.97899042533956, 43.074604820328879 ], [ -122.911166035680552, 43.021655709482069 ], [ -122.98329757295933, 42.971958291544183 ], [ -123.051066644628605, 43.024815941146478 ], [ -122.97899042533956, 43.074604820328879 ] ] ] } },
{ "type": "Feature", "properties": { "ID": 189048, "date": "2022-12-06T00:00:00", "smokePM_pred": 3.6191346645355198 }, "geometry": { "type": "Polygon", "coordinates": [ [ [ -124.453140880156568, 42.130280730302289 ], [ -124.386300819150691, 42.079219469868946 ], [ -124.454813526475306, 42.029492815344909 ], [ -124.521592577499248, 42.080465574134472 ], [ -124.453140880156568, 42.130280730302289 ] ] ] } },
{ "type": "Feature", "properties": { "ID": 189066, "date": "2022-12-06T00:00:00", "smokePM_pred": 8.5737247467040998 }, "geometry": { "type": "Polygon", "coordinates": [ [ [ -123.190855776388688, 43.027706957335894 ], [ -123.122959499422961, 42.97502728634516 ], [ -123.194669543631235, 42.925239169443792 ], [ -123.2625093789555, 42.977827668576914 ], [ -123.190855776388688, 43.027706957335894 ] ] ] } },
{ "type": "Feature", "properties": { "ID": 189067, "date": "2022-12-06T00:00:00", "smokePM_pred": 9.6025142669677699 }, "geometry": { "type": "Polygon", "coordinates": [ [ [ -123.119019080584181, 43.077586931934093 ], [ -123.051066644628534, 43.024815941146421 ], [ -123.122959499422905, 42.975027286345103 ], [ -123.190855776388574, 43.027706957335838 ], [ -123.119019080584181, 43.077586931934093 ] ] ] } },
{ "type": "Feature", "properties": { "ID": 189068, "date": "2022-12-06T00:00:00", "smokePM_pred": 12.7254190444946 }, "geometry": { "type": "Polygon", "coordinates": [ [ [ -123.046998734444799, 43.127467278781118 ], [ -122.978990425339475, 43.074604820328823 ], [ -123.051066644628534, 43.024815941146421 ], [ -123.119019080584181, 43.077586931934093 ], [ -123.046998734444799, 43.127467278781118 ] ] ] } },
{ "type": "Feature", "properties": { "ID": 189069, "date": "2022-12-06T00:00:00", "smokePM_pred": 16.003160476684599 }, "geometry": { "type": "Polygon", "coordinates": [ [ [ -122.97479417959967, 43.177347682647692 ], [ -122.906730286397078, 43.124393608739439 ], [ -122.978990425339475, 43.074604820328823 ], [ -123.046998734444799, 43.127467278781118 ], [ -122.97479417959967, 43.177347682647692 ] ] ] } },
{ "type": "Feature", "properties": { "ID": 189563, "date": "2022-12-06T00:00:00", "smokePM_pred": 3.7283587455749498 }, "geometry": { "type": "Polygon", "coordinates": [ [ [ -124.520154231422438, 42.181255069462885 ], [ -124.453140880156568, 42.130280730302289 ], [ -124.521592577499248, 42.080465574134472 ], [ -124.588544387034531, 42.131351421513834 ], [ -124.520154231422438, 42.181255069462885 ] ] ] } },
{ "type": "Feature", "properties": { "ID": 189564, "date": "2022-12-06T00:00:00", "smokePM_pred": 3.96993851661682 }, "geometry": { "type": "Polygon", "coordinates": [ [ [ -124.451590557591516, 42.231164922914644 ], [ -124.384515892323961, 42.180101942746091 ], [ -124.453140880156568, 42.130280730302289 ], [ -124.520154231422438, 42.181255069462885 ], [ -124.451590557591516, 42.231164922914644 ] ] ] } },
{ "type": "Feature", "properties": { "ID": 189582, "date": "2022-12-06T00:00:00", "smokePM_pred": 9.6513366699218803 }, "geometry": { "type": "Polygon", "coordinates": [ [ [ -123.187155166662606, 43.130270958236608 ], [ -123.119019080584252, 43.077586931934157 ], [ -123.190855776388688, 43.027706957335894 ], [ -123.258935146378548, 43.080299658987286 ], [ -123.187155166662606, 43.130270958236608 ] ] ] } },
{ "type": "Feature", "properties": { "ID": 189583, "date": "2022-12-06T00:00:00", "smokePM_pred": 13.8118906021118 }, "geometry": { "type": "Polygon", "coordinates": [ [ [ -123.115191252044824, 43.180242778429971 ], [ -123.046998734444799, 43.127467278781118 ], [ -123.119019080584181, 43.077586931934093 ], [ -123.187155166662563, 43.130270958236558 ], [ -123.115191252044824, 43.180242778429971 ] ] ] } },
{ "type": "Feature", "properties": { "ID": 189584, "date": "2022-12-06T00:00:00", "smokePM_pred": 17.428279876708999 }, "geometry": { "type": "Polygon", "coordinates": [ [ [ -123.043042840935172, 43.230214804267455 ], [ -122.974794179599755, 43.177347682647749 ], [ -123.04699873444487, 43.127467278781182 ], [ -123.11519125204488, 43.180242778430021 ], [ -123.043042840935172, 43.230214804267455 ] ] ] } },
{ "type": "Feature", "properties": { "ID": 190079, "date": "2022-12-06T00:00:00", "smokePM_pred": 4.02512407302856 }, "geometry": { "type": "Polygon", "coordinates": [ [ [ -124.518839276766073, 42.282140679628419 ], [ -124.451590557591516, 42.231164922914644 ], [ -124.520154231422438, 42.181255069462885 ], [ -124.587341100673569, 42.232142195051495 ], [ -124.518839276766073, 42.282140679628419 ] ] ] } },
{ "type": "Feature", "properties": { "ID": 190080, "date": "2022-12-06T00:00:00", "smokePM_pred": 10.135445594787599 }, "geometry": { "type": "Polygon", "coordinates": [ [ [ -124.450163169593509, 42.332145234684965 ], [ -124.382852829620774, 42.281080696878703 ], [ -124.451590557591516, 42.231164922914644 ], [ -124.518839276766073, 42.282140679628419 ], [ -124.450163169593509, 42.332145234684965 ] ] ] } },
{ "type": "Feature", "properties": { "ID": 190083, "date": "2022-12-06T00:00:00", "smokePM_pred": 28.623170852661101 }, "geometry": { "type": "Polygon", "coordinates": [ [ [ -124.243083740050409, 42.482192449663401 ], [ -124.175589940731186, 42.430860668702245 ], [ -124.244853060595347, 42.380928858641362 ], [ -124.312285943491759, 42.432171408567704 ], [ -124.243083740050409, 42.482192449663401 ] ] ] } },
{ "type": "Feature", "properties": { "ID": 190084, "date": "2022-12-06T00:00:00", "smokePM_pred": 32.374031066894503 }, "geometry": { "type": "Polygon", "coordinates": [ [ [ -124.173705084328418, 42.532218405766933 ], [ -124.106150609117122, 42.480797243789304 ], [ -124.175589940731186, 42.430860668702245 ], [ -124.243083740050409, 42.482192449663401 ], [ -124.173705084328418, 42.532218405766933 ] ] ] } },
{ "type": "Feature", "properties": { "ID": 190099, "date": "2022-12-06T00:00:00", "smokePM_pred": 16.3698425292969 }, "geometry": { "type": "Polygon", "coordinates": [ [ [ -123.111476561428674, 43.28299466560307 ], [ -123.043042840935101, 43.230214804267405 ], [ -123.115191252044824, 43.180242778429971 ], [ -123.183568265921863, 43.232931012024601 ], [ -123.111476561428674, 43.28299466560307 ] ] ] } },
{ "type": "Feature", "properties": { "ID": 190595, "date": "2022-12-06T00:00:00", "smokePM_pred": 11.3364601135254 }, "geometry": { "type": "Polygon", "coordinates": [ [ [ -124.517648332732406, 42.383122245368867 ], [ -124.450163169593509, 42.332145234684965 ], [ -124.518839276766073, 42.282140679628419 ], [ -124.586262278969315, 42.333028919124331 ], [ -124.517648332732406, 42.383122245368867 ] ] ] } },
{ "type": "Feature", "properties": { "ID": 190596, "date": "2022-12-06T00:00:00", "smokePM_pred": 11.176929473876999 }, "geometry": { "type": "Polygon", "coordinates": [ [ [ -124.448859332563842, 42.433221506279089 ], [ -124.381312239019081, 42.382155573692884 ], [ -124.450163169593509, 42.332145234684965 ], [ -124.517648332732406, 42.383122245368867 ], [ -124.448859332563842, 42.433221506279089 ] ] ] } },
{ "type": "Feature", "properties": { "ID": 190597, "date": "2022-12-06T00:00:00", "smokePM_pred": 13.358049392700201 }, "geometry": { "type": "Polygon", "coordinates": [ [ [ -124.379894734067832, 42.483326413781207 ], [ -124.312285943491759, 42.432171408567704 ], [ -124.381312239019081, 42.382155573692884 ], [ -124.448859332563842, 42.433221506279089 ], [ -124.379894734067832, 42.483326413781207 ] ] ] } },
{ "type": "Feature", "properties": { "ID": 190598, "date": "2022-12-06T00:00:00", "smokePM_pred": 25.185243606567401 }, "geometry": { "type": "Polygon", "coordinates": [ [ [ -124.310753991416732, 42.533436678236114 ], [ -124.243083740050409, 42.482192449663401 ], [ -124.312285943491759, 42.432171408567704 ], [ -124.379894734067832, 42.483326413781207 ], [ -124.310753991416732, 42.533436678236114 ] ] ] } },
{ "type": "Feature", "properties": { "ID": 190599, "date": "2022-12-06T00:00:00", "smokePM_pred": 29.602312088012699 }, "geometry": { "type": "Polygon", "coordinates": [ [ [ -124.241436557355371, 42.583552008433884 ], [ -124.173705084328418, 42.532218405766933 ], [ -124.243083740050409, 42.482192449663401 ], [ -124.310753991416732, 42.533436678236114 ], [ -124.241436557355371, 42.583552008433884 ] ] ] } },
{ "type": "Feature", "properties": { "ID": 191110, "date": "2022-12-06T00:00:00", "smokePM_pred": 11.643155097961399 }, "geometry": { "type": "Polygon", "coordinates": [ [ [ -124.585308549563678, 42.434011433692156 ], [ -124.517648332732406, 42.383122245368867 ], [ -124.586262278969315, 42.333028919124331 ], [ -124.653859791904509, 42.383829346924905 ], [ -124.585308549563678, 42.434011433692156 ] ] ] } },
{ "type": "Feature", "properties": { "ID": 191111, "date": "2022-12-06T00:00:00", "smokePM_pred": 12.061058044433601 }, "geometry": { "type": "Polygon", "coordinates": [ [ [ -124.516582024197461, 42.484199606577072 ], [ -124.448859332563927, 42.433221506279146 ], [ -124.517648332732477, 42.383122245368916 ], [ -124.585308549563749, 42.434011433692199 ], [ -124.516582024197461, 42.484199606577072 ] ] ] } },
{ "type": "Feature", "properties": { "ID": 191112, "date": "2022-12-06T00:00:00", "smokePM_pred": 8.2211341857910192 }, "geometry": { "type": "Polygon", "coordinates": [ [ [ -124.447679668561051, 42.534393577521605 ], [ -124.379894734067832, 42.483326413781207 ], [ -124.448859332563842, 42.433221506279089 ], [ -124.51658202419739, 42.484199606577022 ], [ -124.447679668561051, 42.534393577521605 ] ] ] } },
{ "type": "Feature", "properties": { "ID": 191113, "date": "2022-12-06T00:00:00", "smokePM_pred": 14.0880031585693 }, "geometry": { "type": "Polygon", "coordinates": [ [ [ -124.37860093395625, 42.584593056898974 ], [ -124.310753991416803, 42.533436678236164 ], [ -124.379894734067889, 42.483326413781249 ], [ -124.447679668561122, 42.534393577521655 ], [ -124.37860093395625, 42.584593056898974 ] ] ] } },
{ "type": "Feature", "properties": { "ID": 191626, "date": "2022-12-06T00:00:00", "smokePM_pred": 10.642311096191399 }, "geometry": { "type": "Polygon", "coordinates": [ [ [ -124.584480545858696, 42.535089577861797 ], [ -124.51658202419739, 42.484199606577022 ], [ -124.585308549563678, 42.434011433692156 ], [ -124.653144049177399, 42.484812503697199 ], [ -124.584480545858696, 42.535089577861797 ] ] ] } },
{ "type": "Feature", "properties": { "ID": 191627, "date": "2022-12-06T00:00:00", "smokePM_pred": 11.046455383300801 }, "geometry": { "type": "Polygon", "coordinates": [ [ [ -124.515640981781232, 42.585372602296616 ], [ -124.447679668561122, 42.534393577521655 ], [ -124.516582024197461, 42.484199606577072 ], [ -124.584480545858739, 42.535089577861847 ], [ -124.515640981781232, 42.585372602296616 ] ] ] } },
{ "type": "Feature", "properties": { "ID": 191628, "date": "2022-12-06T00:00:00", "smokePM_pred": 11.007241249084499 }, "geometry": { "type": "Polygon", "coordinates": [ [ [ -124.446624805371513, 42.635661287391933 ], [ -124.37860093395625, 42.584593056898974 ], [ -124.447679668561122, 42.534393577521655 ], [ -124.515640981781232, 42.585372602296616 ], [ -124.446624805371513, 42.635661287391933 ] ] ] } },
{ "type": "Feature", "properties": { "ID": 191629, "date": "2022-12-06T00:00:00", "smokePM_pred": 14.3876962661743 }, "geometry": { "type": "Polygon", "coordinates": [ [ [ -124.377431463583974, 42.685955341959911 ], [ -124.309345270234587, 42.634797753507442 ], [ -124.378600933956207, 42.584593056898932 ], [ -124.446624805371428, 42.635661287391883 ], [ -124.377431463583974, 42.685955341959911 ] ] ] } },
{ "type": "Feature", "properties": { "ID": 192142, "date": "2022-12-06T00:00:00", "smokePM_pred": 12.2036046981812 }, "geometry": { "type": "Polygon", "coordinates": [ [ [ -124.583778907088174, 42.636263189883095 ], [ -124.515640981781175, 42.585372602296559 ], [ -124.584480545858696, 42.535089577861797 ], [ -124.652555128032702, 42.585891122684345 ], [ -124.583778907088174, 42.636263189883095 ] ] ] } },
{ "type": "Feature", "properties": { "ID": 192143, "date": "2022-12-06T00:00:00", "smokePM_pred": 13.8603420257568 }, "geometry": { "type": "Polygon", "coordinates": [ [ [ -124.514825841919759, 42.686641070717997 ], [ -124.446624805371428, 42.635661287391883 ], [ -124.515640981781175, 42.585372602296559 ], [ -124.583778907088174, 42.636263189883095 ], [ -124.514825841919759, 42.686641070717997 ] ] ] } },
{ "type": "Feature", "properties": { "ID": 192144, "date": "2022-12-06T00:00:00", "smokePM_pred": 14.04674243927 }, "geometry": { "type": "Polygon", "coordinates": [ [ [ -124.445695376580517, 42.737024474020075 ], [ -124.377431463583974, 42.685955341959911 ], [ -124.446624805371428, 42.635661287391883 ], [ -124.514825841919759, 42.686641070717997 ], [ -124.445695376580517, 42.737024474020075 ] ] ] } },
{ "type": "Feature", "properties": { "ID": 192145, "date": "2022-12-06T00:00:00", "smokePM_pred": 14.5275936126709 }, "geometry": { "type": "Polygon", "coordinates": [ [ [ -124.37638695363313, 42.787413107032748 ], [ -124.308060401905465, 42.736254473228854 ], [ -124.377431463583974, 42.685955341959911 ], [ -124.445695376580517, 42.737024474020075 ], [ -124.37638695363313, 42.787413107032748 ] ] ] } },
{ "type": "Feature", "properties": { "ID": 192659, "date": "2022-12-06T00:00:00", "smokePM_pred": 12.0390119552612 }, "geometry": { "type": "Polygon", "coordinates": [ [ [ -124.514137246937509, 42.788004849174598 ], [ -124.445695376580517, 42.737024474020075 ], [ -124.514825841919759, 42.686641070717997 ], [ -124.583204278390468, 42.737532107144631 ], [ -124.514137246937509, 42.788004849174598 ] ] ] } },
{ "type": "Feature", "properties": { "ID": 192660, "date": "2022-12-06T00:00:00", "smokePM_pred": 6.53222608566284 }, "geometry": { "type": "Polygon", "coordinates": [ [ [ -124.444892021645629, 42.838482974683068 ], [ -124.376386953633201, 42.787413107032805 ], [ -124.445695376580588, 42.737024474020117 ], [ -124.514137246937594, 42.788004849174662 ], [ -124.444892021645629, 42.838482974683068 ] ] ] } }
]
}
