{
"type": "FeatureCollection",
"name": "geo_2022-12-03",
"crs": { "type": "name", "properties": { "name": "urn:ogc:def:crs:OGC:1.3:CRS84" } },
"features": [
{ "type": "Feature", "properties": { "ID": 13252, "date": "2022-12-03T00:00:00", "smokePM_pred": 9.0729179382324201 }, "geometry": { "type": "Polygon", "coordinates": [ [ [ -80.956110194118679, 26.657673778193775 ], [ -80.946790873257214, 26.569348534795946 ], [ -81.044996429893757, 26.560955130926942 ], [ -81.054387804625676, 26.649248147344842 ], [ -80.956110194118679, 26.657673778193775 ] ] ] } },
{ "type": "Feature", "properties": { "ID": 13253, "date": "2022-12-03T00:00:00", "smokePM_pred": 8.4424619674682599 }, "geometry": { "type": "Polygon", "coordinates": [ [ [ -80.85778952138358, 26.666033835461391 ], [ -80.848542395587771, 26.57767661132813 ], [ -80.946790873257214, 26.569348534795946 ], [ -80.956110194118679, 26.657673778193775 ], [ -80.85778952138358, 26.666033835461391 ] ] ] } },
{ "type": "Feature", "properties": { "ID": 13254, "date": "2022-12-03T00:00:00", "smokePM_pred": 10.021333694458001 }, "geometry": { "type": "Polygon", "coordinates": [ [ [ -80.759426109660012, 26.674328206621063 ], [ -80.750251319181103, 26.585939248532121 ], [ -80.848542395587771, 26.57767661132813 ], [ -80.85778952138358, 26.666033835461391 ], [ -80.759426109660012, 26.674328206621063 ] ] ] } },
{ "type": "Feature", "properties": { "ID": 13255, "date": "2022-12-03T00:00:00", "smokePM_pred": 5.5902557373046902 }, "geometry": { "type": "Polygon", "coordinates": [ [ [ -80.661020283073256, 26.682556779930138 ], [ -80.651917967213009, 26.594136335197042 ], [ -80.750251319181103, 26.585939248532121 ], [ -80.759426109660012, 26.674328206621063 ], [ -80.661020283073256, 26.682556779930138 ] ] ] } },
{ "type": "Feature", "properties": { "ID": 13256, "date": "2022-12-03T00:00:00", "smokePM_pred": 6.9982829093933097 }, "geometry": { "type": "Polygon", "coordinates": [ [ [ -80.562572366628714, 26.690719444433785 ], [ -80.553542663733907, 26.60226776089635 ], [ -80.651917967213009, 26.594136335197042 ], [ -80.661020283073256, 26.682556779930138 ], [ -80.562572366628714, 26.690719444433785 ] ] ] } },
{ "type": "Feature", "properties": { "ID": 13257, "date": "2022-12-03T00:00:00", "smokePM_pred": 9.8638849258422905 }, "geometry": { "type": "Polygon", "coordinates": [ [ [ -80.464082686206496, 26.698816089968798 ], [ -80.455125733663451, 26.610333415991551 ], [ -80.553542663733907, 26.60226776089635 ], [ -80.562572366628714, 26.690719444433785 ], [ -80.464082686206496, 26.698816089968798 ] ] ] } },
{ "type": "Feature", "properties": { "ID": 13766, "date": "2022-12-03T00:00:00", "smokePM_pred": 2.8573420047760001 }, "geometry": { "type": "Polygon", "coordinates": [ [ [ -81.063822564083765, 26.737536982704704 ], [ -81.054387804625676, 26.649248147344842 ], [ -81.152622030555946, 26.640757056221371 ], [ -81.162129023203988, 26.729013371387506 ], [ -81.063822564083765, 26.737536982704704 ] ] ] } },
{ "type": "Feature", "properties": { "ID": 13767, "date": "2022-12-03T00:00:00", "smokePM_pred": 4.8810949325561497 }, "geometry": { "type": "Polygon", "coordinates": [ [ [ -80.965472577356778, 26.745994887736284 ], [ -80.956110194118679, 26.657673778193775 ], [ -81.054387804625676, 26.649248147344842 ], [ -81.063822564083765, 26.737536982704704 ], [ -80.965472577356778, 26.745994887736284 ] ] ] } },
{ "type": "Feature", "properties": { "ID": 13768, "date": "2022-12-03T00:00:00", "smokePM_pred": 4.72434425354004 }, "geometry": { "type": "Polygon", "coordinates": [ [ [ -80.867079386315453, 26.754386972634705 ], [ -80.85778952138358, 26.666033835461391 ], [ -80.956110194118679, 26.657673778193775 ], [ -80.965472577356778, 26.745994887736284 ], [ -80.867079386315453, 26.754386972634705 ] ] ] } },
{ "type": "Feature", "properties": { "ID": 13769, "date": "2022-12-03T00:00:00", "smokePM_pred": 5.9328799247741699 }, "geometry": { "type": "Polygon", "coordinates": [ [ [ -80.768643315148807, 26.762713124336059 ], [ -80.759426109660012, 26.674328206621063 ], [ -80.85778952138358, 26.666033835461391 ], [ -80.867079386315453, 26.754386972634705 ], [ -80.768643315148807, 26.762713124336059 ] ] ] } },
{ "type": "Feature", "properties": { "ID": 13770, "date": "2022-12-03T00:00:00", "smokePM_pred": 4.3330874443054199 }, "geometry": { "type": "Polygon", "coordinates": [ [ [ -80.670164688937049, 26.770973230563964 ], [ -80.661020283073256, 26.682556779930138 ], [ -80.759426109660012, 26.674328206621063 ], [ -80.768643315148807, 26.762713124336059 ], [ -80.670164688937049, 26.770973230563964 ] ] ] } },
{ "type": "Feature", "properties": { "ID": 13771, "date": "2022-12-03T00:00:00", "smokePM_pred": 6.7605457305908203 }, "geometry": { "type": "Polygon", "coordinates": [ [ [ -80.571643833646078, 26.779167179833326 ], [ -80.562572366628714, 26.690719444433785 ], [ -80.661020283073256, 26.682556779930138 ], [ -80.670164688937049, 26.770973230563964 ], [ -80.571643833646078, 26.779167179833326 ] ] ] } },
{ "type": "Feature", "properties": { "ID": 13772, "date": "2022-12-03T00:00:00", "smokePM_pred": 8.7397356033325195 }, "geometry": { "type": "Polygon", "coordinates": [ [ [ -80.473081076121957, 26.787294861454249 ], [ -80.464082686206496, 26.698816089968798 ], [ -80.562572366628714, 26.690719444433785 ], [ -80.571643833646078, 26.779167179833326 ], [ -80.473081076121957, 26.787294861454249 ] ] ] } },
{ "type": "Feature", "properties": { "ID": 14280, "date": "2022-12-03T00:00:00", "smokePM_pred": 2.81149077415466 }, "geometry": { "type": "Polygon", "coordinates": [ [ [ -81.171679866000446, 26.817265438682266 ], [ -81.162129023203988, 26.729013371387506 ], [ -81.260391632327043, 26.720424168411963 ], [ -81.270014885829255, 26.808643421979607 ], [ -81.171679866000446, 26.817265438682266 ] ] ] } },
{ "type": "Feature", "properties": { "ID": 14281, "date": "2022-12-03T00:00:00", "smokePM_pred": 2.6766231060028098 }, "geometry": { "type": "Polygon", "coordinates": [ [ [ -81.073300851298939, 26.82582161795488 ], [ -81.063822564083765, 26.737536982704704 ], [ -81.162129023203988, 26.729013371387506 ], [ -81.171679866000446, 26.817265438682266 ], [ -81.073300851298939, 26.82582161795488 ] ] ] } },
{ "type": "Feature", "properties": { "ID": 14282, "date": "2022-12-03T00:00:00", "smokePM_pred": 3.28539943695068 }, "geometry": { "type": "Polygon", "coordinates": [ [ [ -80.974878165058641, 26.834311844623951 ], [ -80.965472577356778, 26.745994887736284 ], [ -81.063822564083765, 26.737536982704704 ], [ -81.073300851298939, 26.82582161795488 ], [ -80.974878165058641, 26.834311844623951 ] ] ] } },
{ "type": "Feature", "properties": { "ID": 14283, "date": "2022-12-03T00:00:00", "smokePM_pred": 3.8261566162109402 }, "geometry": { "type": "Polygon", "coordinates": [ [ [ -80.876412131521164, 26.842736004299191 ], [ -80.867079386315453, 26.754386972634705 ], [ -80.965472577356778, 26.745994887736284 ], [ -80.974878165058641, 26.834311844623951 ], [ -80.876412131521164, 26.842736004299191 ] ] ] } },
{ "type": "Feature", "properties": { "ID": 14284, "date": "2022-12-03T00:00:00", "smokePM_pred": 7.3591804504394496 }, "geometry": { "type": "Polygon", "coordinates": [ [ [ -80.777903075830324, 26.851093983377435 ], [ -80.768643315148807, 26.762713124336059 ], [ -80.867079386315453, 26.754386972634705 ], [ -80.876412131521164, 26.842736004299191 ], [ -80.777903075830324, 26.851093983377435 ] ] ] } },
{ "type": "Feature", "properties": { "ID": 14285, "date": "2022-12-03T00:00:00", "smokePM_pred": 7.1670393943786603 }, "geometry": { "type": "Polygon", "coordinates": [ [ [ -80.679351324026754, 26.859385669046503 ], [ -80.670164688937049, 26.770973230563964 ], [ -80.768643315148807, 26.762713124336059 ], [ -80.777903075830324, 26.851093983377435 ], [ -80.679351324026754, 26.859385669046503 ] ] ] } },
{ "type": "Feature", "properties": { "ID": 14286, "date": "2022-12-03T00:00:00", "smokePM_pred": 5.26104640960693 }, "geometry": { "type": "Polygon", "coordinates": [ [ [ -80.580757203042353, 26.867610949289102 ], [ -80.571643833646078, 26.779167179833326 ], [ -80.670164688937049, 26.770973230563964 ], [ -80.679351324026754, 26.859385669046503 ], [ -80.580757203042353, 26.867610949289102 ] ] ] } },
{ "type": "Feature", "properties": { "ID": 14287, "date": "2022-12-03T00:00:00", "smokePM_pred": 8.9400100708007795 }, "geometry": { "type": "Polygon", "coordinates": [ [ [ -80.482121040694764, 26.875769712886665 ], [ -80.473081076121957, 26.787294861454249 ], [ -80.571643833646078, 26.779167179833326 ], [ -80.580757203042353, 26.867610949289102 ], [ -80.482121040694764, 26.875769712886665 ] ] ] } },
{ "type": "Feature", "properties": { "ID": 14794, "date": "2022-12-03T00:00:00", "smokePM_pred": 2.90014600753784 }, "geometry": { "type": "Polygon", "coordinates": [ [ [ -81.279682456778147, 26.896858359978122 ], [ -81.270014885829255, 26.808643421979607 ], [ -81.36830558836445, 26.799955683799698 ], [ -81.378045745709187, 26.888137514222166 ], [ -81.279682456778147, 26.896858359978122 ] ] ] } },
{ "type": "Feature", "properties": { "ID": 14795, "date": "2022-12-03T00:00:00", "smokePM_pred": 3.2732837200164799 }, "geometry": { "type": "Polygon", "coordinates": [ [ [ -81.181274703821785, 26.905513238730602 ], [ -81.171679866000446, 26.817265438682266 ], [ -81.270014885829255, 26.808643421979607 ], [ -81.279682456778147, 26.896858359978122 ], [ -81.181274703821785, 26.905513238730602 ] ] ] } },
{ "type": "Feature", "properties": { "ID": 14796, "date": "2022-12-03T00:00:00", "smokePM_pred": 2.9412574768066402 }, "geometry": { "type": "Polygon", "coordinates": [ [ [ -81.082822810204178, 26.914102033975102 ], [ -81.073300851298939, 26.82582161795488 ], [ -81.171679866000446, 26.817265438682266 ], [ -81.181274703821785, 26.905513238730602 ], [ -81.082822810204178, 26.914102033975102 ] ] ] } },
{ "type": "Feature", "properties": { "ID": 14797, "date": "2022-12-03T00:00:00", "smokePM_pred": 8.1215009689331001 }, "geometry": { "type": "Polygon", "coordinates": [ [ [ -80.984327100208077, 26.922624629989862 ], [ -80.974878165058641, 26.834311844623951 ], [ -81.073300851298939, 26.82582161795488 ], [ -81.082822810204178, 26.914102033975102 ], [ -80.984327100208077, 26.922624629989862 ] ] ] } },
{ "type": "Feature", "properties": { "ID": 14798, "date": "2022-12-03T00:00:00", "smokePM_pred": 6.6665525436401403 }, "geometry": { "type": "Polygon", "coordinates": [ [ [ -80.88578789902968, 26.931080911839789 ], [ -80.876412131521164, 26.842736004299191 ], [ -80.974878165058641, 26.834311844623951 ], [ -80.984327100208077, 26.922624629989862 ], [ -80.88578789902968, 26.931080911839789 ] ] ] } },
{ "type": "Feature", "properties": { "ID": 14799, "date": "2022-12-03T00:00:00", "smokePM_pred": 5.3486361503601101 }, "geometry": { "type": "Polygon", "coordinates": [ [ [ -80.787205532773115, 26.939470765380428 ], [ -80.777903075830324, 26.851093983377435 ], [ -80.876412131521164, 26.842736004299191 ], [ -80.88578789902968, 26.931080911839789 ], [ -80.787205532773115, 26.939470765380428 ] ] ] } },
{ "type": "Feature", "properties": { "ID": 14800, "date": "2022-12-03T00:00:00", "smokePM_pred": 7.4245719909668004 }, "geometry": { "type": "Polygon", "coordinates": [ [ [ -80.6885803284449, 26.94779407726184 ], [ -80.679351324026754, 26.859385669046503 ], [ -80.777903075830324, 26.851093983377435 ], [ -80.787205532773115, 26.939470765380428 ], [ -80.6885803284449, 26.94779407726184 ] ] ] } },
{ "type": "Feature", "properties": { "ID": 14801, "date": "2022-12-03T00:00:00", "smokePM_pred": 5.76147556304932 }, "geometry": { "type": "Polygon", "coordinates": [ [ [ -80.589912613948528, 26.956050734932504 ], [ -80.580757203042353, 26.867610949289102 ], [ -80.679351324026754, 26.859385669046503 ], [ -80.6885803284449, 26.94779407726184 ], [ -80.589912613948528, 26.956050734932504 ] ] ] } },
{ "type": "Feature", "properties": { "ID": 14802, "date": "2022-12-03T00:00:00", "smokePM_pred": 8.7070541381835902 }, "geometry": { "type": "Polygon", "coordinates": [ [ [ -80.491202718078767, 26.964240626643164 ], [ -80.482121040694764, 26.875769712886665 ], [ -80.580757203042353, 26.867610949289102 ], [ -80.589912613948528, 26.956050734932504 ], [ -80.491202718078767, 26.964240626643164 ] ] ] } },
{ "type": "Feature", "properties": { "ID": 15309, "date": "2022-12-03T00:00:00", "smokePM_pred": 2.8314526081085201 }, "geometry": { "type": "Polygon", "coordinates": [ [ [ -81.28939449190635, 26.985068962704684 ], [ -81.279682456778147, 26.896858359978122 ], [ -81.378045745709187, 26.888137514222166 ], [ -81.387830689674047, 26.976314960486878 ], [ -81.28939449190635, 26.985068962704684 ] ] ] } },
{ "type": "Feature", "properties": { "ID": 15310, "date": "2022-12-03T00:00:00", "smokePM_pred": 3.1324217319488499 }, "geometry": { "type": "Polygon", "coordinates": [ [ [ -81.190913682457534, 26.993756752087137 ], [ -81.181274703821785, 26.905513238730602 ], [ -81.279682456778147, 26.896858359978122 ], [ -81.28939449190635, 26.985068962704684 ], [ -81.190913682457534, 26.993756752087137 ] ] ] } },
{ "type": "Feature", "properties": { "ID": 15311, "date": "2022-12-03T00:00:00", "smokePM_pred": 2.5891258716583301 }, "geometry": { "type": "Polygon", "coordinates": [ [ [ -81.092388585640109, 27.002378211575977 ], [ -81.082822810204178, 26.914102033975102 ], [ -81.181274703821785, 26.905513238730602 ], [ -81.190913682457534, 26.993756752087137 ], [ -81.092388585640109, 27.002378211575977 ] ] ] } },
{ "type": "Feature", "properties": { "ID": 15312, "date": "2022-12-03T00:00:00", "smokePM_pred": 3.3992998600006099 }, "geometry": { "type": "Polygon", "coordinates": [ [ [ -80.993819526691126, 27.010933224899105 ], [ -80.984327100208077, 26.922624629989862 ], [ -81.082822810204178, 26.914102033975102 ], [ -81.092388585640109, 27.002378211575977 ], [ -80.993819526691126, 27.010933224899105 ] ] ] } },
{ "type": "Feature", "properties": { "ID": 15313, "date": "2022-12-03T00:00:00", "smokePM_pred": 5.2598333358764604 }, "geometry": { "type": "Polygon", "coordinates": [ [ [ -80.895206831766814, 27.019421676574609 ], [ -80.88578789902968, 26.931080911839789 ], [ -80.984327100208077, 26.922624629989862 ], [ -80.993819526691126, 27.010933224899105 ], [ -80.895206831766814, 27.019421676574609 ] ] ] } },
{ "type": "Feature", "properties": { "ID": 15314, "date": "2022-12-03T00:00:00", "smokePM_pred": 5.1835594177246103 }, "geometry": { "type": "Polygon", "coordinates": [ [ [ -80.796550827937011, 27.027843451914688 ], [ -80.787205532773115, 26.939470765380428 ], [ -80.88578789902968, 26.931080911839789 ], [ -80.895206831766814, 27.019421676574609 ], [ -80.796550827937011, 27.027843451914688 ] ] ] } },
{ "type": "Feature", "properties": { "ID": 15315, "date": "2022-12-03T00:00:00", "smokePM_pred": 5.9941434860229501 }, "geometry": { "type": "Polygon", "coordinates": [ [ [ -80.697851843179777, 27.036198437029611 ], [ -80.6885803284449, 26.94779407726184 ], [ -80.787205532773115, 26.939470765380428 ], [ -80.796550827937011, 27.027843451914688 ], [ -80.697851843179777, 27.036198437029611 ] ] ] } },
{ "type": "Feature", "properties": { "ID": 15316, "date": "2022-12-03T00:00:00", "smokePM_pred": 5.2913656234741202 }, "geometry": { "type": "Polygon", "coordinates": [ [ [ -80.599110206375698, 27.044486518831611 ], [ -80.589912613948528, 26.956050734932504 ], [ -80.6885803284449, 26.94779407726184 ], [ -80.697851843179777, 27.036198437029611 ], [ -80.599110206375698, 27.044486518831611 ] ] ] } },
{ "type": "Feature", "properties": { "ID": 15824, "date": "2022-12-03T00:00:00", "smokePM_pred": 2.6127023696899401 }, "geometry": { "type": "Polygon", "coordinates": [ [ [ -81.29915113887067, 27.073275210384367 ], [ -81.28939449190635, 26.985068962704684 ], [ -81.387830689674047, 26.976314960486878 ], [ -81.39766056885847, 27.064488002558825 ], [ -81.29915113887067, 27.073275210384367 ] ] ] } },
{ "type": "Feature", "properties": { "ID": 15825, "date": "2022-12-03T00:00:00", "smokePM_pred": 2.75596976280212 }, "geometry": { "type": "Polygon", "coordinates": [ [ [ -81.200596948615996, 27.081995959235599 ], [ -81.190913682457534, 26.993756752087137 ], [ -81.28939449190635, 26.985068962704684 ], [ -81.29915113887067, 27.073275210384367 ], [ -81.200596948615996, 27.081995959235599 ] ] ] } },
{ "type": "Feature", "properties": { "ID": 15826, "date": "2022-12-03T00:00:00", "smokePM_pred": 3.1709837913513201 }, "geometry": { "type": "Polygon", "coordinates": [ [ [ -81.101998323360789, 27.090650131498407 ], [ -81.092388585640109, 27.002378211575977 ], [ -81.190913682457534, 26.993756752087137 ], [ -81.200596948615996, 27.081995959235599 ], [ -81.101998323360789, 27.090650131498407 ] ] ] } },
{ "type": "Feature", "properties": { "ID": 29207, "date": "2022-12-03T00:00:00", "smokePM_pred": 3.6898069381713898 }, "geometry": { "type": "Polygon", "coordinates": [ [ [ -82.271652650133177, 29.295836798681073 ], [ -82.260110908171868, 29.20799833880816 ], [ -82.360207812687335, 29.197858991109197 ], [ -82.371830288611733, 29.285661107131499 ], [ -82.271652650133177, 29.295836798681073 ] ] ] } },
{ "type": "Feature", "properties": { "ID": 29208, "date": "2022-12-03T00:00:00", "smokePM_pred": 3.8170409202575701 }, "geometry": { "type": "Polygon", "coordinates": [ [ [ -82.171423608505989, 29.305940473252566 ], [ -82.159962783000964, 29.218065919767419 ], [ -82.260110908171868, 29.20799833880816 ], [ -82.271652650133177, 29.295836798681073 ], [ -82.171423608505989, 29.305940473252566 ] ] ] } },
{ "type": "Feature", "properties": { "ID": 73904, "date": "2022-12-03T00:00:00", "smokePM_pred": 1.0386645793914799 }, "geometry": { "type": "Polygon", "coordinates": [ [ [ -94.725593016223243, 34.944592366217016 ], [ -94.698410858267579, 34.863371847493177 ], [ -94.796908256894184, 34.840978279178024 ], [ -94.824164824972613, 34.922131468849265 ], [ -94.725593016223243, 34.944592366217016 ] ] ] } },
{ "type": "Feature", "properties": { "ID": 74419, "date": "2022-12-03T00:00:00", "smokePM_pred": 1.00124931335449 }, "geometry": { "type": "Polygon", "coordinates": [ [ [ -94.752884129781492, 35.025793249707171 ], [ -94.725593016223243, 34.944592366217016 ], [ -94.824164824972613, 34.922131468849265 ], [ -94.851530557269157, 35.003264908302292 ], [ -94.752884129781492, 35.025793249707171 ] ] ] } },
{ "type": "Feature", "properties": { "ID": 80115, "date": "2022-12-03T00:00:00", "smokePM_pred": 0.642284095287323 }, "geometry": { "type": "Polygon", "coordinates": [ [ [ -91.921078987593233, 36.603249795886043 ], [ -91.895160480630437, 36.520228569869111 ], [ -91.997975907148543, 36.499312116226683 ], [ -92.023984693485829, 36.582270310033373 ], [ -91.921078987593233, 36.603249795886043 ] ] ] } },
{ "type": "Feature", "properties": { "ID": 80630, "date": "2022-12-03T00:00:00", "smokePM_pred": 0.77600717544555697 }, "geometry": { "type": "Polygon", "coordinates": [ [ [ -91.947103811917671, 36.686253993809693 ], [ -91.921078987593233, 36.603249795886043 ], [ -92.023984693485829, 36.582270310033373 ], [ -92.050100082314358, 36.665211354912138 ], [ -91.947103811917671, 36.686253993809693 ] ] ] } },
{ "type": "Feature", "properties": { "ID": 80631, "date": "2022-12-03T00:00:00", "smokePM_pred": 0.66360753774643 }, "geometry": { "type": "Polygon", "coordinates": [ [ [ -91.844000794258747, 36.707217618351073 ], [ -91.818066964764853, 36.624150470766693 ], [ -91.921078987593233, 36.603249795886043 ], [ -91.947103811917671, 36.686253993809693 ], [ -91.844000794258747, 36.707217618351073 ] ] ] } },
{ "type": "Feature", "properties": { "ID": 81145, "date": "2022-12-03T00:00:00", "smokePM_pred": 0.80058306455612205 }, "geometry": { "type": "Polygon", "coordinates": [ [ [ -91.973235383932931, 36.769241080904436 ], [ -91.947103811917671, 36.686253993809693 ], [ -92.050100082314358, 36.665211354912138 ], [ -92.076322504337327, 36.7481351675724 ], [ -91.973235383932931, 36.769241080904436 ] ] ] } },
{ "type": "Feature", "properties": { "ID": 81146, "date": "2022-12-03T00:00:00", "smokePM_pred": 0.73567175865173295 }, "geometry": { "type": "Polygon", "coordinates": [ [ [ -91.870041083368392, 36.790267776414829 ], [ -91.844000794258747, 36.707217618351073 ], [ -91.947103811917671, 36.686253993809693 ], [ -91.973235383932931, 36.769241080904436 ], [ -91.870041083368392, 36.790267776414829 ] ] ] } },
{ "type": "Feature", "properties": { "ID": 81456, "date": "2022-12-03T00:00:00", "smokePM_pred": 3.9457671642303498 }, "geometry": { "type": "Polygon", "coordinates": [ [ [ -110.582968613118041, 31.312135141973719 ], [ -110.54673748594341, 31.24470440717187 ], [ -110.625182469548491, 31.213617648917445 ], [ -110.661425417139469, 31.280966289665454 ], [ -110.582968613118041, 31.312135141973719 ] ] ] } },
{ "type": "Feature", "properties": { "ID": 81457, "date": "2022-12-03T00:00:00", "smokePM_pred": 4.4028754234314 }, "geometry": { "type": "Polygon", "coordinates": [ [ [ -110.504389922331583, 31.343283349588646 ], [ -110.468170906235258, 31.275770522039469 ], [ -110.54673748594341, 31.24470440717187 ], [ -110.582968613118041, 31.312135141973719 ], [ -110.504389922331583, 31.343283349588646 ] ] ] } },
{ "type": "Feature", "properties": { "ID": 81458, "date": "2022-12-03T00:00:00", "smokePM_pred": 4.16717529296875 }, "geometry": { "type": "Polygon", "coordinates": [ [ [ -110.425689259260764, 31.374410666769297 ], [ -110.389482646093825, 31.30681574843241 ], [ -110.468170906235258, 31.275770522039469 ], [ -110.504389922331583, 31.343283349588646 ], [ -110.425689259260764, 31.374410666769297 ] ] ] } },
{ "type": "Feature", "properties": { "ID": 81659, "date": "2022-12-03T00:00:00", "smokePM_pred": 0.99706733226776101 }, "geometry": { "type": "Polygon", "coordinates": [ [ [ -92.102652392826542, 36.831041664263452 ], [ -92.076322504337327, 36.7481351675724 ], [ -92.179302158706378, 36.726950326193155 ], [ -92.205722747223717, 36.809793224169709 ], [ -92.102652392826542, 36.831041664263452 ] ] ] } },
{ "type": "Feature", "properties": { "ID": 81660, "date": "2022-12-03T00:00:00", "smokePM_pred": 1.16240811347961 }, "geometry": { "type": "Polygon", "coordinates": [ [ [ -91.999474136539689, 36.852210973976973 ], [ -91.973235383932931, 36.769241080904436 ], [ -92.076322504337327, 36.7481351675724 ], [ -92.102652392826542, 36.831041664263452 ], [ -91.999474136539689, 36.852210973976973 ] ] ] } },
{ "type": "Feature", "properties": { "ID": 81661, "date": "2022-12-03T00:00:00", "smokePM_pred": 1.00072634220123 }, "geometry": { "type": "Polygon", "coordinates": [ [ [ -91.896188264606636, 36.873300862323028 ], [ -91.870041083368392, 36.790267776414829 ], [ -91.973235383932931, 36.769241080904436 ], [ -91.999474136539689, 36.852210973976973 ], [ -91.896188264606636, 36.873300862323028 ] ] ] } },
{ "type": "Feature", "properties": { "ID": 82174, "date": "2022-12-03T00:00:00", "smokePM_pred": 1.13597011566162 }, "geometry": { "type": "Polygon", "coordinates": [ [ [ -92.129090183639107, 36.913930760771002 ], [ -92.102652392826542, 36.831041664263452 ], [ -92.205722747223717, 36.809793224169709 ], [ -92.232251521705393, 36.892618599381663 ], [ -92.129090183639107, 36.913930760771002 ] ] ] } },
{ "type": "Feature", "properties": { "ID": 82175, "date": "2022-12-03T00:00:00", "smokePM_pred": 1.18661332130432 }, "geometry": { "type": "Polygon", "coordinates": [ [ [ -92.025820505226818, 36.935163589372848 ], [ -91.999474136539689, 36.852210973976973 ], [ -92.102652392826542, 36.831041664263452 ], [ -92.129090183639107, 36.913930760771002 ], [ -92.025820505226818, 36.935163589372848 ] ] ] } },
{ "type": "Feature", "properties": { "ID": 82176, "date": "2022-12-03T00:00:00", "smokePM_pred": 1.1492050886154199 }, "geometry": { "type": "Polygon", "coordinates": [ [ [ -91.922442773077321, 36.956316792982037 ], [ -91.896188264606636, 36.873300862323028 ], [ -91.999474136539689, 36.852210973976973 ], [ -92.025820505226818, 36.935163589372848 ], [ -91.922442773077321, 36.956316792982037 ] ] ] } },
{ "type": "Feature", "properties": { "ID": 82690, "date": "2022-12-03T00:00:00", "smokePM_pred": 1.27756071090698 }, "geometry": { "type": "Polygon", "coordinates": [ [ [ -92.052274928088138, 37.018098842972982 ], [ -92.025820505226818, 36.935163589372848 ], [ -92.129090183639107, 36.913930760771002 ], [ -92.155636315234148, 36.996802372413626 ], [ -92.052274928088138, 37.018098842972982 ] ] ] } },
{ "type": "Feature", "properties": { "ID": 84758, "date": "2022-12-03T00:00:00", "smokePM_pred": 1.1601243019103999 }, "geometry": { "type": "Polygon", "coordinates": [ [ [ -91.325387827473975, 37.519154635956824 ], [ -91.299255840692226, 37.435784009613982 ], [ -91.403764445719858, 37.414947666910955 ], [ -91.429992890970368, 37.498255820224877 ], [ -91.325387827473975, 37.519154635956824 ] ] ] } },
{ "type": "Feature", "properties": { "ID": 84759, "date": "2022-12-03T00:00:00", "smokePM_pred": 1.14779949188232 }, "geometry": { "type": "Polygon", "coordinates": [ [ [ -91.220674884981833, 37.539970439565018 ], [ -91.194639804607547, 37.456537554147125 ], [ -91.299255840692226, 37.435784009613982 ], [ -91.325387827473975, 37.519154635956824 ], [ -91.220674884981833, 37.539970439565018 ] ] ] } },
{ "type": "Feature", "properties": { "ID": 85272, "date": "2022-12-03T00:00:00", "smokePM_pred": 0.95809930562973 }, "geometry": { "type": "Polygon", "coordinates": [ [ [ -91.456329525811555, 37.581547063133442 ], [ -91.429992890970368, 37.498255820224877 ], [ -91.534489765330861, 37.477274286397311 ], [ -91.560922717621168, 37.560502718271593 ], [ -91.456329525811555, 37.581547063133442 ] ] ] } },
{ "type": "Feature", "properties": { "ID": 85273, "date": "2022-12-03T00:00:00", "smokePM_pred": 1.2457740306854199 }, "geometry": { "type": "Polygon", "coordinates": [ [ [ -91.351627693706661, 37.602508477077414 ], [ -91.325387827473975, 37.519154635956824 ], [ -91.429992890970368, 37.498255820224877 ], [ -91.456329525811555, 37.581547063133442 ], [ -91.351627693706661, 37.602508477077414 ] ] ] } },
{ "type": "Feature", "properties": { "ID": 85274, "date": "2022-12-03T00:00:00", "smokePM_pred": 1.0883193016052199 }, "geometry": { "type": "Polygon", "coordinates": [ [ [ -91.246817531936273, 37.623386664827493 ], [ -91.220674884981833, 37.539970439565018 ], [ -91.325387827473975, 37.519154635956824 ], [ -91.351627693706661, 37.602508477077414 ], [ -91.246817531936273, 37.623386664827493 ] ] ] } },
{ "type": "Feature", "properties": { "ID": 85787, "date": "2022-12-03T00:00:00", "smokePM_pred": 1.1045895814895601 }, "geometry": { "type": "Polygon", "coordinates": [ [ [ -91.482774801405824, 37.664821312725188 ], [ -91.456329525811555, 37.581547063133442 ], [ -91.560922717621168, 37.560502718271593 ], [ -91.587464618547031, 37.643714030950647 ], [ -91.482774801405824, 37.664821312725188 ] ] ] } },
{ "type": "Feature", "properties": { "ID": 85788, "date": "2022-12-03T00:00:00", "smokePM_pred": 1.15544509887695 }, "geometry": { "type": "Polygon", "coordinates": [ [ [ -91.37797589006307, 37.685845450649637 ], [ -91.351627693706661, 37.602508477077414 ], [ -91.456329525811555, 37.581547063133442 ], [ -91.482774801405824, 37.664821312725188 ], [ -91.37797589006307, 37.685845450649637 ] ] ] } },
{ "type": "Feature", "properties": { "ID": 85789, "date": "2022-12-03T00:00:00", "smokePM_pred": 1.0943466424942001 }, "geometry": { "type": "Polygon", "coordinates": [ [ [ -91.273068195635773, 37.706786148194659 ], [ -91.246817531936273, 37.623386664827493 ], [ -91.351627693706661, 37.602508477077414 ], [ -91.37797589006307, 37.685845450649637 ], [ -91.273068195635773, 37.706786148194659 ] ] ] } },
{ "type": "Feature", "properties": { "ID": 86302, "date": "2022-12-03T00:00:00", "smokePM_pred": 1.06614089012146 }, "geometry": { "type": "Polygon", "coordinates": [ [ [ -91.509329171662515, 37.748078485616944 ], [ -91.482774801405824, 37.664821312725188 ], [ -91.587464618547031, 37.643714030950647 ], [ -91.614115922486604, 37.726908140464168 ], [ -91.509329171662515, 37.748078485616944 ] ] ] } },
{ "type": "Feature", "properties": { "ID": 86303, "date": "2022-12-03T00:00:00", "smokePM_pred": 1.0208380222320601 }, "geometry": { "type": "Polygon", "coordinates": [ [ [ -91.404432869965333, 37.769165473878438 ], [ -91.37797589006307, 37.685845450649637 ], [ -91.482774801405824, 37.664821312725188 ], [ -91.509329171662515, 37.748078485616944 ], [ -91.404432869965333, 37.769165473878438 ] ] ] } },
{ "type": "Feature", "properties": { "ID": 86304, "date": "2022-12-03T00:00:00", "smokePM_pred": 1.07172179222107 }, "geometry": { "type": "Polygon", "coordinates": [ [ [ -91.299427328996785, 37.790168807460375 ], [ -91.273068195635773, 37.706786148194659 ], [ -91.37797589006307, 37.685845450649637 ], [ -91.404432869965333, 37.769165473878438 ], [ -91.299427328996785, 37.790168807460375 ] ] ] } },
{ "type": "Feature", "properties": { "ID": 86817, "date": "2022-12-03T00:00:00", "smokePM_pred": 1.0739006996154801 }, "geometry": { "type": "Polygon", "coordinates": [ [ [ -91.535993093256252, 37.831318497950264 ], [ -91.509329171662515, 37.748078485616944 ], [ -91.614115922486604, 37.726908140464168 ], [ -91.640877086580716, 37.810084962363817 ], [ -91.535993093256252, 37.831318497950264 ] ] ] } },
{ "type": "Feature", "properties": { "ID": 86818, "date": "2022-12-03T00:00:00", "smokePM_pred": 1.0853300094604501 }, "geometry": { "type": "Polygon", "coordinates": [ [ [ -91.430999089603375, 37.85246846349613 ], [ -91.404432869965333, 37.769165473878438 ], [ -91.509329171662515, 37.748078485616944 ], [ -91.535993093256252, 37.831318497950264 ], [ -91.430999089603375, 37.85246846349613 ] ] ] } }
]
}
