{
"type": "FeatureCollection",
"name": "geo_2022-11-27",
"crs": { "type": "name", "properties": { "name": "urn:ogc:def:crs:OGC:1.3:CRS84" } },
"features": [
{ "type": "Feature", "properties": { "ID": 126457, "date": "2022-11-27T00:00:00", "smokePM_pred": 1.6553363800048799 }, "geometry": { "type": "Polygon", "coordinates": [ [ [ -95.642549733435246, 43.773510051865358 ], [ -95.604074234463909, 43.693033989345977 ], [ -95.714923881778077, 43.665127261392698 ], [ -95.753510333140895, 43.74552530658864 ], [ -95.642549733435246, 43.773510051865358 ] ] ] } },
{ "type": "Feature", "properties": { "ID": 126971, "date": "2022-11-27T00:00:00", "smokePM_pred": 1.7347222566604601 }, "geometry": { "type": "Polygon", "coordinates": [ [ [ -95.792256942335698, 43.825894914628144 ], [ -95.753510333140895, 43.74552530658864 ], [ -95.864310775765432, 43.717447081025654 ], [ -95.903167854778474, 43.797738302883296 ], [ -95.792256942335698, 43.825894914628144 ] ] ] } },
{ "type": "Feature", "properties": { "ID": 126972, "date": "2022-11-27T00:00:00", "smokePM_pred": 1.7819852828979501 }, "geometry": { "type": "Polygon", "coordinates": [ [ [ -95.681185131406636, 43.853957858069229 ], [ -95.642549733435246, 43.773510051865358 ], [ -95.753510333140895, 43.74552530658864 ], [ -95.792256942335698, 43.825894914628144 ], [ -95.681185131406636, 43.853957858069229 ] ] ] } },
{ "type": "Feature", "properties": { "ID": 127486, "date": "2022-11-27T00:00:00", "smokePM_pred": 1.7048251628875699 }, "geometry": { "type": "Polygon", "coordinates": [ [ [ -95.831164450772448, 43.906235936148882 ], [ -95.792256942335698, 43.825894914628144 ], [ -95.903167854778474, 43.797738302883296 ], [ -95.942186086741671, 43.878000756773687 ], [ -95.831164450772448, 43.906235936148882 ] ] ] } },
{ "type": "Feature", "properties": { "ID": 127487, "date": "2022-11-27T00:00:00", "smokePM_pred": 1.76533043384552 }, "geometry": { "type": "Polygon", "coordinates": [ [ [ -95.719981170377537, 43.934377259386274 ], [ -95.681185131406636, 43.853957858069229 ], [ -95.792256942335698, 43.825894914628144 ], [ -95.831164450772448, 43.906235936148882 ], [ -95.719981170377537, 43.934377259386274 ] ] ] } },
{ "type": "Feature", "properties": { "ID": 128001, "date": "2022-11-27T00:00:00", "smokePM_pred": 1.7458730936050399 }, "geometry": { "type": "Polygon", "coordinates": [ [ [ -95.87023360439558, 43.986548220832397 ], [ -95.831164450772448, 43.906235936148882 ], [ -95.942186086741671, 43.878000756773687 ], [ -95.981366216962627, 43.958234291588468 ], [ -95.87023360439558, 43.986548220832397 ] ] ] } },
{ "type": "Feature", "properties": { "ID": 128002, "date": "2022-11-27T00:00:00", "smokePM_pred": 1.8176796436309799 }, "geometry": { "type": "Polygon", "coordinates": [ [ [ -95.758938596899512, 44.014768106292017 ], [ -95.719981170377537, 43.934377259386274 ], [ -95.831164450772448, 43.906235936148882 ], [ -95.87023360439558, 43.986548220832397 ], [ -95.758938596899512, 44.014768106292017 ] ] ] } },
{ "type": "Feature", "properties": { "ID": 151423, "date": "2022-11-27T00:00:00", "smokePM_pred": 7.3772644996643102 }, "geometry": { "type": "Polygon", "coordinates": [ [ [ -122.098045308670663, 36.891273008459194 ], [ -122.04416188938086, 36.837191362196435 ], [ -122.111415100203061, 36.793940137529106 ], [ -122.165261771384351, 36.847937220424875 ], [ -122.098045308670663, 36.891273008459194 ] ] ] } },
{ "type": "Feature", "properties": { "ID": 151424, "date": "2022-11-27T00:00:00", "smokePM_pred": 7.62513971328735 }, "geometry": { "type": "Polygon", "coordinates": [ [ [ -122.030684964057798, 36.934613544707034 ], [ -121.976765015810869, 36.880447231281465 ], [ -122.04416188938086, 36.837191362196435 ], [ -122.098045308670663, 36.891273008459194 ], [ -122.030684964057798, 36.934613544707034 ] ] ] } },
{ "type": "Feature", "properties": { "ID": 151425, "date": "2022-11-27T00:00:00", "smokePM_pred": 5.9865665435790998 }, "geometry": { "type": "Polygon", "coordinates": [ [ [ -121.963180400489364, 36.977958591501213 ], [ -121.90922414436757, 36.923707507292562 ], [ -121.976765015810813, 36.880447231281501 ], [ -122.030684964057727, 36.934613544707076 ], [ -121.963180400489364, 36.977958591501213 ] ] ] } },
{ "type": "Feature", "properties": { "ID": 151426, "date": "2022-11-27T00:00:00", "smokePM_pred": 5.52905225753784 }, "geometry": { "type": "Polygon", "coordinates": [ [ [ -121.895531280500251, 37.021307910011522 ], [ -121.84153893952741, 36.966971951578522 ], [ -121.909224144367698, 36.923707507292569 ], [ -121.96318040048952, 36.977958591501228 ], [ -121.895531280500251, 37.021307910011522 ] ] ] } },
{ "type": "Feature", "properties": { "ID": 151938, "date": "2022-11-27T00:00:00", "smokePM_pred": 8.0317230224609393 }, "geometry": { "type": "Polygon", "coordinates": [ [ [ -122.152072609790537, 36.945286494525369 ], [ -122.098045308670663, 36.891273008459194 ], [ -122.165261771384351, 36.847937220424875 ], [ -122.219251987753367, 36.901866131914282 ], [ -122.152072609790537, 36.945286494525369 ] ] ] } },
{ "type": "Feature", "properties": { "ID": 151939, "date": "2022-11-27T00:00:00", "smokePM_pred": 6.4989709854126003 }, "geometry": { "type": "Polygon", "coordinates": [ [ [ -122.084749131192041, 36.988711709721279 ], [ -122.030684964057798, 36.934613544707034 ], [ -122.098045308670663, 36.891273008459194 ], [ -122.152072609790537, 36.945286494525369 ], [ -122.084749131192041, 36.988711709721279 ] ] ] } },
{ "type": "Feature", "properties": { "ID": 151940, "date": "2022-11-27T00:00:00", "smokePM_pred": 5.0371942520141602 }, "geometry": { "type": "Polygon", "coordinates": [ [ [ -122.017281212964903, 37.032141539662192 ], [ -121.963180400489364, 36.977958591501213 ], [ -122.030684964057727, 36.934613544707076 ], [ -122.084749131191998, 36.988711709721329 ], [ -122.017281212964903, 37.032141539662192 ] ] ] } },
{ "type": "Feature", "properties": { "ID": 151941, "date": "2022-11-27T00:00:00", "smokePM_pred": 5.6367683410644496 }, "geometry": { "type": "Polygon", "coordinates": [ [ [ -121.949668515696359, 37.075575745341787 ], [ -121.89553128050018, 37.021307910011473 ], [ -121.963180400489435, 36.977958591501178 ], [ -122.01728121296496, 37.032141539662149 ], [ -121.949668515696359, 37.075575745341787 ] ] ] } },
{ "type": "Feature", "properties": { "ID": 152454, "date": "2022-11-27T00:00:00", "smokePM_pred": 8.0367660522460902 }, "geometry": { "type": "Polygon", "coordinates": [ [ [ -122.13895773788488, 37.042741498150818 ], [ -122.084749131192041, 36.988711709721279 ], [ -122.152072609790537, 36.945286494525369 ], [ -122.206244011475121, 36.999231592622991 ], [ -122.13895773788488, 37.042741498150818 ] ] ] } },
{ "type": "Feature", "properties": { "ID": 152455, "date": "2022-11-27T00:00:00", "smokePM_pred": 12.113059997558601 }, "geometry": { "type": "Polygon", "coordinates": [ [ [ -122.071526804412926, 37.086256123201501 ], [ -122.01728121296496, 37.032141539662149 ], [ -122.084749131192041, 36.988711709721279 ], [ -122.13895773788488, 37.042741498150818 ], [ -122.071526804412926, 37.086256123201501 ] ] ] } },
{ "type": "Feature", "properties": { "ID": 160202, "date": "2022-11-27T00:00:00", "smokePM_pred": 4.5347127914428702 }, "geometry": { "type": "Polygon", "coordinates": [ [ [ -121.394206310960868, 38.876050983845481 ], [ -121.336889771360077, 38.821092942533234 ], [ -121.407109848122772, 38.776315946009028 ], [ -121.464389288689389, 38.831186603142562 ], [ -121.394206310960868, 38.876050983845481 ] ] ] } },
{ "type": "Feature", "properties": { "ID": 160203, "date": "2022-11-27T00:00:00", "smokePM_pred": 5.9088797569274902 }, "geometry": { "type": "Polygon", "coordinates": [ [ [ -121.323866745017312, 38.92091585834973 ], [ -121.266513369019094, 38.865870323088153 ], [ -121.336889771360134, 38.821092942533205 ], [ -121.394206310960939, 38.876050983845445 ], [ -121.323866745017312, 38.92091585834973 ] ] ] } },
{ "type": "Feature", "properties": { "ID": 160717, "date": "2022-11-27T00:00:00", "smokePM_pred": 5.1360497474670401 }, "geometry": { "type": "Polygon", "coordinates": [ [ [ -121.451679438700097, 38.930937188436907 ], [ -121.394206310960868, 38.876050983845481 ], [ -121.464389288689389, 38.831186603142562 ], [ -121.521824934215488, 38.885985404683481 ], [ -121.451679438700097, 38.930937188436907 ] ] ] } },
{ "type": "Feature", "properties": { "ID": 160718, "date": "2022-11-27T00:00:00", "smokePM_pred": 4.7409262657165501 }, "geometry": { "type": "Polygon", "coordinates": [ [ [ -121.381377092793102, 38.975889576431406 ], [ -121.323866745017227, 38.920915858349765 ], [ -121.394206310960868, 38.876050983845481 ], [ -121.451679438700097, 38.930937188436907 ], [ -121.381377092793102, 38.975889576431406 ] ] ] } },
{ "type": "Feature", "properties": { "ID": 161231, "date": "2022-11-27T00:00:00", "smokePM_pred": 5.5465364456176802 }, "geometry": { "type": "Polygon", "coordinates": [ [ [ -121.579417044549189, 38.940712102179766 ], [ -121.521824934215488, 38.885985404683481 ], [ -121.591813964843027, 38.841034494431398 ], [ -121.649367948089392, 38.895673881764871 ], [ -121.579417044549189, 38.940712102179766 ] ] ] } },
{ "type": "Feature", "properties": { "ID": 161232, "date": "2022-11-27T00:00:00", "smokePM_pred": 5.0556588172912598 }, "geometry": { "type": "Polygon", "coordinates": [ [ [ -121.509309416752018, 38.98575130740543 ], [ -121.451679438700097, 38.930937188436907 ], [ -121.521824934215488, 38.885985404683481 ], [ -121.579417044549189, 38.940712102179766 ], [ -121.509309416752018, 38.98575130740543 ] ] ] } },
{ "type": "Feature", "properties": { "ID": 161233, "date": "2022-11-27T00:00:00", "smokePM_pred": 5.17738914489746 }, "geometry": { "type": "Polygon", "coordinates": [ [ [ -121.439044676860391, 39.030791227982093 ], [ -121.381377092793102, 38.975889576431406 ], [ -121.451679438700097, 38.930937188436907 ], [ -121.509309416752018, 38.98575130740543 ], [ -121.439044676860391, 39.030791227982093 ] ] ] } },
{ "type": "Feature", "properties": { "ID": 194796, "date": "2022-11-27T00:00:00", "smokePM_pred": 0.84198373556137096 }, "geometry": { "type": "Polygon", "coordinates": [ [ [ -118.907791690658925, 46.898164156462563 ], [ -118.834530561357866, 46.840199207730826 ], [ -118.918954921087462, 46.789994973502139 ], [ -118.992178673211413, 46.847858798939662 ], [ -118.907791690658925, 46.898164156462563 ] ] ] } },
{ "type": "Feature", "properties": { "ID": 194797, "date": "2022-11-27T00:00:00", "smokePM_pred": 0.79339545965194702 }, "geometry": { "type": "Polygon", "coordinates": [ [ [ -118.823177270536462, 46.948447707944737 ], [ -118.749879301986567, 46.890381491555814 ], [ -118.834530561357866, 46.840199207730826 ], [ -118.907791690658925, 46.898164156462563 ], [ -118.823177270536462, 46.948447707944737 ] ] ] } },
{ "type": "Feature", "properties": { "ID": 195310, "date": "2022-11-27T00:00:00", "smokePM_pred": 0.80422270298004195 }, "geometry": { "type": "Polygon", "coordinates": [ [ [ -119.065629192733951, 46.905633937799927 ], [ -118.992178673211413, 46.847858798939662 ], [ -119.076338888249069, 46.797532068882212 ], [ -119.14975082845973, 46.85520616847996 ], [ -119.065629192733951, 46.905633937799927 ] ] ] } },
{ "type": "Feature", "properties": { "ID": 195311, "date": "2022-11-27T00:00:00", "smokePM_pred": 0.65122413635253895 }, "geometry": { "type": "Polygon", "coordinates": [ [ [ -118.981280257417666, 46.956040480609545 ], [ -118.907791690658925, 46.898164156462563 ], [ -118.992178673211413, 46.847858798939662 ], [ -119.065629192733951, 46.905633937799927 ], [ -118.981280257417666, 46.956040480609545 ] ] ] } },
{ "type": "Feature", "properties": { "ID": 195312, "date": "2022-11-27T00:00:00", "smokePM_pred": 0.76490563154220603 }, "geometry": { "type": "Polygon", "coordinates": [ [ [ -118.896703347277281, 47.006425362981076 ], [ -118.823177270536462, 46.948447707944737 ], [ -118.907791690658925, 46.898164156462563 ], [ -118.981280257417666, 46.956040480609545 ], [ -118.896703347277281, 47.006425362981076 ] ] ] } },
{ "type": "Feature", "properties": { "ID": 195824, "date": "2022-11-27T00:00:00", "smokePM_pred": 0.87418663501739502 }, "geometry": { "type": "Polygon", "coordinates": [ [ [ -119.223389393632885, 46.912791155829659 ], [ -119.14975082845973, 46.85520616847996 ], [ -119.233645839097292, 46.804757604534167 ], [ -119.30724462427591, 46.862241640259391 ], [ -119.223389393632885, 46.912791155829659 ] ] ] } },
{ "type": "Feature", "properties": { "ID": 195825, "date": "2022-11-27T00:00:00", "smokePM_pred": 0.73137211799621604 }, "geometry": { "type": "Polygon", "coordinates": [ [ [ -119.139307011725052, 46.963320024440357 ], [ -119.065629192733951, 46.905633937799927 ], [ -119.14975082845973, 46.85520616847996 ], [ -119.223389393632885, 46.912791155829659 ], [ -119.139307011725052, 46.963320024440357 ] ] ] } },
{ "type": "Feature", "properties": { "ID": 195826, "date": "2022-11-27T00:00:00", "smokePM_pred": 0.74377906322479204 }, "geometry": { "type": "Polygon", "coordinates": [ [ [ -119.054996798882442, 47.0138278138012 ], [ -118.981280257417666, 46.956040480609545 ], [ -119.065629192733951, 46.905633937799927 ], [ -119.139307011725052, 46.963320024440357 ], [ -119.054996798882442, 47.0138278138012 ] ] ] } },
{ "type": "Feature", "properties": { "ID": 195827, "date": "2022-11-27T00:00:00", "smokePM_pred": 0.81070452928543102 }, "geometry": { "type": "Polygon", "coordinates": [ [ [ -118.970458074669665, 47.064314089569741 ], [ -118.896703347277281, 47.006425362981076 ], [ -118.981280257417666, 46.956040480609545 ], [ -119.054996798882442, 47.0138278138012 ], [ -118.970458074669665, 47.064314089569741 ] ] ] } },
{ "type": "Feature", "properties": { "ID": 196338, "date": "2022-11-27T00:00:00", "smokePM_pred": 0.80708926916122403 }, "geometry": { "type": "Polygon", "coordinates": [ [ [ -119.381069881702388, 46.919636139415758 ], [ -119.30724462427591, 46.862241640259391 ], [ -119.390873382535986, 46.811671907972304 ], [ -119.464657660850477, 46.868965546738913 ], [ -119.381069881702388, 46.919636139415758 ] ] ] } },
{ "type": "Feature", "properties": { "ID": 196339, "date": "2022-11-27T00:00:00", "smokePM_pred": 0.72139924764633201 }, "geometry": { "type": "Polygon", "coordinates": [ [ [ -119.2972551099394, 46.970286664664705 ], [ -119.223389393632885, 46.912791155829659 ], [ -119.30724462427591, 46.862241640259391 ], [ -119.381069881702388, 46.919636139415758 ], [ -119.2972551099394, 46.970286664664705 ] ] ] } },
{ "type": "Feature", "properties": { "ID": 196340, "date": "2022-11-27T00:00:00", "smokePM_pred": 0.863306224346161 }, "geometry": { "type": "Polygon", "coordinates": [ [ [ -119.213212661523414, 47.020916691853031 ], [ -119.139307011725052, 46.963320024440357 ], [ -119.223389393632885, 46.912791155829659 ], [ -119.2972551099394, 46.970286664664705 ], [ -119.213212661523414, 47.020916691853031 ] ] ] } },
{ "type": "Feature", "properties": { "ID": 196341, "date": "2022-11-27T00:00:00", "smokePM_pred": 0.72025382518768299 }, "geometry": { "type": "Polygon", "coordinates": [ [ [ -119.128941851593723, 47.07152578829168 ], [ -119.054996798882442, 47.0138278138012 ], [ -119.139307011725052, 46.963320024440357 ], [ -119.213212661523414, 47.020916691853031 ], [ -119.128941851593723, 47.07152578829168 ] ] ] } },
{ "type": "Feature", "properties": { "ID": 196853, "date": "2022-11-27T00:00:00", "smokePM_pred": 0.828480243682861 }, "geometry": { "type": "Polygon", "coordinates": [ [ [ -119.455122131602877, 46.976940735134157 ], [ -119.381069881702388, 46.919636139415758 ], [ -119.464657660850477, 46.868965546738913 ], [ -119.538668248442249, 46.926169225996929 ], [ -119.455122131602877, 46.976940735134157 ] ] ] } },
{ "type": "Feature", "properties": { "ID": 196854, "date": "2022-11-27T00:00:00", "smokePM_pred": 0.863392293453217 }, "geometry": { "type": "Polygon", "coordinates": [ [ [ -119.371348502761819, 47.027692327361429 ], [ -119.2972551099394, 46.970286664664705 ], [ -119.381069881702388, 46.919636139415758 ], [ -119.455122131602877, 46.976940735134157 ], [ -119.371348502761819, 47.027692327361429 ] ] ] } },
{ "type": "Feature", "properties": { "ID": 196855, "date": "2022-11-27T00:00:00", "smokePM_pred": 0.77305221557617199 }, "geometry": { "type": "Polygon", "coordinates": [ [ [ -119.287346672702142, 47.078423571663073 ], [ -119.213212661523414, 47.020916691853031 ], [ -119.2972551099394, 46.970286664664705 ], [ -119.371348502761819, 47.027692327361429 ], [ -119.287346672702142, 47.078423571663073 ] ] ] } },
{ "type": "Feature", "properties": { "ID": 197367, "date": "2022-11-27T00:00:00", "smokePM_pred": 1.0140362977981601 }, "geometry": { "type": "Polygon", "coordinates": [ [ [ -119.612905659548318, 46.983282578296283 ], [ -119.538668248442249, 46.926169225996929 ], [ -119.621987541617045, 46.875378228905291 ], [ -119.696182088732471, 46.932390761558452 ], [ -119.612905659548318, 46.983282578296283 ] ] ] } },
{ "type": "Feature", "properties": { "ID": 197368, "date": "2022-11-27T00:00:00", "smokePM_pred": 0.96138167381286599 }, "geometry": { "type": "Polygon", "coordinates": [ [ [ -119.529401893358511, 47.034155059196898 ], [ -119.455122131602877, 46.976940735134157 ], [ -119.538668248442249, 46.926169225996929 ], [ -119.612905659548318, 46.983282578296283 ], [ -119.529401893358511, 47.034155059196898 ] ] ] } },
{ "type": "Feature", "properties": { "ID": 197369, "date": "2022-11-27T00:00:00", "smokePM_pred": 1.09416043758392 }, "geometry": { "type": "Polygon", "coordinates": [ [ [ -119.445670096659839, 47.085007774937615 ], [ -119.371348502761819, 47.027692327361429 ], [ -119.455122131602877, 46.976940735134157 ], [ -119.529401893358511, 47.034155059196898 ], [ -119.445670096659839, 47.085007774937615 ] ] ] } },
{ "type": "Feature", "properties": { "ID": 216416, "date": "2022-11-27T00:00:00", "smokePM_pred": 1.26177930831909 }, "geometry": { "type": "Polygon", "coordinates": [ [ [ -123.007042306225372, 48.701405455037879 ], [ -122.924501297394272, 48.648514929767018 ], [ -123.004281247661154, 48.593895875283508 ], [ -123.086747588509198, 48.646685414831765 ], [ -123.007042306225372, 48.701405455037879 ] ] ] } },
{ "type": "Feature", "properties": { "ID": 216417, "date": "2022-11-27T00:00:00", "smokePM_pred": 0.88719195127487205 }, "geometry": { "type": "Polygon", "coordinates": [ [ [ -122.92709701831258, 48.756115246404747 ], [ -122.844481759380102, 48.703123536132772 ], [ -122.924501297394272, 48.648514929767018 ], [ -123.007042306225372, 48.701405455037879 ], [ -122.92709701831258, 48.756115246404747 ] ] ] } },
{ "type": "Feature", "properties": { "ID": 216930, "date": "2022-11-27T00:00:00", "smokePM_pred": 1.3935575485229501 }, "geometry": { "type": "Polygon", "coordinates": [ [ [ -123.169453053781623, 48.699369575170117 ], [ -123.086747588509198, 48.646685414831765 ], [ -123.166213745934158, 48.591955546642474 ], [ -123.248843252689056, 48.644538912667464 ], [ -123.169453053781623, 48.699369575170117 ] ] ] } },
{ "type": "Feature", "properties": { "ID": 216931, "date": "2022-11-27T00:00:00", "smokePM_pred": 1.4938303232193 }, "geometry": { "type": "Polygon", "coordinates": [ [ [ -123.089823320252918, 48.754190610201867 ], [ -123.007042306225372, 48.701405455037879 ], [ -123.086747588509198, 48.646685414831765 ], [ -123.169453053781623, 48.699369575170117 ], [ -123.089823320252918, 48.754190610201867 ] ] ] } },
{ "type": "Feature", "properties": { "ID": 216932, "date": "2022-11-27T00:00:00", "smokePM_pred": 1.19885885715485 }, "geometry": { "type": "Polygon", "coordinates": [ [ [ -123.009953165808696, 48.809001596914406 ], [ -122.92709701831258, 48.756115246404747 ], [ -123.007042306225372, 48.701405455037879 ], [ -123.089823320252918, 48.754190610201867 ], [ -123.009953165808696, 48.809001596914406 ] ] ] } },
{ "type": "Feature", "properties": { "ID": 217444, "date": "2022-11-27T00:00:00", "smokePM_pred": 1.2809745073318499 }, "geometry": { "type": "Polygon", "coordinates": [ [ [ -123.331711409981878, 48.69701648134145 ], [ -123.248843252689056, 48.644538912667464 ], [ -123.327994800614277, 48.589699041222076 ], [ -123.410785714127229, 48.642076010649063 ], [ -123.331711409981878, 48.69701648134145 ] ] ] } },
{ "type": "Feature", "properties": { "ID": 217445, "date": "2022-11-27T00:00:00", "smokePM_pred": 1.0170161724090601 }, "geometry": { "type": "Polygon", "coordinates": [ [ [ -123.252398053232895, 48.751947944810809 ], [ -123.169453053781623, 48.699369575170117 ], [ -123.248843252689056, 48.644538912667464 ], [ -123.331711409981878, 48.69701648134145 ], [ -123.252398053232895, 48.751947944810809 ] ] ] } },
{ "type": "Feature", "properties": { "ID": 217446, "date": "2022-11-27T00:00:00", "smokePM_pred": 1.68684983253479 }, "geometry": { "type": "Polygon", "coordinates": [ [ [ -123.172844754755317, 48.806869982553572 ], [ -123.089823320252918, 48.754190610201867 ], [ -123.169453053781623, 48.699369575170117 ], [ -123.252398053232895, 48.751947944810809 ], [ -123.172844754755317, 48.806869982553572 ] ] ] } },
{ "type": "Feature", "properties": { "ID": 217447, "date": "2022-11-27T00:00:00", "smokePM_pred": 1.3564922809600799 }, "geometry": { "type": "Polygon", "coordinates": [ [ [ -123.093050622719915, 48.861782173738973 ], [ -123.009953165808696, 48.809001596914406 ], [ -123.089823320252918, 48.754190610201867 ], [ -123.172844754755317, 48.806869982553572 ], [ -123.093050622719915, 48.861782173738973 ] ] ] } },
{ "type": "Feature", "properties": { "ID": 217960, "date": "2022-11-27T00:00:00", "smokePM_pred": 1.0071206092834499 }, "geometry": { "type": "Polygon", "coordinates": [ [ [ -123.335582993962063, 48.80442011102069 ], [ -123.252398053232895, 48.751947944810809 ], [ -123.331711409981878, 48.69701648134145 ], [ -123.41481861942593, 48.749387841161273 ], [ -123.335582993962063, 48.80442011102069 ] ] ] } },
{ "type": "Feature", "properties": { "ID": 217962, "date": "2022-11-27T00:00:00", "smokePM_pred": 1.2090935707092301 }, "geometry": { "type": "Polygon", "coordinates": [ [ [ -123.176389807264599, 48.914456561685633 ], [ -123.093050622719915, 48.861782173738973 ], [ -123.172844754755317, 48.806869982553572 ], [ -123.256107022366521, 48.859443158129999 ], [ -123.176389807264599, 48.914456561685633 ] ] ] } }
]
}
