{
"type": "FeatureCollection",
"name": "geo_2022-12-25",
"crs": { "type": "name", "properties": { "name": "urn:ogc:def:crs:OGC:1.3:CRS84" } },
"features": [
{ "type": "Feature", "properties": { "ID": 33257, "date": "2022-12-25T00:00:00", "smokePM_pred": 1.8414845466613801 }, "geometry": { "type": "Polygon", "coordinates": [ [ [ -89.277756379468286, 29.095825851386248 ], [ -89.260470296510675, 29.011178102449122 ], [ -89.356735636224599, 28.995984754960059 ], [ -89.374089564209967, 29.08057980102237 ], [ -89.277756379468286, 29.095825851386248 ] ] ] } },
{ "type": "Feature", "properties": { "ID": 33258, "date": "2022-12-25T00:00:00", "smokePM_pred": 1.79832279682159 }, "geometry": { "type": "Polygon", "coordinates": [ [ [ -89.181348871170883, 29.111009820069008 ], [ -89.164130881061226, 29.026309567752293 ], [ -89.260470296510675, 29.011178102449122 ], [ -89.277756379468286, 29.095825851386248 ], [ -89.181348871170883, 29.111009820069008 ] ] ] } },
{ "type": "Feature", "properties": { "ID": 33259, "date": "2022-12-25T00:00:00", "smokePM_pred": 1.69963943958282 }, "geometry": { "type": "Polygon", "coordinates": [ [ [ -89.08486729697151, 29.126131515065929 ], [ -89.06771764702772, 29.041378959700136 ], [ -89.164130881061226, 29.026309567752293 ], [ -89.181348871170883, 29.111009820069008 ], [ -89.08486729697151, 29.126131515065929 ] ] ] } },
{ "type": "Feature", "properties": { "ID": 33260, "date": "2022-12-25T00:00:00", "smokePM_pred": 1.5938096046447801 }, "geometry": { "type": "Polygon", "coordinates": [ [ [ -88.988311915977533, 29.141190744859156 ], [ -88.971230853006716, 29.056386087608733 ], [ -89.06771764702772, 29.041378959700136 ], [ -89.08486729697151, 29.126131515065929 ], [ -88.988311915977533, 29.141190744859156 ] ] ] } },
{ "type": "Feature", "properties": { "ID": 33770, "date": "2022-12-25T00:00:00", "smokePM_pred": 2.1453583240509002 }, "geometry": { "type": "Polygon", "coordinates": [ [ [ -89.487844528636785, 29.149803361714252 ], [ -89.470348169196939, 29.065271861463152 ], [ -89.566531939686087, 29.049902225669573 ], [ -89.584095900327, 29.134380548029135 ], [ -89.487844528636785, 29.149803361714252 ] ] ] } },
{ "type": "Feature", "properties": { "ID": 33771, "date": "2022-12-25T00:00:00", "smokePM_pred": 1.99231994152069 }, "geometry": { "type": "Polygon", "coordinates": [ [ [ -89.391518072192667, 29.165164281213475 ], [ -89.374089564209967, 29.08057980102237 ], [ -89.470348169196939, 29.065271861463152 ], [ -89.487844528636785, 29.149803361714252 ], [ -89.391518072192667, 29.165164281213475 ] ] ] } },
{ "type": "Feature", "properties": { "ID": 33772, "date": "2022-12-25T00:00:00", "smokePM_pred": 1.93542492389679 }, "geometry": { "type": "Polygon", "coordinates": [ [ [ -89.295116786224057, 29.180463112724929 ], [ -89.277756379468286, 29.095825851386248 ], [ -89.374089564209967, 29.08057980102237 ], [ -89.391518072192667, 29.165164281213475 ], [ -89.295116786224057, 29.180463112724929 ] ] ] } },
{ "type": "Feature", "properties": { "ID": 33773, "date": "2022-12-25T00:00:00", "smokePM_pred": 1.8793475627899201 }, "geometry": { "type": "Polygon", "coordinates": [ [ [ -89.198640927424776, 29.195699662923275 ], [ -89.181348871170883, 29.111009820069008 ], [ -89.277756379468286, 29.095825851386248 ], [ -89.295116786224057, 29.180463112724929 ], [ -89.198640927424776, 29.195699662923275 ] ] ] } },
{ "type": "Feature", "properties": { "ID": 33774, "date": "2022-12-25T00:00:00", "smokePM_pred": 1.81558394432068 }, "geometry": { "type": "Polygon", "coordinates": [ [ [ -89.102090753951984, 29.210873738965532 ], [ -89.08486729697151, 29.126131515065929 ], [ -89.181348871170883, 29.111009820069008 ], [ -89.198640927424776, 29.195699662923275 ], [ -89.102090753951984, 29.210873738965532 ] ] ] } },
{ "type": "Feature", "properties": { "ID": 33775, "date": "2022-12-25T00:00:00", "smokePM_pred": 1.60991275310516 }, "geometry": { "type": "Polygon", "coordinates": [ [ [ -89.005466525425078, 29.225985148496953 ], [ -88.988311915977533, 29.141190744859156 ], [ -89.08486729697151, 29.126131515065929 ], [ -89.102090753951984, 29.210873738965532 ], [ -89.005466525425078, 29.225985148496953 ] ] ] } },
{ "type": "Feature", "properties": { "ID": 34283, "date": "2022-12-25T00:00:00", "smokePM_pred": 2.1739878654479998 }, "geometry": { "type": "Polygon", "coordinates": [ [ [ -89.69797883566757, 29.203310128854785 ], [ -89.680271933499341, 29.118896034430637 ], [ -89.776372375856241, 29.103350015656183 ], [ -89.794146628119293, 29.187710459645743 ], [ -89.69797883566757, 29.203310128854785 ] ] ] } },
{ "type": "Feature", "properties": { "ID": 34284, "date": "2022-12-25T00:00:00", "smokePM_pred": 2.0788414478302002 }, "geometry": { "type": "Polygon", "coordinates": [ [ [ -89.601735199730172, 29.218848096496714 ], [ -89.584095900327, 29.134380548029135 ], [ -89.680271933499341, 29.118896034430637 ], [ -89.69797883566757, 29.203310128854785 ], [ -89.601735199730172, 29.218848096496714 ] ] ] } },
{ "type": "Feature", "properties": { "ID": 34285, "date": "2022-12-25T00:00:00", "smokePM_pred": 2.0792052745819101 }, "geometry": { "type": "Polygon", "coordinates": [ [ [ -89.505415973074776, 29.234324166987843 ], [ -89.487844528636785, 29.149803361714252 ], [ -89.584095900327, 29.134380548029135 ], [ -89.601735199730172, 29.218848096496714 ], [ -89.505415973074776, 29.234324166987843 ] ] ] } },
{ "type": "Feature", "properties": { "ID": 34286, "date": "2022-12-25T00:00:00", "smokePM_pred": 2.0248360633850102 }, "geometry": { "type": "Polygon", "coordinates": [ [ [ -89.409021409943946, 29.249738145210522 ], [ -89.391518072192667, 29.165164281213475 ], [ -89.487844528636785, 29.149803361714252 ], [ -89.505415973074776, 29.234324166987843 ], [ -89.409021409943946, 29.249738145210522 ] ] ] } },
{ "type": "Feature", "properties": { "ID": 34287, "date": "2022-12-25T00:00:00", "smokePM_pred": 1.9169449806213399 }, "geometry": { "type": "Polygon", "coordinates": [ [ [ -89.312551766054412, 29.265089836519074 ], [ -89.295116786224057, 29.180463112724929 ], [ -89.391518072192667, 29.165164281213475 ], [ -89.409021409943946, 29.249738145210522 ], [ -89.312551766054412, 29.265089836519074 ] ] ] } },
{ "type": "Feature", "properties": { "ID": 34288, "date": "2022-12-25T00:00:00", "smokePM_pred": 1.87323558330536 }, "geometry": { "type": "Polygon", "coordinates": [ [ [ -89.216007298595869, 29.280379046745594 ], [ -89.198640927424776, 29.195699662923275 ], [ -89.295116786224057, 29.180463112724929 ], [ -89.312551766054412, 29.265089836519074 ], [ -89.216007298595869, 29.280379046745594 ] ] ] } },
{ "type": "Feature", "properties": { "ID": 34289, "date": "2022-12-25T00:00:00", "smokePM_pred": 1.83175826072693 }, "geometry": { "type": "Polygon", "coordinates": [ [ [ -89.119388266230104, 29.295605582205901 ], [ -89.102090753951984, 29.210873738965532 ], [ -89.198640927424776, 29.195699662923275 ], [ -89.216007298595869, 29.280379046745594 ], [ -89.119388266230104, 29.295605582205901 ] ] ] } },
{ "type": "Feature", "properties": { "ID": 34290, "date": "2022-12-25T00:00:00", "smokePM_pred": 1.6788871288299601 }, "geometry": { "type": "Polygon", "coordinates": [ [ [ -89.022694929089667, 29.310769249705331 ], [ -89.005466525425078, 29.225985148496953 ], [ -89.102090753951984, 29.210873738965532 ], [ -89.119388266230104, 29.295605582205901 ], [ -89.022694929089667, 29.310769249705331 ] ] ] } },
{ "type": "Feature", "properties": { "ID": 34291, "date": "2022-12-25T00:00:00", "smokePM_pred": 1.62327861785889 }, "geometry": { "type": "Polygon", "coordinates": [ [ [ -88.925927548776841, 29.325869856544656 ], [ -88.908768502924403, 29.241033699656803 ], [ -89.005466525425078, 29.225985148496953 ], [ -89.022694929089667, 29.310769249705331 ], [ -88.925927548776841, 29.325869856544656 ] ] ] } },
{ "type": "Feature", "properties": { "ID": 34797, "date": "2022-12-25T00:00:00", "smokePM_pred": 2.0925993919372599 }, "geometry": { "type": "Polygon", "coordinates": [ [ [ -89.811996975405876, 29.272059919471474 ], [ -89.794146628119293, 29.187710459645743 ], [ -89.890238325793561, 29.17204928491352 ], [ -89.908156019858524, 29.256344819092746 ], [ -89.811996975405876, 29.272059919471474 ] ] ] } },
{ "type": "Feature", "properties": { "ID": 34798, "date": "2022-12-25T00:00:00", "smokePM_pred": 2.0685563087463401 }, "geometry": { "type": "Polygon", "coordinates": [ [ [ -89.715761581567421, 29.287713318661236 ], [ -89.69797883566757, 29.203310128854785 ], [ -89.794146628119293, 29.187710459645743 ], [ -89.811996975405876, 29.272059919471474 ], [ -89.715761581567421, 29.287713318661236 ] ] ] } },
{ "type": "Feature", "properties": { "ID": 34799, "date": "2022-12-25T00:00:00", "smokePM_pred": 1.8870946168899501 }, "geometry": { "type": "Polygon", "coordinates": [ [ [ -89.619450090097217, 29.303304819767646 ], [ -89.601735199730172, 29.218848096496714 ], [ -89.69797883566757, 29.203310128854785 ], [ -89.715761581567421, 29.287713318661236 ], [ -89.619450090097217, 29.303304819767646 ] ] ] } },
{ "type": "Feature", "properties": { "ID": 34800, "date": "2022-12-25T00:00:00", "smokePM_pred": 1.8558977842330899 }, "geometry": { "type": "Polygon", "coordinates": [ [ [ -89.52306275423382, 29.318834226357719 ], [ -89.505415973074776, 29.234324166987843 ], [ -89.601735199730172, 29.218848096496714 ], [ -89.619450090097217, 29.303304819767646 ], [ -89.52306275423382, 29.318834226357719 ] ] ] } },
{ "type": "Feature", "properties": { "ID": 34801, "date": "2022-12-25T00:00:00", "smokePM_pred": 1.98858535289764 }, "geometry": { "type": "Polygon", "coordinates": [ [ [ -89.426599828699452, 29.334301342465746 ], [ -89.409021409943946, 29.249738145210522 ], [ -89.505415973074776, 29.234324166987843 ], [ -89.52306275423382, 29.318834226357719 ], [ -89.426599828699452, 29.334301342465746 ] ] ] } },
{ "type": "Feature", "properties": { "ID": 34802, "date": "2022-12-25T00:00:00", "smokePM_pred": 1.6791467666626001 }, "geometry": { "type": "Polygon", "coordinates": [ [ [ -89.330061569699055, 29.349705972599217 ], [ -89.312551766054412, 29.265089836519074 ], [ -89.409021409943946, 29.249738145210522 ], [ -89.426599828699452, 29.334301342465746 ], [ -89.330061569699055, 29.349705972599217 ] ] ] } },
{ "type": "Feature", "properties": { "ID": 34803, "date": "2022-12-25T00:00:00", "smokePM_pred": 1.8516832590103101 }, "geometry": { "type": "Polygon", "coordinates": [ [ [ -89.233448234919351, 29.365047921744697 ], [ -89.216007298595869, 29.280379046745594 ], [ -89.312551766054412, 29.265089836519074 ], [ -89.330061569699055, 29.349705972599217 ], [ -89.233448234919351, 29.365047921744697 ] ] ] } },
{ "type": "Feature", "properties": { "ID": 34804, "date": "2022-12-25T00:00:00", "smokePM_pred": 1.7908866405487101 }, "geometry": { "type": "Polygon", "coordinates": [ [ [ -89.13676008352779, 29.38032699537376 ], [ -89.119388266230104, 29.295605582205901 ], [ -89.216007298595869, 29.280379046745594 ], [ -89.233448234919351, 29.365047921744697 ], [ -89.13676008352779, 29.38032699537376 ] ] ] } },
{ "type": "Feature", "properties": { "ID": 34805, "date": "2022-12-25T00:00:00", "smokePM_pred": 1.75026619434357 }, "geometry": { "type": "Polygon", "coordinates": [ [ [ -89.039997376171371, 29.395542999448875 ], [ -89.022694929089667, 29.310769249705331 ], [ -89.119388266230104, 29.295605582205901 ], [ -89.13676008352779, 29.38032699537376 ], [ -89.039997376171371, 29.395542999448875 ] ] ] } },
{ "type": "Feature", "properties": { "ID": 35311, "date": "2022-12-25T00:00:00", "smokePM_pred": 2.3158307075500502 }, "geometry": { "type": "Polygon", "coordinates": [ [ [ -89.926150313825673, 29.340629236764968 ], [ -89.908156019858524, 29.256344819092746 ], [ -90.00423846465668, 29.240568214874916 ], [ -90.022300099122987, 29.324798431918769 ], [ -89.926150313825673, 29.340629236764968 ] ] ] } },
{ "type": "Feature", "properties": { "ID": 35312, "date": "2022-12-25T00:00:00", "smokePM_pred": 2.37461614608765 }, "geometry": { "type": "Polygon", "coordinates": [ [ [ -89.829923672325805, 29.356398342838737 ], [ -89.811996975405876, 29.272059919471474 ], [ -89.908156019858524, 29.256344819092746 ], [ -89.926150313825673, 29.340629236764968 ], [ -89.829923672325805, 29.356398342838737 ] ] ] } },
{ "type": "Feature", "properties": { "ID": 35313, "date": "2022-12-25T00:00:00", "smokePM_pred": 2.2353105545043901 }, "geometry": { "type": "Polygon", "coordinates": [ [ [ -89.733620425346459, 29.372105551935586 ], [ -89.715761581567421, 29.287713318661236 ], [ -89.811996975405876, 29.272059919471474 ], [ -89.829923672325805, 29.356398342838737 ], [ -89.733620425346459, 29.372105551935586 ] ] ] } },
{ "type": "Feature", "properties": { "ID": 35314, "date": "2022-12-25T00:00:00", "smokePM_pred": 2.0410709381103498 }, "geometry": { "type": "Polygon", "coordinates": [ [ [ -89.63724082510474, 29.387750666307664 ], [ -89.619450090097217, 29.303304819767646 ], [ -89.715761581567421, 29.287713318661236 ], [ -89.733620425346459, 29.372105551935586 ], [ -89.63724082510474, 29.387750666307664 ] ] ] } },
{ "type": "Feature", "properties": { "ID": 35315, "date": "2022-12-25T00:00:00", "smokePM_pred": 1.6155372858047501 }, "geometry": { "type": "Polygon", "coordinates": [ [ [ -89.54078512531099, 29.403333488669698 ], [ -89.52306275423382, 29.318834226357719 ], [ -89.619450090097217, 29.303304819767646 ], [ -89.63724082510474, 29.387750666307664 ], [ -89.54078512531099, 29.403333488669698 ] ] ] } },
{ "type": "Feature", "properties": { "ID": 35316, "date": "2022-12-25T00:00:00", "smokePM_pred": 1.6035529375076301 }, "geometry": { "type": "Polygon", "coordinates": [ [ [ -89.444253581167928, 29.418853822204934 ], [ -89.426599828699452, 29.334301342465746 ], [ -89.52306275423382, 29.318834226357719 ], [ -89.54078512531099, 29.403333488669698 ], [ -89.444253581167928, 29.418853822204934 ] ] ] } },
{ "type": "Feature", "properties": { "ID": 35317, "date": "2022-12-25T00:00:00", "smokePM_pred": 1.6937236785888701 }, "geometry": { "type": "Polygon", "coordinates": [ [ [ -89.34764644936979, 29.434311470571011 ], [ -89.330061569699055, 29.349705972599217 ], [ -89.426599828699452, 29.334301342465746 ], [ -89.444253581167928, 29.418853822204934 ], [ -89.34764644936979, 29.434311470571011 ] ] ] } },
{ "type": "Feature", "properties": { "ID": 35318, "date": "2022-12-25T00:00:00", "smokePM_pred": 1.8538018465042101 }, "geometry": { "type": "Polygon", "coordinates": [ [ [ -89.250963988101333, 29.449706237905964 ], [ -89.233448234919351, 29.365047921744697 ], [ -89.330061569699055, 29.349705972599217 ], [ -89.34764644936979, 29.434311470571011 ], [ -89.250963988101333, 29.449706237905964 ] ] ] } },
{ "type": "Feature", "properties": { "ID": 35319, "date": "2022-12-25T00:00:00", "smokePM_pred": 1.82566249370575 }, "geometry": { "type": "Polygon", "coordinates": [ [ [ -89.15420645703675, 29.465037928834107 ], [ -89.13676008352779, 29.38032699537376 ], [ -89.233448234919351, 29.365047921744697 ], [ -89.250963988101333, 29.449706237905964 ], [ -89.15420645703675, 29.465037928834107 ] ] ] } },
{ "type": "Feature", "properties": { "ID": 35825, "date": "2022-12-25T00:00:00", "smokePM_pred": 2.7568418979644802 }, "geometry": { "type": "Polygon", "coordinates": [ [ [ -90.040438839269441, 29.409017398995225 ], [ -90.022300099122987, 29.324798431918769 ], [ -90.118372778989411, 29.308906126955375 ], [ -90.136578850374391, 29.393070618660136 ], [ -90.040438839269441, 29.409017398995225 ] ] ] } },
{ "type": "Feature", "properties": { "ID": 35826, "date": "2022-12-25T00:00:00", "smokePM_pred": 2.5212757587432901 }, "geometry": { "type": "Polygon", "coordinates": [ [ [ -89.944221464244492, 29.424902485019313 ], [ -89.926150313825673, 29.340629236764968 ], [ -90.022300099122987, 29.324798431918769 ], [ -90.040438839269441, 29.409017398995225 ], [ -89.944221464244492, 29.424902485019313 ] ] ] } },
{ "type": "Feature", "properties": { "ID": 35827, "date": "2022-12-25T00:00:00", "smokePM_pred": 2.7211992740631099 }, "geometry": { "type": "Polygon", "coordinates": [ [ [ -89.8479269749742, 29.440725677218442 ], [ -89.829923672325805, 29.356398342838737 ], [ -89.926150313825673, 29.340629236764968 ], [ -89.944221464244492, 29.424902485019313 ], [ -89.8479269749742, 29.440725677218442 ] ] ] } },
{ "type": "Feature", "properties": { "ID": 35828, "date": "2022-12-25T00:00:00", "smokePM_pred": 2.2704131603240998 }, "geometry": { "type": "Polygon", "coordinates": [ [ [ -89.751555622636758, 29.456486776530483 ], [ -89.733620425346459, 29.372105551935586 ], [ -89.829923672325805, 29.356398342838737 ], [ -89.8479269749742, 29.440725677218442 ], [ -89.751555622636758, 29.456486776530483 ] ] ] } },
{ "type": "Feature", "properties": { "ID": 35829, "date": "2022-12-25T00:00:00", "smokePM_pred": 1.95256972312927 }, "geometry": { "type": "Polygon", "coordinates": [ [ [ -89.655107659913043, 29.472185584351124 ], [ -89.63724082510474, 29.387750666307664 ], [ -89.733620425346459, 29.372105551935586 ], [ -89.751555622636758, 29.456486776530483 ], [ -89.655107659913043, 29.472185584351124 ] ] ] } },
{ "type": "Feature", "properties": { "ID": 35830, "date": "2022-12-25T00:00:00", "smokePM_pred": 1.5788700580596899 }, "geometry": { "type": "Polygon", "coordinates": [ [ [ -89.558583340986047, 29.4878219025398 ], [ -89.54078512531099, 29.403333488669698 ], [ -89.63724082510474, 29.387750666307664 ], [ -89.655107659913043, 29.472185584351124 ], [ -89.558583340986047, 29.4878219025398 ] ] ] } },
{ "type": "Feature", "properties": { "ID": 35831, "date": "2022-12-25T00:00:00", "smokePM_pred": 1.81452023983002 }, "geometry": { "type": "Polygon", "coordinates": [ [ [ -89.461982921539928, 29.50339553342566 ], [ -89.444253581167928, 29.418853822204934 ], [ -89.54078512531099, 29.403333488669698 ], [ -89.558583340986047, 29.4878219025398 ], [ -89.461982921539928, 29.50339553342566 ] ] ] } },
{ "type": "Feature", "properties": { "ID": 35832, "date": "2022-12-25T00:00:00", "smokePM_pred": 1.9539147615432699 }, "geometry": { "type": "Polygon", "coordinates": [ [ [ -89.365306658759124, 29.518906279813486 ], [ -89.34764644936979, 29.434311470571011 ], [ -89.444253581167928, 29.418853822204934 ], [ -89.461982921539928, 29.50339553342566 ], [ -89.365306658759124, 29.518906279813486 ] ] ] } },
{ "type": "Feature", "properties": { "ID": 35833, "date": "2022-12-25T00:00:00", "smokePM_pred": 1.9004709720611599 }, "geometry": { "type": "Polygon", "coordinates": [ [ [ -89.268554811327448, 29.534353944989736 ], [ -89.250963988101333, 29.449706237905964 ], [ -89.34764644936979, 29.434311470571011 ], [ -89.365306658759124, 29.518906279813486 ], [ -89.268554811327448, 29.534353944989736 ] ] ] } },
{ "type": "Feature", "properties": { "ID": 36340, "date": "2022-12-25T00:00:00", "smokePM_pred": 3.2731742858886701 }, "geometry": { "type": "Polygon", "coordinates": [ [ [ -90.058654943586575, 29.493225062572389 ], [ -90.040438839269441, 29.409017398995225 ], [ -90.136578850374391, 29.393070618660136 ], [ -90.154862534100701, 29.477223725816543 ], [ -90.058654943586575, 29.493225062572389 ] ] ] } },
{ "type": "Feature", "properties": { "ID": 36341, "date": "2022-12-25T00:00:00", "smokePM_pred": 3.3349359035491899 }, "geometry": { "type": "Polygon", "coordinates": [ [ [ -89.962369729159221, 29.50916451070723 ], [ -89.944221464244492, 29.424902485019313 ], [ -90.040438839269441, 29.409017398995225 ], [ -90.058654943586575, 29.493225062572389 ], [ -89.962369729159221, 29.50916451070723 ] ] ] } },
{ "type": "Feature", "properties": { "ID": 36342, "date": "2022-12-25T00:00:00", "smokePM_pred": 2.8724284172058101 }, "geometry": { "type": "Polygon", "coordinates": [ [ [ -89.866007140940255, 29.525041869845364 ], [ -89.8479269749742, 29.440725677218442 ], [ -89.944221464244492, 29.424902485019313 ], [ -89.962369729159221, 29.50916451070723 ], [ -89.866007140940255, 29.525041869845364 ] ] ] } },
{ "type": "Feature", "properties": { "ID": 36343, "date": "2022-12-25T00:00:00", "smokePM_pred": 2.2114448547363299 }, "geometry": { "type": "Polygon", "coordinates": [ [ [ -89.769567430563612, 29.540856940064042 ], [ -89.751555622636758, 29.456486776530483 ], [ -89.8479269749742, 29.440725677218442 ], [ -89.866007140940255, 29.525041869845364 ], [ -89.769567430563612, 29.540856940064042 ] ] ] } },
{ "type": "Feature", "properties": { "ID": 36344, "date": "2022-12-25T00:00:00", "smokePM_pred": 1.85756659507751 }, "geometry": { "type": "Polygon", "coordinates": [ [ [ -89.673050851174835, 29.556609521899446 ], [ -89.655107659913043, 29.472185584351124 ], [ -89.751555622636758, 29.456486776530483 ], [ -89.769567430563612, 29.540856940064042 ], [ -89.673050851174835, 29.556609521899446 ] ] ] } },
{ "type": "Feature", "properties": { "ID": 36345, "date": "2022-12-25T00:00:00", "smokePM_pred": 1.7919675111770601 }, "geometry": { "type": "Polygon", "coordinates": [ [ [ -89.576457657430296, 29.572299416352642 ], [ -89.558583340986047, 29.4878219025398 ], [ -89.655107659913043, 29.472185584351124 ], [ -89.673050851174835, 29.556609521899446 ], [ -89.576457657430296, 29.572299416352642 ] ] ] } },
{ "type": "Feature", "properties": { "ID": 36346, "date": "2022-12-25T00:00:00", "smokePM_pred": 1.8538384437561 }, "geometry": { "type": "Polygon", "coordinates": [ [ [ -89.479788105496482, 29.58792642489567 ], [ -89.461982921539928, 29.50339553342566 ], [ -89.558583340986047, 29.4878219025398 ], [ -89.576457657430296, 29.572299416352642 ], [ -89.479788105496482, 29.58792642489567 ] ] ] } },
{ "type": "Feature", "properties": { "ID": 36347, "date": "2022-12-25T00:00:00", "smokePM_pred": 1.89552402496338 }, "geometry": { "type": "Polygon", "coordinates": [ [ [ -89.383042453049015, 29.603490349477433 ], [ -89.365306658759124, 29.518906279813486 ], [ -89.461982921539928, 29.50339553342566 ], [ -89.479788105496482, 29.58792642489567 ], [ -89.383042453049015, 29.603490349477433 ] ] ] } },
{ "type": "Feature", "properties": { "ID": 36853, "date": "2022-12-25T00:00:00", "smokePM_pred": 5.4602570533752397 }, "geometry": { "type": "Polygon", "coordinates": [ [ [ -90.269421374666535, 29.54524753829763 ], [ -90.250992252092942, 29.461160701262379 ], [ -90.347043850467998, 29.445036190173536 ], [ -90.36554027674002, 29.52906800310036 ], [ -90.269421374666535, 29.54524753829763 ] ] ] } },
{ "type": "Feature", "properties": { "ID": 36854, "date": "2022-12-25T00:00:00", "smokePM_pred": 4.8107028007507298 }, "geometry": { "type": "Polygon", "coordinates": [ [ [ -90.173224090601181, 29.561365394266822 ], [ -90.154862534100701, 29.477223725816543 ], [ -90.250992252092942, 29.461160701262379 ], [ -90.269421374666535, 29.54524753829763 ], [ -90.173224090601181, 29.561365394266822 ] ] ] } },
{ "type": "Feature", "properties": { "ID": 36855, "date": "2022-12-25T00:00:00", "smokePM_pred": 3.6673285961151101 }, "geometry": { "type": "Polygon", "coordinates": [ [ [ -90.076948672069051, 29.577421368877364 ], [ -90.058654943586575, 29.493225062572389 ], [ -90.154862534100701, 29.477223725816543 ], [ -90.173224090601181, 29.561365394266822 ], [ -90.076948672069051, 29.577421368877364 ] ] ] } },
{ "type": "Feature", "properties": { "ID": 36856, "date": "2022-12-25T00:00:00", "smokePM_pred": 3.2702596187591602 }, "geometry": { "type": "Polygon", "coordinates": [ [ [ -89.980595368117591, 29.593415260440754 ], [ -89.962369729159221, 29.50916451070723 ], [ -90.058654943586575, 29.493225062572389 ], [ -90.076948672069051, 29.577421368877364 ], [ -89.980595368117591, 29.593415260440754 ] ] ] } },
{ "type": "Feature", "properties": { "ID": 36857, "date": "2022-12-25T00:00:00", "smokePM_pred": 3.0434148311614999 }, "geometry": { "type": "Polygon", "coordinates": [ [ [ -89.884164429315931, 29.609346867716496 ], [ -89.866007140940255, 29.525041869845364 ], [ -89.962369729159221, 29.50916451070723 ], [ -89.980595368117591, 29.593415260440754 ], [ -89.884164429315931, 29.609346867716496 ] ] ] } },
{ "type": "Feature", "properties": { "ID": 36858, "date": "2022-12-25T00:00:00", "smokePM_pred": 2.0432884693145801 }, "geometry": { "type": "Polygon", "coordinates": [ [ [ -89.787656107754458, 29.625215989918146 ], [ -89.769567430563612, 29.540856940064042 ], [ -89.866007140940255, 29.525041869845364 ], [ -89.884164429315931, 29.609346867716496 ], [ -89.787656107754458, 29.625215989918146 ] ] ] } },
{ "type": "Feature", "properties": { "ID": 36859, "date": "2022-12-25T00:00:00", "smokePM_pred": 2.1631338596343999 }, "geometry": { "type": "Polygon", "coordinates": [ [ [ -89.691070657044051, 29.641022426719314 ], [ -89.673050851174835, 29.556609521899446 ], [ -89.769567430563612, 29.540856940064042 ], [ -89.787656107754458, 29.625215989918146 ], [ -89.691070657044051, 29.641022426719314 ] ] ] } },
{ "type": "Feature", "properties": { "ID": 36860, "date": "2022-12-25T00:00:00", "smokePM_pred": 1.9686183929443399 }, "geometry": { "type": "Polygon", "coordinates": [ [ [ -89.594408332315339, 29.656765978259738 ], [ -89.576457657430296, 29.572299416352642 ], [ -89.673050851174835, 29.556609521899446 ], [ -89.691070657044051, 29.641022426719314 ], [ -89.594408332315339, 29.656765978259738 ] ] ] } },
{ "type": "Feature", "properties": { "ID": 36861, "date": "2022-12-25T00:00:00", "smokePM_pred": 1.7843163013458301 }, "geometry": { "type": "Polygon", "coordinates": [ [ [ -89.497669390218036, 29.672446445151223 ], [ -89.479788105496482, 29.58792642489567 ], [ -89.576457657430296, 29.572299416352642 ], [ -89.594408332315339, 29.656765978259738 ], [ -89.497669390218036, 29.672446445151223 ] ] ] } },
{ "type": "Feature", "properties": { "ID": 37368, "date": "2022-12-25T00:00:00", "smokePM_pred": 5.0854630470275897 }, "geometry": { "type": "Polygon", "coordinates": [ [ [ -90.287928879485818, 29.629322800291149 ], [ -90.269421374666535, 29.54524753829763 ], [ -90.36554027674002, 29.52906800310036 ], [ -90.384115331260134, 29.613088158941885 ], [ -90.287928879485818, 29.629322800291149 ] ] ] } },
{ "type": "Feature", "properties": { "ID": 37369, "date": "2022-12-25T00:00:00", "smokePM_pred": 4.6318564414978001 }, "geometry": { "type": "Polygon", "coordinates": [ [ [ -90.191663781822143, 29.645495569608862 ], [ -90.173224090601181, 29.561365394266822 ], [ -90.269421374666535, 29.54524753829763 ], [ -90.287928879485818, 29.629322800291149 ], [ -90.191663781822143, 29.645495569608862 ] ] ] } },
{ "type": "Feature", "properties": { "ID": 37370, "date": "2022-12-25T00:00:00", "smokePM_pred": 4.5236139297485396 }, "geometry": { "type": "Polygon", "coordinates": [ [ [ -90.095320286224549, 29.661606263894555 ], [ -90.076948672069051, 29.577421368877364 ], [ -90.173224090601181, 29.561365394266822 ], [ -90.191663781822143, 29.645495569608862 ], [ -90.095320286224549, 29.661606263894555 ] ] ] } },
{ "type": "Feature", "properties": { "ID": 37371, "date": "2022-12-25T00:00:00", "smokePM_pred": 3.9355161190032999 }, "geometry": { "type": "Polygon", "coordinates": [ [ [ -89.998898642179668, 29.677654680590773 ], [ -89.980595368117591, 29.593415260440754 ], [ -90.076948672069051, 29.577421368877364 ], [ -90.095320286224549, 29.661606263894555 ], [ -89.998898642179668, 29.677654680590773 ] ] ] } },
{ "type": "Feature", "properties": { "ID": 37372, "date": "2022-12-25T00:00:00", "smokePM_pred": 3.1339817047119101 }, "geometry": { "type": "Polygon", "coordinates": [ [ [ -89.902399100704841, 29.6936406175892 ], [ -89.884164429315931, 29.609346867716496 ], [ -89.980595368117591, 29.593415260440754 ], [ -89.998898642179668, 29.677654680590773 ], [ -89.902399100704841, 29.6936406175892 ] ] ] } },
{ "type": "Feature", "properties": { "ID": 37373, "date": "2022-12-25T00:00:00", "smokePM_pred": 2.6856389045715301 }, "geometry": { "type": "Polygon", "coordinates": [ [ [ -89.805821914347547, 29.709563873236629 ], [ -89.787656107754458, 29.625215989918146 ], [ -89.884164429315931, 29.609346867716496 ], [ -89.902399100704841, 29.6936406175892 ], [ -89.805821914347547, 29.709563873236629 ] ] ] } },
{ "type": "Feature", "properties": { "ID": 37374, "date": "2022-12-25T00:00:00", "smokePM_pred": 2.2971649169921902 }, "geometry": { "type": "Polygon", "coordinates": [ [ [ -89.709167337184724, 29.725424246341078 ], [ -89.691070657044051, 29.641022426719314 ], [ -89.787656107754458, 29.625215989918146 ], [ -89.805821914347547, 29.709563873236629 ], [ -89.709167337184724, 29.725424246341078 ] ] ] } },
{ "type": "Feature", "properties": { "ID": 37883, "date": "2022-12-25T00:00:00", "smokePM_pred": 6.8843526840209996 }, "geometry": { "type": "Polygon", "coordinates": [ [ [ -90.306515030449702, 29.713386432206825 ], [ -90.287928879485818, 29.629322800291149 ], [ -90.384115331260134, 29.613088158941885 ], [ -90.402769278348671, 29.697096602274062 ], [ -90.306515030449702, 29.713386432206825 ] ] ] } },
{ "type": "Feature", "properties": { "ID": 37884, "date": "2022-12-25T00:00:00", "smokePM_pred": 5.8033933639526403 }, "geometry": { "type": "Polygon", "coordinates": [ [ [ -90.210181871232237, 29.729614197194604 ], [ -90.191663781822143, 29.645495569608862 ], [ -90.287928879485818, 29.629322800291149 ], [ -90.306515030449702, 29.713386432206825 ], [ -90.210181871232237, 29.729614197194604 ] ] ] } },
{ "type": "Feature", "properties": { "ID": 37885, "date": "2022-12-25T00:00:00", "smokePM_pred": 4.4599070549011204 }, "geometry": { "type": "Polygon", "coordinates": [ [ [ -90.113770049082433, 29.745779693363893 ], [ -90.095320286224549, 29.661606263894555 ], [ -90.191663781822143, 29.645495569608862 ], [ -90.210181871232237, 29.729614197194604 ], [ -90.113770049082433, 29.745779693363893 ] ] ] } },
{ "type": "Feature", "properties": { "ID": 37886, "date": "2022-12-25T00:00:00", "smokePM_pred": 3.80364918708801 }, "geometry": { "type": "Polygon", "coordinates": [ [ [ -90.01727981392672, 29.761882717285307 ], [ -89.998898642179668, 29.677654680590773 ], [ -90.095320286224549, 29.661606263894555 ], [ -90.113770049082433, 29.745779693363893 ], [ -90.01727981392672, 29.761882717285307 ] ] ] } },
{ "type": "Feature", "properties": { "ID": 37887, "date": "2022-12-25T00:00:00", "smokePM_pred": 3.5513963699340798 }, "geometry": { "type": "Polygon", "coordinates": [ [ [ -89.920711417231161, 29.777923065979561 ], [ -89.902399100704841, 29.6936406175892 ], [ -89.998898642179668, 29.677654680590773 ], [ -90.01727981392672, 29.761882717285307 ], [ -89.920711417231161, 29.777923065979561 ] ] ] } },
{ "type": "Feature", "properties": { "ID": 37888, "date": "2022-12-25T00:00:00", "smokePM_pred": 2.7777078151702899 }, "geometry": { "type": "Polygon", "coordinates": [ [ [ -89.824065112000966, 29.793900536923672 ], [ -89.805821914347547, 29.709563873236629 ], [ -89.902399100704841, 29.6936406175892 ], [ -89.920711417231161, 29.777923065979561 ], [ -89.824065112000966, 29.793900536923672 ] ] ] } },
{ "type": "Feature", "properties": { "ID": 38386, "date": "2022-12-25T00:00:00", "smokePM_pred": 4.6836414337158203 }, "geometry": { "type": "Polygon", "coordinates": [ [ [ -91.475752206295056, 29.597247122446124 ], [ -91.456288362455183, 29.513870920804536 ], [ -91.551576861428387, 29.496852367048191 ], [ -91.571105514229458, 29.580171049667104 ], [ -91.475752206295056, 29.597247122446124 ] ] ] } },
{ "type": "Feature", "properties": { "ID": 38387, "date": "2022-12-25T00:00:00", "smokePM_pred": 4.7401289939880398 }, "geometry": { "type": "Polygon", "coordinates": [ [ [ -91.380316855187203, 29.614263426755951 ], [ -91.360918091755252, 29.530829888534146 ], [ -91.456288362455183, 29.513870920804536 ], [ -91.475752206295056, 29.597247122446124 ], [ -91.380316855187203, 29.614263426755951 ] ] ] } },
{ "type": "Feature", "properties": { "ID": 38388, "date": "2022-12-25T00:00:00", "smokePM_pred": 5.2000160217285201 }, "geometry": { "type": "Polygon", "coordinates": [ [ [ -91.284799691119176, 29.631219752979742 ], [ -91.265466279217549, 29.547729061505983 ], [ -91.360918091755252, 29.530829888534146 ], [ -91.380316855187203, 29.614263426755951 ], [ -91.284799691119176, 29.631219752979742 ] ] ] } },
{ "type": "Feature", "properties": { "ID": 38394, "date": "2022-12-25T00:00:00", "smokePM_pred": 4.7386031150817898 }, "geometry": { "type": "Polygon", "coordinates": [ [ [ -90.709991721808635, 29.731686479644377 ], [ -90.691056093383864, 29.647856768074742 ], [ -90.786992242964217, 29.631320725766503 ], [ -90.805994842348184, 29.715094402618323 ], [ -90.709991721808635, 29.731686479644377 ] ] ] } },
{ "type": "Feature", "properties": { "ID": 38395, "date": "2022-12-25T00:00:00", "smokePM_pred": 6.69333791732788 }, "geometry": { "type": "Polygon", "coordinates": [ [ [ -90.613908443210676, 29.748217122029573 ], [ -90.595040054349724, 29.664331565251594 ], [ -90.691056093383864, 29.647856768074742 ], [ -90.709991721808635, 29.731686479644377 ], [ -90.613908443210676, 29.748217122029573 ] ] ] } },
{ "type": "Feature", "properties": { "ID": 38396, "date": "2022-12-25T00:00:00", "smokePM_pred": 6.7756633758544904 }, "geometry": { "type": "Polygon", "coordinates": [ [ [ -90.517745249171341, 29.764686123304855 ], [ -90.498944368083542, 29.680744911707833 ], [ -90.595040054349724, 29.664331565251594 ], [ -90.613908443210676, 29.748217122029573 ], [ -90.517745249171341, 29.764686123304855 ] ] ] } },
{ "type": "Feature", "properties": { "ID": 38398, "date": "2022-12-25T00:00:00", "smokePM_pred": 8.0946760177612305 }, "geometry": { "type": "Polygon", "coordinates": [ [ [ -90.325180092988901, 29.797438378759139 ], [ -90.306515030449702, 29.713386432206825 ], [ -90.402769278348671, 29.697096602274062 ], [ -90.421502383858154, 29.781093277421867 ], [ -90.325180092988901, 29.797438378759139 ] ] ] } },
{ "type": "Feature", "properties": { "ID": 38399, "date": "2022-12-25T00:00:00", "smokePM_pred": 8.9513645172119105 }, "geometry": { "type": "Polygon", "coordinates": [ [ [ -90.228778623831332, 29.813721222128059 ], [ -90.210181871232237, 29.729614197194604 ], [ -90.306515030449702, 29.713386432206825 ], [ -90.325180092988901, 29.797438378759139 ], [ -90.228778623831332, 29.813721222128059 ] ] ] } },
{ "type": "Feature", "properties": { "ID": 38400, "date": "2022-12-25T00:00:00", "smokePM_pred": 5.2373399734497097 }, "geometry": { "type": "Polygon", "coordinates": [ [ [ -90.132298225202874, 29.829941602779069 ], [ -90.113770049082433, 29.745779693363893 ], [ -90.210181871232237, 29.729614197194604 ], [ -90.228778623831332, 29.813721222128059 ], [ -90.132298225202874, 29.829941602779069 ] ] ] } },
{ "type": "Feature", "properties": { "ID": 38401, "date": "2022-12-25T00:00:00", "smokePM_pred": 3.4278306961059601 }, "geometry": { "type": "Polygon", "coordinates": [ [ [ -90.035739147470139, 29.846099316407681 ], [ -90.01727981392672, 29.761882717285307 ], [ -90.113770049082433, 29.745779693363893 ], [ -90.132298225202874, 29.829941602779069 ], [ -90.035739147470139, 29.846099316407681 ] ] ] } },
{ "type": "Feature", "properties": { "ID": 38901, "date": "2022-12-25T00:00:00", "smokePM_pred": 5.5453171730041504 }, "geometry": { "type": "Polygon", "coordinates": [ [ [ -91.495298093566674, 29.680610578273949 ], [ -91.475752206295056, 29.597247122446124 ], [ -91.571105514229458, 29.580171049667104 ], [ -91.59071643912597, 29.663476902181678 ], [ -91.495298093566674, 29.680610578273949 ] ] ] } },
{ "type": "Feature", "properties": { "ID": 38902, "date": "2022-12-25T00:00:00", "smokePM_pred": 5.2265944480895996 }, "geometry": { "type": "Polygon", "coordinates": [ [ [ -91.399797431837627, 29.697684303381475 ], [ -91.380316855187203, 29.614263426755951 ], [ -91.475752206295056, 29.597247122446124 ], [ -91.495298093566674, 29.680610578273949 ], [ -91.399797431837627, 29.697684303381475 ] ] ] } },
{ "type": "Feature", "properties": { "ID": 38903, "date": "2022-12-25T00:00:00", "smokePM_pred": 4.68926954269409 }, "geometry": { "type": "Polygon", "coordinates": [ [ [ -91.304214684476179, 29.71469786699852 ], [ -91.284799691119176, 29.631219752979742 ], [ -91.380316855187203, 29.614263426755951 ], [ -91.399797431837627, 29.697684303381475 ], [ -91.304214684476179, 29.71469786699852 ] ] ] } },
{ "type": "Feature", "properties": { "ID": 38909, "date": "2022-12-25T00:00:00", "smokePM_pred": 5.8334531784057599 }, "geometry": { "type": "Polygon", "coordinates": [ [ [ -90.729007508550254, 29.815504116837491 ], [ -90.709991721808635, 29.731686479644377 ], [ -90.805994842348184, 29.715094402618323 ], [ -90.825077841115444, 29.798855921473095 ], [ -90.729007508550254, 29.815504116837491 ] ] ] } },
{ "type": "Feature", "properties": { "ID": 38910, "date": "2022-12-25T00:00:00", "smokePM_pred": 6.1678199768066397 }, "geometry": { "type": "Polygon", "coordinates": [ [ [ -90.632856747771413, 29.832090687954082 ], [ -90.613908443210676, 29.748217122029573 ], [ -90.709991721808635, 29.731686479644377 ], [ -90.729007508550254, 29.815504116837491 ], [ -90.632856747771413, 29.832090687954082 ] ] ] } },
{ "type": "Feature", "properties": { "ID": 38913, "date": "2022-12-25T00:00:00", "smokePM_pred": 7.2647814750671396 }, "geometry": { "type": "Polygon", "coordinates": [ [ [ -90.343924334074671, 29.881478584411365 ], [ -90.325180092988901, 29.797438378759139 ], [ -90.421502383858154, 29.781093277421867 ], [ -90.440314915182029, 29.865078128457512 ], [ -90.343924334074671, 29.881478584411365 ] ] ] } },
{ "type": "Feature", "properties": { "ID": 38914, "date": "2022-12-25T00:00:00", "smokePM_pred": 6.7915110588073704 }, "geometry": { "type": "Polygon", "coordinates": [ [ [ -90.247454306159554, 29.897816589263687 ], [ -90.228778623831332, 29.813721222128059 ], [ -90.325180092988901, 29.797438378759139 ], [ -90.343924334074671, 29.881478584411365 ], [ -90.247454306159554, 29.897816589263687 ] ] ] } },
{ "type": "Feature", "properties": { "ID": 38915, "date": "2022-12-25T00:00:00", "smokePM_pred": 4.5700411796569798 }, "geometry": { "type": "Polygon", "coordinates": [ [ [ -90.150905080685703, 29.914091937385713 ], [ -90.132298225202874, 29.829941602779069 ], [ -90.228778623831332, 29.813721222128059 ], [ -90.247454306159554, 29.897816589263687 ], [ -90.150905080685703, 29.914091937385713 ] ] ] } },
{ "type": "Feature", "properties": { "ID": 39415, "date": "2022-12-25T00:00:00", "smokePM_pred": 7.0250949859619096 }, "geometry": { "type": "Polygon", "coordinates": [ [ [ -91.610409909430871, 29.74676986371081 ], [ -91.59071643912597, 29.663476902181678 ], [ -91.686052239536494, 29.64628348597731 ], [ -91.705810701575828, 29.729518577816403 ], [ -91.610409909430871, 29.74676986371081 ] ] ] } },
{ "type": "Feature", "properties": { "ID": 39416, "date": "2022-12-25T00:00:00", "smokePM_pred": 7.01540327072144 }, "geometry": { "type": "Polygon", "coordinates": [ [ [ -91.514926297267735, 29.763961227797179 ], [ -91.495298093566674, 29.680610578273949 ], [ -91.59071643912597, 29.663476902181678 ], [ -91.610409909430871, 29.74676986371081 ], [ -91.514926297267735, 29.763961227797179 ] ] ] } },
{ "type": "Feature", "properties": { "ID": 39417, "date": "2022-12-25T00:00:00", "smokePM_pred": 5.3222904205322301 }, "geometry": { "type": "Polygon", "coordinates": [ [ [ -91.419360094380238, 29.781092458310368 ], [ -91.399797431837627, 29.697684303381475 ], [ -91.495298093566674, 29.680610578273949 ], [ -91.514926297267735, 29.763961227797179 ], [ -91.419360094380238, 29.781092458310368 ] ] ] } },
{ "type": "Feature", "properties": { "ID": 39422, "date": "2022-12-25T00:00:00", "smokePM_pred": 5.3784017562866202 }, "geometry": { "type": "Polygon", "coordinates": [ [ [ -90.940298354085002, 29.865839221565821 ], [ -90.921067504014161, 29.782146309628391 ], [ -91.016976257353249, 29.765375489480316 ], [ -91.036274016322508, 29.84901182231954 ], [ -90.940298354085002, 29.865839221565821 ] ] ] } },
{ "type": "Feature", "properties": { "ID": 39423, "date": "2022-12-25T00:00:00", "smokePM_pred": 5.4313278198242196 }, "geometry": { "type": "Polygon", "coordinates": [ [ [ -90.844241509809137, 29.882605224578985 ], [ -90.825077841115444, 29.798855921473095 ], [ -90.921067504014161, 29.782146309628391 ], [ -90.940298354085002, 29.865839221565821 ], [ -90.844241509809137, 29.882605224578985 ] ] ] } },
{ "type": "Feature", "properties": { "ID": 39930, "date": "2022-12-25T00:00:00", "smokePM_pred": 8.2416877746581996 }, "geometry": { "type": "Polygon", "coordinates": [ [ [ -91.630186200015075, 29.830049873098346 ], [ -91.610409909430871, 29.74676986371081 ], [ -91.705810701575828, 29.729518577816403 ], [ -91.725652211621437, 29.812740632371856 ], [ -91.630186200015075, 29.830049873098346 ] ] ] } },
{ "type": "Feature", "properties": { "ID": 39931, "date": "2022-12-25T00:00:00", "smokePM_pred": 7.0652012825012198 }, "geometry": { "type": "Polygon", "coordinates": [ [ [ -91.53463709195438, 29.847299010251362 ], [ -91.514926297267735, 29.763961227797179 ], [ -91.610409909430871, 29.74676986371081 ], [ -91.630186200015075, 29.830049873098346 ], [ -91.53463709195438, 29.847299010251362 ] ] ] } },
{ "type": "Feature", "properties": { "ID": 39932, "date": "2022-12-25T00:00:00", "smokePM_pred": 6.3723878860473597 }, "geometry": { "type": "Polygon", "coordinates": [ [ [ -91.4390051170475, 29.864487831170273 ], [ -91.419360094380238, 29.781092458310368 ], [ -91.514926297267735, 29.763961227797179 ], [ -91.53463709195438, 29.847299010251362 ], [ -91.4390051170475, 29.864487831170273 ] ] ] } },
{ "type": "Feature", "properties": { "ID": 39936, "date": "2022-12-25T00:00:00", "smokePM_pred": 5.0386805534362802 }, "geometry": { "type": "Polygon", "coordinates": [ [ [ -91.055653196293406, 29.932635712303384 ], [ -91.036274016322508, 29.84901182231954 ], [ -91.132168257819828, 29.832123236308824 ], [ -91.151614310975233, 29.915690275473853 ], [ -91.055653196293406, 29.932635712303384 ] ] ] } },
{ "type": "Feature", "properties": { "ID": 39937, "date": "2022-12-25T00:00:00", "smokePM_pred": 4.6702127456665004 }, "geometry": { "type": "Polygon", "coordinates": [ [ [ -90.959610386455637, 29.949519775239313 ], [ -90.940298354085002, 29.865839221565821 ], [ -91.036274016322508, 29.84901182231954 ], [ -91.055653196293406, 29.932635712303384 ], [ -90.959610386455637, 29.949519775239313 ] ] ] } },
{ "type": "Feature", "properties": { "ID": 39938, "date": "2022-12-25T00:00:00", "smokePM_pred": 5.4511251449584996 }, "geometry": { "type": "Polygon", "coordinates": [ [ [ -90.863486120532087, 29.966342253921383 ], [ -90.844241509809137, 29.882605224578985 ], [ -90.940298354085002, 29.865839221565821 ], [ -90.959610386455637, 29.949519775239313 ], [ -90.863486120532087, 29.966342253921383 ] ] ] } },
{ "type": "Feature", "properties": { "ID": 39939, "date": "2022-12-25T00:00:00", "smokePM_pred": 5.7686748504638699 }, "geometry": { "type": "Polygon", "coordinates": [ [ [ -90.767280639170664, 29.983102938394232 ], [ -90.748103723765482, 29.89930962229441 ], [ -90.844241509809137, 29.882605224578985 ], [ -90.863486120532087, 29.966342253921383 ], [ -90.767280639170664, 29.983102938394232 ] ] ] } },
{ "type": "Feature", "properties": { "ID": 40407, "date": "2022-12-25T00:00:00", "smokePM_pred": 3.1289496421814 }, "geometry": { "type": "Polygon", "coordinates": [ [ [ -95.219671724990931, 29.212960412796193 ], [ -95.197522843203188, 29.132018538844914 ], [ -95.289676526761951, 29.112585971518811 ], [ -95.31188014488913, 29.193463563843437 ], [ -95.219671724990931, 29.212960412796193 ] ] ] } },
{ "type": "Feature", "properties": { "ID": 40408, "date": "2022-12-25T00:00:00", "smokePM_pred": 2.8556663990020801 }, "geometry": { "type": "Polygon", "coordinates": [ [ [ -95.127372357516293, 29.232405305283724 ], [ -95.105278495642935, 29.151399297265758 ], [ -95.197522843203188, 29.132018538844914 ], [ -95.219671724990931, 29.212960412796193 ], [ -95.127372357516293, 29.232405305283724 ] ] ] } },
{ "type": "Feature", "properties": { "ID": 40445, "date": "2022-12-25T00:00:00", "smokePM_pred": 6.6633343696594203 }, "geometry": { "type": "Polygon", "coordinates": [ [ [ -91.6500455873162, 29.913316868911178 ], [ -91.630186200015075, 29.830049873098346 ], [ -91.725652211621437, 29.812740632371856 ], [ -91.745577046416344, 29.895949587817626 ], [ -91.6500455873162, 29.913316868911178 ] ] ] } },
{ "type": "Feature", "properties": { "ID": 40446, "date": "2022-12-25T00:00:00", "smokePM_pred": 7.3464775085449201 }, "geometry": { "type": "Polygon", "coordinates": [ [ [ -91.554430753749926, 29.93062386459669 ], [ -91.53463709195438, 29.847299010251362 ], [ -91.630186200015075, 29.830049873098346 ], [ -91.6500455873162, 29.913316868911178 ], [ -91.554430753749926, 29.93062386459669 ] ] ] } },
{ "type": "Feature", "properties": { "ID": 40447, "date": "2022-12-25T00:00:00", "smokePM_pred": 7.8688588142395002 }, "geometry": { "type": "Polygon", "coordinates": [ [ [ -91.45873277563949, 29.947870361314898 ], [ -91.4390051170475, 29.864487831170273 ], [ -91.53463709195438, 29.847299010251362 ], [ -91.554430753749926, 29.93062386459669 ], [ -91.45873277563949, 29.947870361314898 ] ] ] } },
{ "type": "Feature", "properties": { "ID": 40451, "date": "2022-12-25T00:00:00", "smokePM_pred": 5.6081361770629901 }, "geometry": { "type": "Polygon", "coordinates": [ [ [ -91.075114071683188, 30.016247100362687 ], [ -91.055653196293406, 29.932635712303384 ], [ -91.151614310975233, 29.915690275473853 ], [ -91.171142297041982, 29.999244727640384 ], [ -91.075114071683188, 30.016247100362687 ] ] ] } },
{ "type": "Feature", "properties": { "ID": 40452, "date": "2022-12-25T00:00:00", "smokePM_pred": 6.12117624282837 }, "geometry": { "type": "Polygon", "coordinates": [ [ [ -90.979003875175025, 30.033187911974562 ], [ -90.959610386455637, 29.949519775239313 ], [ -91.055653196293406, 29.932635712303384 ], [ -91.075114071683188, 30.016247100362687 ], [ -90.979003875175025, 30.033187911974562 ] ] ] } },
{ "type": "Feature", "properties": { "ID": 40453, "date": "2022-12-25T00:00:00", "smokePM_pred": 5.37569379806519 }, "geometry": { "type": "Polygon", "coordinates": [ [ [ -90.882811946955869, 30.050066951221091 ], [ -90.863486120532087, 29.966342253921383 ], [ -90.959610386455637, 29.949519775239313 ], [ -90.979003875175025, 30.033187911974562 ], [ -90.882811946955869, 30.050066951221091 ] ] ] } },
{ "type": "Feature", "properties": { "ID": 40454, "date": "2022-12-25T00:00:00", "smokePM_pred": 4.6842484474182102 }, "geometry": { "type": "Polygon", "coordinates": [ [ [ -90.786538528050912, 30.066884007253019 ], [ -90.767280639170664, 29.983102938394232 ], [ -90.863486120532087, 29.966342253921383 ], [ -90.882811946955869, 30.050066951221091 ], [ -90.786538528050912, 30.066884007253019 ] ] ] } },
{ "type": "Feature", "properties": { "ID": 40922, "date": "2022-12-25T00:00:00", "smokePM_pred": 2.96510887145996 }, "geometry": { "type": "Polygon", "coordinates": [ [ [ -95.241911554608805, 29.293885925051647 ], [ -95.219671724990931, 29.212960412796193 ], [ -95.31188014488913, 29.193463563843437 ], [ -95.334174879940065, 29.27432470811404 ], [ -95.241911554608805, 29.293885925051647 ] ] ] } },
{ "type": "Feature", "properties": { "ID": 40923, "date": "2022-12-25T00:00:00", "smokePM_pred": 3.14682221412659 }, "geometry": { "type": "Polygon", "coordinates": [ [ [ -95.149556996604176, 29.313395038004764 ], [ -95.127372357516293, 29.232405305283724 ], [ -95.219671724990931, 29.212960412796193 ], [ -95.241911554608805, 29.293885925051647 ], [ -95.149556996604176, 29.313395038004764 ] ] ] } },
{ "type": "Feature", "properties": { "ID": 40960, "date": "2022-12-25T00:00:00", "smokePM_pred": 6.9486870765686 }, "geometry": { "type": "Polygon", "coordinates": [ [ [ -91.669988349347548, 29.99657078943725 ], [ -91.6500455873162, 29.913316868911178 ], [ -91.745577046416344, 29.895949587817626 ], [ -91.765585484278731, 29.979145382047239 ], [ -91.669988349347548, 29.99657078943725 ] ] ] } },
{ "type": "Feature", "properties": { "ID": 40961, "date": "2022-12-25T00:00:00", "smokePM_pred": 9.9886035919189506 }, "geometry": { "type": "Polygon", "coordinates": [ [ [ -91.574307560353844, 30.013935729515836 ], [ -91.554430753749926, 29.93062386459669 ], [ -91.6500455873162, 29.913316868911178 ], [ -91.669988349347548, 29.99657078943725 ], [ -91.574307560353844, 30.013935729515836 ] ] ] } },
{ "type": "Feature", "properties": { "ID": 40965, "date": "2022-12-25T00:00:00", "smokePM_pred": 5.4819650650024396 }, "geometry": { "type": "Polygon", "coordinates": [ [ [ -91.19075249237406, 30.082786533073278 ], [ -91.171142297041982, 29.999244727640384 ], [ -91.267088313399881, 29.982181005462035 ], [ -91.28676557932134, 30.065665603126238 ], [ -91.19075249237406, 30.082786533073278 ] ] ] } },
{ "type": "Feature", "properties": { "ID": 40966, "date": "2022-12-25T00:00:00", "smokePM_pred": 5.1974196434020996 }, "geometry": { "type": "Polygon", "coordinates": [ [ [ -91.094656918486805, 30.09984592715853 ], [ -91.075114071683188, 30.016247100362687 ], [ -91.171142297041982, 29.999244727640384 ], [ -91.19075249237406, 30.082786533073278 ], [ -91.094656918486805, 30.09984592715853 ] ] ] } },
{ "type": "Feature", "properties": { "ID": 40967, "date": "2022-12-25T00:00:00", "smokePM_pred": 5.5057659149169904 }, "geometry": { "type": "Polygon", "coordinates": [ [ [ -90.998479095869953, 30.116843572829087 ], [ -90.979003875175025, 30.033187911974562 ], [ -91.075114071683188, 30.016247100362687 ], [ -91.094656918486805, 30.09984592715853 ], [ -90.998479095869953, 30.116843572829087 ] ] ] } },
{ "type": "Feature", "properties": { "ID": 40968, "date": "2022-12-25T00:00:00", "smokePM_pred": 5.2105331420898402 }, "geometry": { "type": "Polygon", "coordinates": [ [ [ -90.902219264329915, 30.133779257932293 ], [ -90.882811946955869, 30.050066951221091 ], [ -90.979003875175025, 30.033187911974562 ], [ -90.998479095869953, 30.116843572829087 ], [ -90.902219264329915, 30.133779257932293 ] ] ] } },
{ "type": "Feature", "properties": { "ID": 40969, "date": "2022-12-25T00:00:00", "smokePM_pred": 4.4421982765197798 }, "geometry": { "type": "Polygon", "coordinates": [ [ [ -90.805877665269179, 30.150652770721848 ], [ -90.786538528050912, 30.066884007253019 ], [ -90.882811946955869, 30.050066951221091 ], [ -90.902219264329915, 30.133779257932293 ], [ -90.805877665269179, 30.150652770721848 ] ] ] } },
{ "type": "Feature", "properties": { "ID": 41021, "date": "2022-12-25T00:00:00", "smokePM_pred": 3.6384184360504199 }, "geometry": { "type": "Polygon", "coordinates": [ [ [ -85.689969130928461, 30.937312385319007 ], [ -85.674544263664515, 30.850890311506468 ], [ -85.774683917200008, 30.837574743029542 ], [ -85.790190605109828, 30.923951398998959 ], [ -85.689969130928461, 30.937312385319007 ] ] ] } },
{ "type": "Feature", "properties": { "ID": 41474, "date": "2022-12-25T00:00:00", "smokePM_pred": 6.22936916351318 }, "geometry": { "type": "Polygon", "coordinates": [ [ [ -91.785677805110694, 30.062327952671737 ], [ -91.765585484278731, 29.979145382047239 ], [ -91.861098736505824, 29.96165972216977 ], [ -91.881256680316611, 30.044783899105891 ], [ -91.785677805110694, 30.062327952671737 ] ] ] } },
{ "type": "Feature", "properties": { "ID": 41475, "date": "2022-12-25T00:00:00", "smokePM_pred": 6.4338717460632298 }, "geometry": { "type": "Polygon", "coordinates": [ [ [ -91.690014765707005, 30.079811572683592 ], [ -91.669988349347548, 29.99657078943725 ], [ -91.765585484278731, 29.979145382047239 ], [ -91.785677805110694, 30.062327952671737 ], [ -91.690014765707005, 30.079811572683592 ] ] ] } },
{ "type": "Feature", "properties": { "ID": 41480, "date": "2022-12-25T00:00:00", "smokePM_pred": 7.3232488632202104 }, "geometry": { "type": "Polygon", "coordinates": [ [ [ -91.210445174912081, 30.166315631764228 ], [ -91.19075249237406, 30.082786533073278 ], [ -91.28676557932134, 30.065665603126238 ], [ -91.306525569063325, 30.149137408096532 ], [ -91.210445174912081, 30.166315631764228 ] ] ] } },
{ "type": "Feature", "properties": { "ID": 41481, "date": "2022-12-25T00:00:00", "smokePM_pred": 7.1232628822326696 }, "geometry": { "type": "Polygon", "coordinates": [ [ [ -91.11428201428599, 30.183432133080363 ], [ -91.094656918486805, 30.09984592715853 ], [ -91.19075249237406, 30.082786533073278 ], [ -91.210445174912081, 30.166315631764228 ], [ -91.11428201428599, 30.183432133080363 ] ] ] } },
{ "type": "Feature", "properties": { "ID": 41482, "date": "2022-12-25T00:00:00", "smokePM_pred": 5.2728762626648003 }, "geometry": { "type": "Polygon", "coordinates": [ [ [ -91.018036325754096, 30.200486698590417 ], [ -90.998479095869953, 30.116843572829087 ], [ -91.094656918486805, 30.09984592715853 ], [ -91.11428201428599, 30.183432133080363 ], [ -91.018036325754096, 30.200486698590417 ] ] ] } },
{ "type": "Feature", "properties": { "ID": 41483, "date": "2022-12-25T00:00:00", "smokePM_pred": 5.2364048957824698 }, "geometry": { "type": "Polygon", "coordinates": [ [ [ -90.921708349490672, 30.21747911524076 ], [ -90.902219264329915, 30.133779257932293 ], [ -90.998479095869953, 30.116843572829087 ], [ -91.018036325754096, 30.200486698590417 ], [ -90.921708349490672, 30.21747911524076 ] ] ] } },
{ "type": "Feature", "properties": { "ID": 41535, "date": "2022-12-25T00:00:00", "smokePM_pred": 3.5889904499053999 }, "geometry": { "type": "Polygon", "coordinates": [ [ [ -85.805764328015641, 31.010319857059841 ], [ -85.790190605109828, 30.923951398998959 ], [ -85.890345044545555, 30.910517945338139 ], [ -85.906000666899175, 30.996840675168553 ], [ -85.805764328015641, 31.010319857059841 ] ] ] } },
{ "type": "Feature", "properties": { "ID": 41536, "date": "2022-12-25T00:00:00", "smokePM_pred": 3.3757693767547599 }, "geometry": { "type": "Polygon", "coordinates": [ [ [ -85.705460708801766, 31.023726337491009 ], [ -85.689969130928461, 30.937312385319007 ], [ -85.790190605109828, 30.923951398998959 ], [ -85.805764328015641, 31.010319857059841 ], [ -85.705460708801766, 31.023726337491009 ] ] ] } },
{ "type": "Feature", "properties": { "ID": 41989, "date": "2022-12-25T00:00:00", "smokePM_pred": 6.0838708877563503 }, "geometry": { "type": "Polygon", "coordinates": [ [ [ -91.805854290407467, 30.145497237017832 ], [ -91.785677805110694, 30.062327952671737 ], [ -91.881256680316611, 30.044783899105891 ], [ -91.901499015935244, 30.127894702975745 ], [ -91.805854290407467, 30.145497237017832 ] ] ] } },
{ "type": "Feature", "properties": { "ID": 41990, "date": "2022-12-25T00:00:00", "smokePM_pred": 6.1815662384033203 }, "geometry": { "type": "Polygon", "coordinates": [ [ [ -91.710125117586131, 30.163039156374346 ], [ -91.690014765707005, 30.079811572683592 ], [ -91.785677805110694, 30.062327952671737 ], [ -91.805854290407467, 30.145497237017832 ], [ -91.710125117586131, 30.163039156374346 ] ] ] } },
{ "type": "Feature", "properties": { "ID": 41995, "date": "2022-12-25T00:00:00", "smokePM_pred": 6.2259936332702601 }, "geometry": { "type": "Polygon", "coordinates": [ [ [ -91.230220624192413, 30.249831963429802 ], [ -91.210445174912081, 30.166315631764228 ], [ -91.306525569063325, 30.149137408096532 ], [ -91.326368562511618, 30.232596359690362 ], [ -91.230220624192413, 30.249831963429802 ] ] ] } },
{ "type": "Feature", "properties": { "ID": 41996, "date": "2022-12-25T00:00:00", "smokePM_pred": 6.4572262763976997 }, "geometry": { "type": "Polygon", "coordinates": [ [ [ -91.133989638258527, 30.26700565824417 ], [ -91.11428201428599, 30.183432133080363 ], [ -91.210445174912081, 30.166315631764228 ], [ -91.230220624192413, 30.249831963429802 ], [ -91.133989638258527, 30.26700565824417 ] ] ] } },
{ "type": "Feature", "properties": { "ID": 42457, "date": "2022-12-25T00:00:00", "smokePM_pred": 3.1849606037139901 }, "geometry": { "type": "Polygon", "coordinates": [ [ [ -96.229298398734983, 29.336687991427194 ], [ -96.206242913334435, 29.256464801242529 ], [ -96.29768943836342, 29.236263047974191 ], [ -96.320797441823402, 29.316420184818362 ], [ -96.229298398734983, 29.336687991427194 ] ] ] } },
{ "type": "Feature", "properties": { "ID": 42458, "date": "2022-12-25T00:00:00", "smokePM_pred": 3.2373492717742902 }, "geometry": { "type": "Polygon", "coordinates": [ [ [ -96.137705637692591, 29.356905525931051 ], [ -96.114702959484831, 29.276616420742361 ], [ -96.206242913334435, 29.256464801242529 ], [ -96.229298398734983, 29.336687991427194 ], [ -96.137705637692591, 29.356905525931051 ] ] ] } },
{ "type": "Feature", "properties": { "ID": 42504, "date": "2022-12-25T00:00:00", "smokePM_pred": 5.84639644622803 }, "geometry": { "type": "Polygon", "coordinates": [ [ [ -91.826115223266342, 30.228653172125661 ], [ -91.805854290407467, 30.145497237017832 ], [ -91.901499015935244, 30.127894702975745 ], [ -91.921826026752868, 30.210992070420886 ], [ -91.826115223266342, 30.228653172125661 ] ] ] } },
{ "type": "Feature", "properties": { "ID": 42505, "date": "2022-12-25T00:00:00", "smokePM_pred": 6.1237592697143599 }, "geometry": { "type": "Polygon", "coordinates": [ [ [ -91.730319687779257, 30.246253477948695 ], [ -91.710125117586131, 30.163039156374346 ], [ -91.805854290407467, 30.145497237017832 ], [ -91.826115223266342, 30.228653172125661 ], [ -91.730319687779257, 30.246253477948695 ] ] ] } },
{ "type": "Feature", "properties": { "ID": 42972, "date": "2022-12-25T00:00:00", "smokePM_pred": 3.2491493225097701 }, "geometry": { "type": "Polygon", "coordinates": [ [ [ -96.252447602343324, 29.416893635301651 ], [ -96.229298398734983, 29.336687991427194 ], [ -96.320797441823402, 29.316420184818362 ], [ -96.343999317141524, 29.39655968809631 ], [ -96.252447602343324, 29.416893635301651 ] ] ] } },
{ "type": "Feature", "properties": { "ID": 42973, "date": "2022-12-25T00:00:00", "smokePM_pred": 2.97901058197021 }, "geometry": { "type": "Polygon", "coordinates": [ [ [ -96.160801878934976, 29.437177172136547 ], [ -96.137705637692591, 29.356905525931051 ], [ -96.229298398734983, 29.336687991427194 ], [ -96.252447602343324, 29.416893635301651 ], [ -96.160801878934976, 29.437177172136547 ] ] ] } },
{ "type": "Feature", "properties": { "ID": 43024, "date": "2022-12-25T00:00:00", "smokePM_pred": 5.4746685028076199 }, "geometry": { "type": "Polygon", "coordinates": [ [ [ -91.366304688102929, 30.399475458623055 ], [ -91.346294841156691, 30.316042396946507 ], [ -91.442426992926286, 30.29868744646479 ], [ -91.462504574289156, 30.38206276833542 ], [ -91.366304688102929, 30.399475458623055 ] ] ] } },
{ "type": "Feature", "properties": { "ID": 43538, "date": "2022-12-25T00:00:00", "smokePM_pred": 6.2600007057189897 }, "geometry": { "type": "Polygon", "coordinates": [ [ [ -91.48266624505834, 30.465424965464329 ], [ -91.462504574289156, 30.38206276833542 ], [ -91.558620371341107, 30.364588229266193 ], [ -91.578849726207082, 30.44789241395917 ], [ -91.48266624505834, 30.465424965464329 ] ] ] } },
{ "type": "Feature", "properties": { "ID": 43539, "date": "2022-12-25T00:00:00", "smokePM_pred": 7.1215138435363796 }, "geometry": { "type": "Polygon", "coordinates": [ [ [ -91.386398388078049, 30.482895483195463 ], [ -91.366304688102929, 30.399475458623055 ], [ -91.462504574289156, 30.38206276833542 ], [ -91.48266624505834, 30.465424965464329 ], [ -91.386398388078049, 30.482895483195463 ] ] ] } },
{ "type": "Feature", "properties": { "ID": 44053, "date": "2022-12-25T00:00:00", "smokePM_pred": 6.9325642585754403 }, "geometry": { "type": "Polygon", "coordinates": [ [ [ -91.502912291932716, 30.548773975637062 ], [ -91.48266624505834, 30.465424965464329 ], [ -91.578849726207082, 30.44789241395917 ], [ -91.599163692252489, 30.531183323577089 ], [ -91.502912291932716, 30.548773975637062 ] ] ] } },
{ "type": "Feature", "properties": { "ID": 44054, "date": "2022-12-25T00:00:00", "smokePM_pred": 6.9508466720581001 }, "geometry": { "type": "Polygon", "coordinates": [ [ [ -91.406576227442443, 30.566302408854405 ], [ -91.386398388078049, 30.482895483195463 ], [ -91.48266624505834, 30.465424965464329 ], [ -91.502912291932716, 30.548773975637062 ], [ -91.406576227442443, 30.566302408854405 ] ] ] } },
{ "type": "Feature", "properties": { "ID": 44662, "date": "2022-12-25T00:00:00", "smokePM_pred": 3.36398100852966 }, "geometry": { "type": "Polygon", "coordinates": [ [ [ -82.127996194742579, 31.983679729422438 ], [ -82.115288364979236, 31.895824541254726 ], [ -82.218243276748566, 31.884966604710655 ], [ -82.231043701825101, 31.972784849117993 ], [ -82.127996194742579, 31.983679729422438 ] ] ] } },
{ "type": "Feature", "properties": { "ID": 44663, "date": "2022-12-25T00:00:00", "smokePM_pred": 3.2832009792327899 }, "geometry": { "type": "Polygon", "coordinates": [ [ [ -82.024893146073211, 31.994494137911143 ], [ -82.012278125861002, 31.906602270380485 ], [ -82.115288364979236, 31.895824541254726 ], [ -82.127996194742579, 31.983679729422438 ], [ -82.024893146073211, 31.994494137911143 ] ] ] } },
{ "type": "Feature", "properties": { "ID": 44664, "date": "2022-12-25T00:00:00", "smokePM_pred": 3.21941471099854 }, "geometry": { "type": "Polygon", "coordinates": [ [ [ -81.921734941258393, 32.005227920034194 ], [ -81.90921294355114, 31.91729963824535 ], [ -82.012278125861002, 31.906602270380485 ], [ -82.024893146073211, 31.994494137911143 ], [ -81.921734941258393, 32.005227920034194 ] ] ] } },
{ "type": "Feature", "properties": { "ID": 45083, "date": "2022-12-25T00:00:00", "smokePM_pred": 8.8919582366943395 }, "geometry": { "type": "Polygon", "coordinates": [ [ [ -91.543658669010313, 30.715432184812595 ], [ -91.523243003252816, 30.63210973635087 ], [ -91.619562558146328, 30.614460895210804 ], [ -91.640046614208202, 30.697725065659164 ], [ -91.543658669010313, 30.715432184812595 ] ] ] } },
{ "type": "Feature", "properties": { "ID": 45174, "date": "2022-12-25T00:00:00", "smokePM_pred": 3.3956105709075901 }, "geometry": { "type": "Polygon", "coordinates": [ [ [ -82.450012214115091, 32.038491904208151 ], [ -82.436970556331715, 31.950754296177891 ], [ -82.539849139761245, 31.939618937540935 ], [ -82.552983122447955, 32.02731874468882 ], [ -82.450012214115091, 32.038491904208151 ] ] ] } },
{ "type": "Feature", "properties": { "ID": 45175, "date": "2022-12-25T00:00:00", "smokePM_pred": 3.35765933990479 }, "geometry": { "type": "Polygon", "coordinates": [ [ [ -82.346984396706148, 32.049584798810898 ], [ -82.334035283251566, 31.961809652532164 ], [ -82.436970556331715, 31.950754296177891 ], [ -82.450012214115091, 32.038491904208151 ], [ -82.346984396706148, 32.049584798810898 ] ] ] } },
{ "type": "Feature", "properties": { "ID": 45176, "date": "2022-12-25T00:00:00", "smokePM_pred": 3.3052005767822301 }, "geometry": { "type": "Polygon", "coordinates": [ [ [ -82.243900052787566, 32.060597270288817 ], [ -82.231043701825101, 31.972784849117993 ], [ -82.334035283251566, 31.961809652532164 ], [ -82.346984396706148, 32.049584798810898 ], [ -82.243900052787566, 32.060597270288817 ] ] ] } },
{ "type": "Feature", "properties": { "ID": 45177, "date": "2022-12-25T00:00:00", "smokePM_pred": 3.3690850734710698 }, "geometry": { "type": "Polygon", "coordinates": [ [ [ -82.140759566321407, 32.071529161410439 ], [ -82.127996194742579, 31.983679729422438 ], [ -82.231043701825101, 31.972784849117993 ], [ -82.243900052787566, 32.060597270288817 ], [ -82.140759566321407, 32.071529161410439 ] ] ] } },
{ "type": "Feature", "properties": { "ID": 45178, "date": "2022-12-25T00:00:00", "smokePM_pred": 3.1898059844970699 }, "geometry": { "type": "Polygon", "coordinates": [ [ [ -82.0375633226584, 32.082380315926883 ], [ -82.024893146073211, 31.994494137911143 ], [ -82.127996194742579, 31.983679729422438 ], [ -82.140759566321407, 32.071529161410439 ], [ -82.0375633226584, 32.082380315926883 ] ] ] } },
{ "type": "Feature", "properties": { "ID": 45179, "date": "2022-12-25T00:00:00", "smokePM_pred": 3.1663150787353498 }, "geometry": { "type": "Polygon", "coordinates": [ [ [ -81.934311708531013, 32.093150578577657 ], [ -81.921734941258393, 32.005227920034194 ], [ -82.024893146073211, 31.994494137911143 ], [ -82.0375633226584, 32.082380315926883 ], [ -81.934311708531013, 32.093150578577657 ] ] ] } },
{ "type": "Feature", "properties": { "ID": 45597, "date": "2022-12-25T00:00:00", "smokePM_pred": 7.3699307441711399 }, "geometry": { "type": "Polygon", "coordinates": [ [ [ -91.660616152417788, 30.780975771426903 ], [ -91.640046614208202, 30.697725065659164 ], [ -91.736349077536659, 30.679955578332681 ], [ -91.756986948460664, 30.763147732378357 ], [ -91.660616152417788, 30.780975771426903 ] ] ] } },
{ "type": "Feature", "properties": { "ID": 45598, "date": "2022-12-25T00:00:00", "smokePM_pred": 6.8161492347717303 }, "geometry": { "type": "Polygon", "coordinates": [ [ [ -91.564159580857677, 30.798741257936594 ], [ -91.543658669010313, 30.715432184812595 ], [ -91.640046614208202, 30.697725065659164 ], [ -91.660616152417788, 30.780975771426903 ], [ -91.564159580857677, 30.798741257936594 ] ] ] } },
{ "type": "Feature", "properties": { "ID": 45689, "date": "2022-12-25T00:00:00", "smokePM_pred": 3.3622338771820099 }, "geometry": { "type": "Polygon", "coordinates": [ [ [ -82.463110781208286, 32.126223526814222 ], [ -82.450012214115091, 32.038491904208151 ], [ -82.552983122447955, 32.02731874468882 ], [ -82.56617439560965, 32.115012497843296 ], [ -82.463110781208286, 32.126223526814222 ] ] ] } },
{ "type": "Feature", "properties": { "ID": 45690, "date": "2022-12-25T00:00:00", "smokePM_pred": 3.4017312526702899 }, "geometry": { "type": "Polygon", "coordinates": [ [ [ -82.359990036902971, 32.137354027850478 ], [ -82.346984396706148, 32.049584798810898 ], [ -82.450012214115091, 32.038491904208151 ], [ -82.463110781208286, 32.126223526814222 ], [ -82.359990036902971, 32.137354027850478 ] ] ] } },
{ "type": "Feature", "properties": { "ID": 45691, "date": "2022-12-25T00:00:00", "smokePM_pred": 3.3708195686340301 }, "geometry": { "type": "Polygon", "coordinates": [ [ [ -82.256812546529076, 32.148403842018119 ], [ -82.243900052787566, 32.060597270288817 ], [ -82.346984396706148, 32.049584798810898 ], [ -82.359990036902971, 32.137354027850478 ], [ -82.256812546529076, 32.148403842018119 ] ] ] } },
{ "type": "Feature", "properties": { "ID": 45692, "date": "2022-12-25T00:00:00", "smokePM_pred": 3.4361147880554199 }, "geometry": { "type": "Polygon", "coordinates": [ [ [ -82.153578695327369, 32.159372811363966 ], [ -82.140759566321407, 32.071529161410439 ], [ -82.243900052787566, 32.060597270288817 ], [ -82.256812546529076, 32.148403842018119 ], [ -82.153578695327369, 32.159372811363966 ] ] ] } },
{ "type": "Feature", "properties": { "ID": 48166, "date": "2022-12-25T00:00:00", "smokePM_pred": 4.2356338500976598 }, "geometry": { "type": "Polygon", "coordinates": [ [ [ -92.343735084988253, 31.087347994986398 ], [ -92.322321183948773, 31.004522343085803 ], [ -92.418440963881395, 30.986084211408194 ], [ -92.439922555234972, 31.068849769889777 ], [ -92.343735084988253, 31.087347994986398 ] ] ] } },
{ "type": "Feature", "properties": { "ID": 48681, "date": "2022-12-25T00:00:00", "smokePM_pred": 4.1095786094665501 }, "geometry": { "type": "Polygon", "coordinates": [ [ [ -92.365237647227758, 31.170159242592966 ], [ -92.343735084988253, 31.087347994986398 ], [ -92.439922555234972, 31.068849769889777 ], [ -92.461493033714959, 31.151600831827398 ], [ -92.365237647227758, 31.170159242592966 ] ] ] } },
{ "type": "Feature", "properties": { "ID": 62701, "date": "2022-12-25T00:00:00", "smokePM_pred": 1.7874602079391499 }, "geometry": { "type": "Polygon", "coordinates": [ [ [ -81.111310524520235, 35.216522145662317 ], [ -81.098044209666071, 35.128361175575876 ], [ -81.205329103340972, 35.117439818215352 ], [ -81.218705880290216, 35.205565258903789 ], [ -81.111310524520235, 35.216522145662317 ] ] ] } },
{ "type": "Feature", "properties": { "ID": 62702, "date": "2022-12-25T00:00:00", "smokePM_pred": 1.91019439697266 }, "geometry": { "type": "Polygon", "coordinates": [ [ [ -81.00385743825538, 35.22738661295697 ], [ -80.990701831173098, 35.139190403872497 ], [ -81.098044209666071, 35.128361175575876 ], [ -81.111310524520235, 35.216522145662317 ], [ -81.00385743825538, 35.22738661295697 ] ] ] } },
{ "type": "Feature", "properties": { "ID": 63216, "date": "2022-12-25T00:00:00", "smokePM_pred": 1.8540557622909499 }, "geometry": { "type": "Polygon", "coordinates": [ [ [ -81.124634570141978, 35.304677452819909 ], [ -81.111310524520235, 35.216522145662317 ], [ -81.218705880290216, 35.205565258903789 ], [ -81.2321408452312, 35.293684962900414 ], [ -81.124634570141978, 35.304677452819909 ] ] ] } },
{ "type": "Feature", "properties": { "ID": 63217, "date": "2022-12-25T00:00:00", "smokePM_pred": 1.87022292613983 }, "geometry": { "type": "Polygon", "coordinates": [ [ [ -81.017070317244688, 35.315577232364745 ], [ -81.00385743825538, 35.22738661295697 ], [ -81.111310524520235, 35.216522145662317 ], [ -81.124634570141978, 35.304677452819909 ], [ -81.017070317244688, 35.315577232364745 ] ] ] } },
{ "type": "Feature", "properties": { "ID": 63218, "date": "2022-12-25T00:00:00", "smokePM_pred": 1.8086458444595299 }, "geometry": { "type": "Polygon", "coordinates": [ [ [ -80.909448547138666, 35.326384135903098 ], [ -80.896347080354616, 35.238158495924509 ], [ -81.00385743825538, 35.22738661295697 ], [ -81.017070317244688, 35.315577232364745 ], [ -80.909448547138666, 35.326384135903098 ] ] ] } },
{ "type": "Feature", "properties": { "ID": 68252, "date": "2022-12-25T00:00:00", "smokePM_pred": 1.46939313411713 }, "geometry": { "type": "Polygon", "coordinates": [ [ [ -93.152109454431425, 34.326458005060005 ], [ -93.127071681665115, 34.244183902361755 ], [ -93.226102544326011, 34.223398759202695 ], [ -93.251217368535137, 34.30560902646873 ], [ -93.152109454431425, 34.326458005060005 ] ] ] } },
{ "type": "Feature", "properties": { "ID": 68253, "date": "2022-12-25T00:00:00", "smokePM_pred": 1.41058421134949 }, "geometry": { "type": "Polygon", "coordinates": [ [ [ -93.052899817345349, 34.347237593077082 ], [ -93.027939474869314, 34.264899836477873 ], [ -93.127071681665115, 34.244183902361755 ], [ -93.152109454431425, 34.326458005060005 ], [ -93.052899817345349, 34.347237593077082 ] ] ] } },
{ "type": "Feature", "properties": { "ID": 68254, "date": "2022-12-25T00:00:00", "smokePM_pred": 1.7921670675277701 }, "geometry": { "type": "Polygon", "coordinates": [ [ [ -92.953588695968833, 34.367947522261289 ], [ -92.928706162435461, 34.285546294384687 ], [ -93.027939474869314, 34.264899836477873 ], [ -93.052899817345349, 34.347237593077082 ], [ -92.953588695968833, 34.367947522261289 ] ] ] } },
{ "type": "Feature", "properties": { "ID": 68255, "date": "2022-12-25T00:00:00", "smokePM_pred": 1.8388143777847299 }, "geometry": { "type": "Polygon", "coordinates": [ [ [ -92.854176331162762, 34.388587524713927 ], [ -92.82937198501638, 34.306123009275908 ], [ -92.928706162435461, 34.285546294384687 ], [ -92.953588695968833, 34.367947522261289 ], [ -92.854176331162762, 34.388587524713927 ] ] ] } },
{ "type": "Feature", "properties": { "ID": 68766, "date": "2022-12-25T00:00:00", "smokePM_pred": 1.53189408779144 }, "geometry": { "type": "Polygon", "coordinates": [ [ [ -93.276434152613092, 34.387801972076794 ], [ -93.251217368535137, 34.30560902646873 ], [ -93.350223323130479, 34.284690925913722 ], [ -93.375517013984265, 34.366819745856638 ], [ -93.276434152613092, 34.387801972076794 ] ] ] } },
{ "type": "Feature", "properties": { "ID": 68767, "date": "2022-12-25T00:00:00", "smokePM_pred": 1.51208531856537 }, "geometry": { "type": "Polygon", "coordinates": [ [ [ -93.17724895054107, 34.408714895875335 ], [ -93.152109454431425, 34.326458005060005 ], [ -93.251217368535137, 34.30560902646873 ], [ -93.276434152613092, 34.387801972076794 ], [ -93.17724895054107, 34.408714895875335 ] ] ] } },
{ "type": "Feature", "properties": { "ID": 68768, "date": "2022-12-25T00:00:00", "smokePM_pred": 1.4976350069046001 }, "geometry": { "type": "Polygon", "coordinates": [ [ [ -93.077961644473277, 34.429558247545586 ], [ -93.052899817345349, 34.347237593077082 ], [ -93.152109454431425, 34.326458005060005 ], [ -93.17724895054107, 34.408714895875335 ], [ -93.077961644473277, 34.429558247545586 ] ] ] } },
{ "type": "Feature", "properties": { "ID": 68769, "date": "2022-12-25T00:00:00", "smokePM_pred": 1.4945584535598799 }, "geometry": { "type": "Polygon", "coordinates": [ [ [ -92.978572473293738, 34.450331757732492 ], [ -92.953588695968833, 34.367947522261289 ], [ -93.052899817345349, 34.347237593077082 ], [ -93.077961644473277, 34.429558247545586 ], [ -92.978572473293738, 34.450331757732492 ] ] ] } },
{ "type": "Feature", "properties": { "ID": 68770, "date": "2022-12-25T00:00:00", "smokePM_pred": 1.56272184848785 }, "geometry": { "type": "Polygon", "coordinates": [ [ [ -92.879081678068403, 34.471035157440731 ], [ -92.854176331162762, 34.388587524713927 ], [ -92.953588695968833, 34.367947522261289 ], [ -92.978572473293738, 34.450331757732492 ], [ -92.879081678068403, 34.471035157440731 ] ] ] } }
]
}
