{
"type": "FeatureCollection",
"name": "geo_2022-12-31",
"crs": { "type": "name", "properties": { "name": "urn:ogc:def:crs:OGC:1.3:CRS84" } },
"features": [
{ "type": "Feature", "properties": { "ID": 12736, "date": "2022-12-31T00:00:00", "smokePM_pred": 2.1948158740997301 }, "geometry": { "type": "Polygon", "coordinates": [ [ [ -81.044996429893757, 26.560955130926942 ], [ -81.035648297753397, 26.472657952434687 ], [ -81.133739020730275, 26.464231759426951 ], [ -81.143158744087174, 26.552496512489157 ], [ -81.044996429893757, 26.560955130926942 ] ] ] } },
{ "type": "Feature", "properties": { "ID": 12739, "date": "2022-12-31T00:00:00", "smokePM_pred": 5.1356244087219203 }, "geometry": { "type": "Polygon", "coordinates": [ [ [ -80.750251319181103, 26.585939248532121 ], [ -80.741118804409425, 26.497546268304369 ], [ -80.839337868675869, 26.489315318718081 ], [ -80.848542395587771, 26.57767661132813 ], [ -80.750251319181103, 26.585939248532121 ] ] ] } },
{ "type": "Feature", "properties": { "ID": 12740, "date": "2022-12-31T00:00:00", "smokePM_pred": 3.79279589653015 }, "geometry": { "type": "Polygon", "coordinates": [ [ [ -80.651917967213009, 26.594136335197042 ], [ -80.642857603008622, 26.505711914353306 ], [ -80.741118804409425, 26.497546268304369 ], [ -80.750251319181103, 26.585939248532121 ], [ -80.651917967213009, 26.594136335197042 ] ] ] } },
{ "type": "Feature", "properties": { "ID": 12741, "date": "2022-12-31T00:00:00", "smokePM_pred": 6.7086234092712402 }, "geometry": { "type": "Polygon", "coordinates": [ [ [ -80.553542663733907, 26.60226776089635 ], [ -80.544554587574396, 26.513812146964643 ], [ -80.642857603008622, 26.505711914353306 ], [ -80.651917967213009, 26.594136335197042 ], [ -80.553542663733907, 26.60226776089635 ] ] ] } },
{ "type": "Feature", "properties": { "ID": 12742, "date": "2022-12-31T00:00:00", "smokePM_pred": 6.7503423690795898 }, "geometry": { "type": "Polygon", "coordinates": [ [ [ -80.455125733663451, 26.610333415991551 ], [ -80.44621008207146, 26.521846857022666 ], [ -80.544554587574396, 26.513812146964643 ], [ -80.553542663733907, 26.60226776089635 ], [ -80.455125733663451, 26.610333415991551 ] ] ] } },
{ "type": "Feature", "properties": { "ID": 12743, "date": "2022-12-31T00:00:00", "smokePM_pred": 6.1761507987976101 }, "geometry": { "type": "Polygon", "coordinates": [ [ [ -80.356667502784958, 26.618333191635987 ], [ -80.347824411322847, 26.529815936199952 ], [ -80.44621008207146, 26.521846857022666 ], [ -80.455125733663451, 26.610333415991551 ], [ -80.356667502784958, 26.618333191635987 ] ] ] } },
{ "type": "Feature", "properties": { "ID": 13251, "date": "2022-12-31T00:00:00", "smokePM_pred": 1.5449298620223999 }, "geometry": { "type": "Polygon", "coordinates": [ [ [ -81.054387804625676, 26.649248147344842 ], [ -81.044996429893757, 26.560955130926942 ], [ -81.143158744087174, 26.552496512489157 ], [ -81.152622030555946, 26.640757056221371 ], [ -81.054387804625676, 26.649248147344842 ] ] ] } },
{ "type": "Feature", "properties": { "ID": 13252, "date": "2022-12-31T00:00:00", "smokePM_pred": 4.3403282165527299 }, "geometry": { "type": "Polygon", "coordinates": [ [ [ -80.956110194118679, 26.657673778193775 ], [ -80.946790873257214, 26.569348534795946 ], [ -81.044996429893757, 26.560955130926942 ], [ -81.054387804625676, 26.649248147344842 ], [ -80.956110194118679, 26.657673778193775 ] ] ] } },
{ "type": "Feature", "properties": { "ID": 13254, "date": "2022-12-31T00:00:00", "smokePM_pred": 6.6411786079406703 }, "geometry": { "type": "Polygon", "coordinates": [ [ [ -80.759426109660012, 26.674328206621063 ], [ -80.750251319181103, 26.585939248532121 ], [ -80.848542395587771, 26.57767661132813 ], [ -80.85778952138358, 26.666033835461391 ], [ -80.759426109660012, 26.674328206621063 ] ] ] } },
{ "type": "Feature", "properties": { "ID": 13255, "date": "2022-12-31T00:00:00", "smokePM_pred": 3.2659773826599099 }, "geometry": { "type": "Polygon", "coordinates": [ [ [ -80.661020283073256, 26.682556779930138 ], [ -80.651917967213009, 26.594136335197042 ], [ -80.750251319181103, 26.585939248532121 ], [ -80.759426109660012, 26.674328206621063 ], [ -80.661020283073256, 26.682556779930138 ] ] ] } },
{ "type": "Feature", "properties": { "ID": 13256, "date": "2022-12-31T00:00:00", "smokePM_pred": 5.7251944541931197 }, "geometry": { "type": "Polygon", "coordinates": [ [ [ -80.562572366628714, 26.690719444433785 ], [ -80.553542663733907, 26.60226776089635 ], [ -80.651917967213009, 26.594136335197042 ], [ -80.661020283073256, 26.682556779930138 ], [ -80.562572366628714, 26.690719444433785 ] ] ] } },
{ "type": "Feature", "properties": { "ID": 13257, "date": "2022-12-31T00:00:00", "smokePM_pred": 7.5531725883483896 }, "geometry": { "type": "Polygon", "coordinates": [ [ [ -80.464082686206496, 26.698816089968798 ], [ -80.455125733663451, 26.610333415991551 ], [ -80.553542663733907, 26.60226776089635 ], [ -80.562572366628714, 26.690719444433785 ], [ -80.464082686206496, 26.698816089968798 ] ] ] } },
{ "type": "Feature", "properties": { "ID": 13258, "date": "2022-12-31T00:00:00", "smokePM_pred": 4.3400831222534197 }, "geometry": { "type": "Polygon", "coordinates": [ [ [ -80.365551568555787, 26.706846607167336 ], [ -80.356667502784958, 26.618333191635987 ], [ -80.455125733663451, 26.610333415991551 ], [ -80.464082686206496, 26.698816089968798 ], [ -80.365551568555787, 26.706846607167336 ] ] ] } },
{ "type": "Feature", "properties": { "ID": 13259, "date": "2022-12-31T00:00:00", "smokePM_pred": 3.5035924911499001 }, "geometry": { "type": "Polygon", "coordinates": [ [ [ -80.266979341289257, 26.714810887460704 ], [ -80.258168297739886, 26.626266979778542 ], [ -80.356667502784958, 26.618333191635987 ], [ -80.365551568555787, 26.706846607167336 ], [ -80.266979341289257, 26.714810887460704 ] ] ] } },
{ "type": "Feature", "properties": { "ID": 13260, "date": "2022-12-31T00:00:00", "smokePM_pred": 3.3306646347045898 }, "geometry": { "type": "Polygon", "coordinates": [ [ [ -80.168366332877568, 26.722708823083089 ], [ -80.159628446022154, 26.634134673167384 ], [ -80.258168297739886, 26.626266979778542 ], [ -80.266979341289257, 26.714810887460704 ], [ -80.168366332877568, 26.722708823083089 ] ] ] } },
{ "type": "Feature", "properties": { "ID": 13766, "date": "2022-12-31T00:00:00", "smokePM_pred": 1.7927784919738801 }, "geometry": { "type": "Polygon", "coordinates": [ [ [ -81.063822564083765, 26.737536982704704 ], [ -81.054387804625676, 26.649248147344842 ], [ -81.152622030555946, 26.640757056221371 ], [ -81.162129023203988, 26.729013371387506 ], [ -81.063822564083765, 26.737536982704704 ] ] ] } },
{ "type": "Feature", "properties": { "ID": 13767, "date": "2022-12-31T00:00:00", "smokePM_pred": 2.5719528198242201 }, "geometry": { "type": "Polygon", "coordinates": [ [ [ -80.965472577356778, 26.745994887736284 ], [ -80.956110194118679, 26.657673778193775 ], [ -81.054387804625676, 26.649248147344842 ], [ -81.063822564083765, 26.737536982704704 ], [ -80.965472577356778, 26.745994887736284 ] ] ] } },
{ "type": "Feature", "properties": { "ID": 13768, "date": "2022-12-31T00:00:00", "smokePM_pred": 2.6740276813507098 }, "geometry": { "type": "Polygon", "coordinates": [ [ [ -80.867079386315453, 26.754386972634705 ], [ -80.85778952138358, 26.666033835461391 ], [ -80.956110194118679, 26.657673778193775 ], [ -80.965472577356778, 26.745994887736284 ], [ -80.867079386315453, 26.754386972634705 ] ] ] } },
{ "type": "Feature", "properties": { "ID": 13769, "date": "2022-12-31T00:00:00", "smokePM_pred": 2.1986551284789999 }, "geometry": { "type": "Polygon", "coordinates": [ [ [ -80.768643315148807, 26.762713124336059 ], [ -80.759426109660012, 26.674328206621063 ], [ -80.85778952138358, 26.666033835461391 ], [ -80.867079386315453, 26.754386972634705 ], [ -80.768643315148807, 26.762713124336059 ] ] ] } },
{ "type": "Feature", "properties": { "ID": 13770, "date": "2022-12-31T00:00:00", "smokePM_pred": 1.92491543292999 }, "geometry": { "type": "Polygon", "coordinates": [ [ [ -80.670164688937049, 26.770973230563964 ], [ -80.661020283073256, 26.682556779930138 ], [ -80.759426109660012, 26.674328206621063 ], [ -80.768643315148807, 26.762713124336059 ], [ -80.670164688937049, 26.770973230563964 ] ] ] } },
{ "type": "Feature", "properties": { "ID": 13771, "date": "2022-12-31T00:00:00", "smokePM_pred": 5.3721837997436497 }, "geometry": { "type": "Polygon", "coordinates": [ [ [ -80.571643833646078, 26.779167179833326 ], [ -80.562572366628714, 26.690719444433785 ], [ -80.661020283073256, 26.682556779930138 ], [ -80.670164688937049, 26.770973230563964 ], [ -80.571643833646078, 26.779167179833326 ] ] ] } },
{ "type": "Feature", "properties": { "ID": 13772, "date": "2022-12-31T00:00:00", "smokePM_pred": 5.6982316970825204 }, "geometry": { "type": "Polygon", "coordinates": [ [ [ -80.473081076121957, 26.787294861454249 ], [ -80.464082686206496, 26.698816089968798 ], [ -80.562572366628714, 26.690719444433785 ], [ -80.571643833646078, 26.779167179833326 ], [ -80.473081076121957, 26.787294861454249 ] ] ] } },
{ "type": "Feature", "properties": { "ID": 13773, "date": "2022-12-31T00:00:00", "smokePM_pred": 4.4270467758178702 }, "geometry": { "type": "Polygon", "coordinates": [ [ [ -80.374476744085356, 26.795356165535779 ], [ -80.365551568555787, 26.706846607167336 ], [ -80.464082686206496, 26.698816089968798 ], [ -80.473081076121957, 26.787294861454249 ], [ -80.374476744085356, 26.795356165535779 ] ] ] } },
{ "type": "Feature", "properties": { "ID": 13774, "date": "2022-12-31T00:00:00", "smokePM_pred": 4.4231843948364302 }, "geometry": { "type": "Polygon", "coordinates": [ [ [ -80.275831166125883, 26.803350982989688 ], [ -80.266979341289257, 26.714810887460704 ], [ -80.365551568555787, 26.706846607167336 ], [ -80.374476744085356, 26.795356165535779 ], [ -80.275831166125883, 26.803350982989688 ] ] ] } },
{ "type": "Feature", "properties": { "ID": 13775, "date": "2022-12-31T00:00:00", "smokePM_pred": 3.6114137172699001 }, "geometry": { "type": "Polygon", "coordinates": [ [ [ -80.177144671696453, 26.811279205534248 ], [ -80.168366332877568, 26.722708823083089 ], [ -80.266979341289257, 26.714810887460704 ], [ -80.275831166125883, 26.803350982989688 ], [ -80.177144671696453, 26.811279205534248 ] ] ] } },
{ "type": "Feature", "properties": { "ID": 14279, "date": "2022-12-31T00:00:00", "smokePM_pred": 1.07427334785461 }, "geometry": { "type": "Polygon", "coordinates": [ [ [ -81.270014885829255, 26.808643421979607 ], [ -81.260391632327043, 26.720424168411963 ], [ -81.358610069969828, 26.711769489181172 ], [ -81.36830558836445, 26.799955683799698 ], [ -81.270014885829255, 26.808643421979607 ] ] ] } },
{ "type": "Feature", "properties": { "ID": 14280, "date": "2022-12-31T00:00:00", "smokePM_pred": 1.3267377614975 }, "geometry": { "type": "Polygon", "coordinates": [ [ [ -81.171679866000446, 26.817265438682266 ], [ -81.162129023203988, 26.729013371387506 ], [ -81.260391632327043, 26.720424168411963 ], [ -81.270014885829255, 26.808643421979607 ], [ -81.171679866000446, 26.817265438682266 ] ] ] } },
{ "type": "Feature", "properties": { "ID": 14281, "date": "2022-12-31T00:00:00", "smokePM_pred": 1.8816279172897299 }, "geometry": { "type": "Polygon", "coordinates": [ [ [ -81.073300851298939, 26.82582161795488 ], [ -81.063822564083765, 26.737536982704704 ], [ -81.162129023203988, 26.729013371387506 ], [ -81.171679866000446, 26.817265438682266 ], [ -81.073300851298939, 26.82582161795488 ] ] ] } },
{ "type": "Feature", "properties": { "ID": 14282, "date": "2022-12-31T00:00:00", "smokePM_pred": 1.9677752256393399 }, "geometry": { "type": "Polygon", "coordinates": [ [ [ -80.974878165058641, 26.834311844623951 ], [ -80.965472577356778, 26.745994887736284 ], [ -81.063822564083765, 26.737536982704704 ], [ -81.073300851298939, 26.82582161795488 ], [ -80.974878165058641, 26.834311844623951 ] ] ] } },
{ "type": "Feature", "properties": { "ID": 14283, "date": "2022-12-31T00:00:00", "smokePM_pred": 3.26318430900574 }, "geometry": { "type": "Polygon", "coordinates": [ [ [ -80.876412131521164, 26.842736004299191 ], [ -80.867079386315453, 26.754386972634705 ], [ -80.965472577356778, 26.745994887736284 ], [ -80.974878165058641, 26.834311844623951 ], [ -80.876412131521164, 26.842736004299191 ] ] ] } },
{ "type": "Feature", "properties": { "ID": 14284, "date": "2022-12-31T00:00:00", "smokePM_pred": 7.5716395378112802 }, "geometry": { "type": "Polygon", "coordinates": [ [ [ -80.777903075830324, 26.851093983377435 ], [ -80.768643315148807, 26.762713124336059 ], [ -80.867079386315453, 26.754386972634705 ], [ -80.876412131521164, 26.842736004299191 ], [ -80.777903075830324, 26.851093983377435 ] ] ] } },
{ "type": "Feature", "properties": { "ID": 14285, "date": "2022-12-31T00:00:00", "smokePM_pred": 3.5308778285980198 }, "geometry": { "type": "Polygon", "coordinates": [ [ [ -80.679351324026754, 26.859385669046503 ], [ -80.670164688937049, 26.770973230563964 ], [ -80.768643315148807, 26.762713124336059 ], [ -80.777903075830324, 26.851093983377435 ], [ -80.679351324026754, 26.859385669046503 ] ] ] } },
{ "type": "Feature", "properties": { "ID": 14286, "date": "2022-12-31T00:00:00", "smokePM_pred": 5.67269039154053 }, "geometry": { "type": "Polygon", "coordinates": [ [ [ -80.580757203042353, 26.867610949289102 ], [ -80.571643833646078, 26.779167179833326 ], [ -80.670164688937049, 26.770973230563964 ], [ -80.679351324026754, 26.859385669046503 ], [ -80.580757203042353, 26.867610949289102 ] ] ] } },
{ "type": "Feature", "properties": { "ID": 14287, "date": "2022-12-31T00:00:00", "smokePM_pred": 7.9830751419067401 }, "geometry": { "type": "Polygon", "coordinates": [ [ [ -80.482121040694764, 26.875769712886665 ], [ -80.473081076121957, 26.787294861454249 ], [ -80.571643833646078, 26.779167179833326 ], [ -80.580757203042353, 26.867610949289102 ], [ -80.482121040694764, 26.875769712886665 ] ] ] } },
{ "type": "Feature", "properties": { "ID": 14288, "date": "2022-12-31T00:00:00", "smokePM_pred": 6.1493086814880398 }, "geometry": { "type": "Polygon", "coordinates": [ [ [ -80.383443165681683, 26.883861849423127 ], [ -80.374476744085356, 26.795356165535779 ], [ -80.473081076121957, 26.787294861454249 ], [ -80.482121040694764, 26.875769712886665 ], [ -80.383443165681683, 26.883861849423127 ] ] ] } },
{ "type": "Feature", "properties": { "ID": 14289, "date": "2022-12-31T00:00:00", "smokePM_pred": 4.1211972236633301 }, "geometry": { "type": "Polygon", "coordinates": [ [ [ -80.284723907575355, 26.891887249288807 ], [ -80.275831166125883, 26.803350982989688 ], [ -80.374476744085356, 26.795356165535779 ], [ -80.383443165681683, 26.883861849423127 ], [ -80.284723907575355, 26.891887249288807 ] ] ] } },
{ "type": "Feature", "properties": { "ID": 14290, "date": "2022-12-31T00:00:00", "smokePM_pred": 3.2285327911377002 }, "geometry": { "type": "Polygon", "coordinates": [ [ [ -80.18596359681672, 26.899845803684112 ], [ -80.177144671696453, 26.811279205534248 ], [ -80.275831166125883, 26.803350982989688 ], [ -80.284723907575355, 26.891887249288807 ], [ -80.18596359681672, 26.899845803684112 ] ] ] } },
{ "type": "Feature", "properties": { "ID": 14794, "date": "2022-12-31T00:00:00", "smokePM_pred": 1.2386087179184 }, "geometry": { "type": "Polygon", "coordinates": [ [ [ -81.279682456778147, 26.896858359978122 ], [ -81.270014885829255, 26.808643421979607 ], [ -81.36830558836445, 26.799955683799698 ], [ -81.378045745709187, 26.888137514222166 ], [ -81.279682456778147, 26.896858359978122 ] ] ] } },
{ "type": "Feature", "properties": { "ID": 14795, "date": "2022-12-31T00:00:00", "smokePM_pred": 1.4423526525497401 }, "geometry": { "type": "Polygon", "coordinates": [ [ [ -81.181274703821785, 26.905513238730602 ], [ -81.171679866000446, 26.817265438682266 ], [ -81.270014885829255, 26.808643421979607 ], [ -81.279682456778147, 26.896858359978122 ], [ -81.181274703821785, 26.905513238730602 ] ] ] } },
{ "type": "Feature", "properties": { "ID": 14796, "date": "2022-12-31T00:00:00", "smokePM_pred": 1.2434511184692401 }, "geometry": { "type": "Polygon", "coordinates": [ [ [ -81.082822810204178, 26.914102033975102 ], [ -81.073300851298939, 26.82582161795488 ], [ -81.171679866000446, 26.817265438682266 ], [ -81.181274703821785, 26.905513238730602 ], [ -81.082822810204178, 26.914102033975102 ] ] ] } },
{ "type": "Feature", "properties": { "ID": 14797, "date": "2022-12-31T00:00:00", "smokePM_pred": 4.02349901199341 }, "geometry": { "type": "Polygon", "coordinates": [ [ [ -80.984327100208077, 26.922624629989862 ], [ -80.974878165058641, 26.834311844623951 ], [ -81.073300851298939, 26.82582161795488 ], [ -81.082822810204178, 26.914102033975102 ], [ -80.984327100208077, 26.922624629989862 ] ] ] } },
{ "type": "Feature", "properties": { "ID": 14798, "date": "2022-12-31T00:00:00", "smokePM_pred": 5.2233467102050799 }, "geometry": { "type": "Polygon", "coordinates": [ [ [ -80.88578789902968, 26.931080911839789 ], [ -80.876412131521164, 26.842736004299191 ], [ -80.974878165058641, 26.834311844623951 ], [ -80.984327100208077, 26.922624629989862 ], [ -80.88578789902968, 26.931080911839789 ] ] ] } },
{ "type": "Feature", "properties": { "ID": 14799, "date": "2022-12-31T00:00:00", "smokePM_pred": 5.11478567123413 }, "geometry": { "type": "Polygon", "coordinates": [ [ [ -80.787205532773115, 26.939470765380428 ], [ -80.777903075830324, 26.851093983377435 ], [ -80.876412131521164, 26.842736004299191 ], [ -80.88578789902968, 26.931080911839789 ], [ -80.787205532773115, 26.939470765380428 ] ] ] } },
{ "type": "Feature", "properties": { "ID": 14800, "date": "2022-12-31T00:00:00", "smokePM_pred": 5.2665495872497603 }, "geometry": { "type": "Polygon", "coordinates": [ [ [ -80.6885803284449, 26.94779407726184 ], [ -80.679351324026754, 26.859385669046503 ], [ -80.777903075830324, 26.851093983377435 ], [ -80.787205532773115, 26.939470765380428 ], [ -80.6885803284449, 26.94779407726184 ] ] ] } },
{ "type": "Feature", "properties": { "ID": 14801, "date": "2022-12-31T00:00:00", "smokePM_pred": 8.2300214767456001 }, "geometry": { "type": "Polygon", "coordinates": [ [ [ -80.589912613948528, 26.956050734932504 ], [ -80.580757203042353, 26.867610949289102 ], [ -80.679351324026754, 26.859385669046503 ], [ -80.6885803284449, 26.94779407726184 ], [ -80.589912613948528, 26.956050734932504 ] ] ] } },
{ "type": "Feature", "properties": { "ID": 14802, "date": "2022-12-31T00:00:00", "smokePM_pred": 8.6238498687744105 }, "geometry": { "type": "Polygon", "coordinates": [ [ [ -80.491202718078767, 26.964240626643164 ], [ -80.482121040694764, 26.875769712886665 ], [ -80.580757203042353, 26.867610949289102 ], [ -80.589912613948528, 26.956050734932504 ], [ -80.491202718078767, 26.964240626643164 ] ] ] } },
{ "type": "Feature", "properties": { "ID": 14803, "date": "2022-12-31T00:00:00", "smokePM_pred": 5.9648056030273402 }, "geometry": { "type": "Polygon", "coordinates": [ [ [ -80.39245097051608, 26.972363641450734 ], [ -80.383443165681683, 26.883861849423127 ], [ -80.482121040694764, 26.875769712886665 ], [ -80.491202718078767, 26.964240626643164 ], [ -80.39245097051608, 26.972363641450734 ] ] ] } },
{ "type": "Feature", "properties": { "ID": 14804, "date": "2022-12-31T00:00:00", "smokePM_pred": 2.8462269306182901 }, "geometry": { "type": "Polygon", "coordinates": [ [ [ -80.293657701820962, 26.980419669222055 ], [ -80.284723907575355, 26.891887249288807 ], [ -80.383443165681683, 26.883861849423127 ], [ -80.39245097051608, 26.972363641450734 ], [ -80.293657701820962, 26.980419669222055 ] ] ] } },
{ "type": "Feature", "properties": { "ID": 14805, "date": "2022-12-31T00:00:00", "smokePM_pred": 1.5993682146072401 }, "geometry": { "type": "Polygon", "coordinates": [ [ [ -80.194823243428161, 26.988408600637719 ], [ -80.18596359681672, 26.899845803684112 ], [ -80.284723907575355, 26.891887249288807 ], [ -80.293657701820962, 26.980419669222055 ], [ -80.194823243428161, 26.988408600637719 ] ] ] } },
{ "type": "Feature", "properties": { "ID": 15311, "date": "2022-12-31T00:00:00", "smokePM_pred": 1.1529945135116599 }, "geometry": { "type": "Polygon", "coordinates": [ [ [ -81.092388585640109, 27.002378211575977 ], [ -81.082822810204178, 26.914102033975102 ], [ -81.181274703821785, 26.905513238730602 ], [ -81.190913682457534, 26.993756752087137 ], [ -81.092388585640109, 27.002378211575977 ] ] ] } },
{ "type": "Feature", "properties": { "ID": 15312, "date": "2022-12-31T00:00:00", "smokePM_pred": 1.3109477758407599 }, "geometry": { "type": "Polygon", "coordinates": [ [ [ -80.993819526691126, 27.010933224899105 ], [ -80.984327100208077, 26.922624629989862 ], [ -81.082822810204178, 26.914102033975102 ], [ -81.092388585640109, 27.002378211575977 ], [ -80.993819526691126, 27.010933224899105 ] ] ] } },
{ "type": "Feature", "properties": { "ID": 15313, "date": "2022-12-31T00:00:00", "smokePM_pred": 2.6599133014678999 }, "geometry": { "type": "Polygon", "coordinates": [ [ [ -80.895206831766814, 27.019421676574609 ], [ -80.88578789902968, 26.931080911839789 ], [ -80.984327100208077, 26.922624629989862 ], [ -80.993819526691126, 27.010933224899105 ], [ -80.895206831766814, 27.019421676574609 ] ] ] } },
{ "type": "Feature", "properties": { "ID": 15314, "date": "2022-12-31T00:00:00", "smokePM_pred": 4.42248582839966 }, "geometry": { "type": "Polygon", "coordinates": [ [ [ -80.796550827937011, 27.027843451914688 ], [ -80.787205532773115, 26.939470765380428 ], [ -80.88578789902968, 26.931080911839789 ], [ -80.895206831766814, 27.019421676574609 ], [ -80.796550827937011, 27.027843451914688 ] ] ] } },
{ "type": "Feature", "properties": { "ID": 15315, "date": "2022-12-31T00:00:00", "smokePM_pred": 4.1469297409057599 }, "geometry": { "type": "Polygon", "coordinates": [ [ [ -80.697851843179777, 27.036198437029611 ], [ -80.6885803284449, 26.94779407726184 ], [ -80.787205532773115, 26.939470765380428 ], [ -80.796550827937011, 27.027843451914688 ], [ -80.697851843179777, 27.036198437029611 ] ] ] } },
{ "type": "Feature", "properties": { "ID": 15316, "date": "2022-12-31T00:00:00", "smokePM_pred": 4.7749180793762198 }, "geometry": { "type": "Polygon", "coordinates": [ [ [ -80.599110206375698, 27.044486518831611 ], [ -80.589912613948528, 26.956050734932504 ], [ -80.6885803284449, 26.94779407726184 ], [ -80.697851843179777, 27.036198437029611 ], [ -80.599110206375698, 27.044486518831611 ] ] ] } },
{ "type": "Feature", "properties": { "ID": 15317, "date": "2022-12-31T00:00:00", "smokePM_pred": 3.35160565376282 }, "geometry": { "type": "Polygon", "coordinates": [ [ [ -80.50032624730234, 27.052707585038792 ], [ -80.491202718078767, 26.964240626643164 ], [ -80.589912613948528, 26.956050734932504 ], [ -80.599110206375698, 27.044486518831611 ], [ -80.50032624730234, 27.052707585038792 ] ] ] } },
{ "type": "Feature", "properties": { "ID": 15319, "date": "2022-12-31T00:00:00", "smokePM_pred": 2.68327689170837 }, "geometry": { "type": "Polygon", "coordinates": [ [ [ -80.302632685909003, 27.068948225593576 ], [ -80.293657701820962, 26.980419669222055 ], [ -80.39245097051608, 26.972363641450734 ], [ -80.401500296628626, 27.060861524178971 ], [ -80.302632685909003, 27.068948225593576 ] ] ] } },
{ "type": "Feature", "properties": { "ID": 15320, "date": "2022-12-31T00:00:00", "smokePM_pred": 1.7237520217895499 }, "geometry": { "type": "Polygon", "coordinates": [ [ [ -80.203723747577783, 27.076967579441412 ], [ -80.194823243428161, 26.988408600637719 ], [ -80.293657701820962, 26.980419669222055 ], [ -80.302632685909003, 27.068948225593576 ], [ -80.203723747577783, 27.076967579441412 ] ] ] } },
{ "type": "Feature", "properties": { "ID": 15826, "date": "2022-12-31T00:00:00", "smokePM_pred": 1.3135279417037999 }, "geometry": { "type": "Polygon", "coordinates": [ [ [ -81.101998323360789, 27.090650131498407 ], [ -81.092388585640109, 27.002378211575977 ], [ -81.190913682457534, 26.993756752087137 ], [ -81.200596948615996, 27.081995959235599 ], [ -81.101998323360789, 27.090650131498407 ] ] ] } },
{ "type": "Feature", "properties": { "ID": 15827, "date": "2022-12-31T00:00:00", "smokePM_pred": 1.5506272315978999 }, "geometry": { "type": "Polygon", "coordinates": [ [ [ -81.003355589301805, 27.099237610348286 ], [ -80.993819526691126, 27.010933224899105 ], [ -81.092388585640109, 27.002378211575977 ], [ -81.101998323360789, 27.090650131498407 ], [ -81.003355589301805, 27.099237610348286 ] ] ] } },
{ "type": "Feature", "properties": { "ID": 15828, "date": "2022-12-31T00:00:00", "smokePM_pred": 1.91970527172089 }, "geometry": { "type": "Polygon", "coordinates": [ [ [ -80.904669073560754, 27.107758279754453 ], [ -80.895206831766814, 27.019421676574609 ], [ -80.993819526691126, 27.010933224899105 ], [ -81.003355589301805, 27.099237610348286 ], [ -80.904669073560754, 27.107758279754453 ] ] ] } },
{ "type": "Feature", "properties": { "ID": 15829, "date": "2022-12-31T00:00:00", "smokePM_pred": 3.2791917324066202 }, "geometry": { "type": "Polygon", "coordinates": [ [ [ -80.805939104178805, 27.116212024483694 ], [ -80.796550827937011, 27.027843451914688 ], [ -80.895206831766814, 27.019421676574609 ], [ -80.904669073560754, 27.107758279754453 ], [ -80.805939104178805, 27.116212024483694 ] ] ] } },
{ "type": "Feature", "properties": { "ID": 15830, "date": "2022-12-31T00:00:00", "smokePM_pred": 3.52925801277161 }, "geometry": { "type": "Polygon", "coordinates": [ [ [ -80.707166010110996, 27.12459873010447 ], [ -80.697851843179777, 27.036198437029611 ], [ -80.796550827937011, 27.027843451914688 ], [ -80.805939104178805, 27.116212024483694 ], [ -80.707166010110996, 27.12459873010447 ] ] ] } },
{ "type": "Feature", "properties": { "ID": 15831, "date": "2022-12-31T00:00:00", "smokePM_pred": 4.0924019813537598 }, "geometry": { "type": "Polygon", "coordinates": [ [ [ -80.608350121220681, 27.132918282990726 ], [ -80.599110206375698, 27.044486518831611 ], [ -80.697851843179777, 27.036198437029611 ], [ -80.707166010110996, 27.12459873010447 ], [ -80.608350121220681, 27.132918282990726 ] ] ] } },
{ "type": "Feature", "properties": { "ID": 15832, "date": "2022-12-31T00:00:00", "smokePM_pred": 3.3676309585571298 }, "geometry": { "type": "Polygon", "coordinates": [ [ [ -80.509491768273932, 27.141170570325887 ], [ -80.50032624730234, 27.052707585038792 ], [ -80.599110206375698, 27.044486518831611 ], [ -80.608350121220681, 27.132918282990726 ], [ -80.509491768273932, 27.141170570325887 ] ] ] } },
{ "type": "Feature", "properties": { "ID": 16341, "date": "2022-12-31T00:00:00", "smokePM_pred": 1.4389569759368901 }, "geometry": { "type": "Polygon", "coordinates": [ [ [ -81.111652170039392, 27.17891777441298 ], [ -81.101998323360789, 27.090650131498407 ], [ -81.200596948615996, 27.081995959235599 ], [ -81.210324649930044, 27.170230840588218 ], [ -81.111652170039392, 27.17891777441298 ] ] ] } },
{ "type": "Feature", "properties": { "ID": 16342, "date": "2022-12-31T00:00:00", "smokePM_pred": 1.21413326263428 }, "geometry": { "type": "Polygon", "coordinates": [ [ [ -81.012935433747785, 27.187537767264903 ], [ -81.003355589301805, 27.099237610348286 ], [ -81.101998323360789, 27.090650131498407 ], [ -81.111652170039392, 27.17891777441298 ], [ -81.012935433747785, 27.187537767264903 ] ] ] } },
{ "type": "Feature", "properties": { "ID": 16343, "date": "2022-12-31T00:00:00", "smokePM_pred": 1.41562676429749 }, "geometry": { "type": "Polygon", "coordinates": [ [ [ -80.914174769147934, 27.196090702562188 ], [ -80.904669073560754, 27.107758279754453 ], [ -81.003355589301805, 27.099237610348286 ], [ -81.012935433747785, 27.187537767264903 ], [ -80.914174769147934, 27.196090702562188 ] ] ] } },
{ "type": "Feature", "properties": { "ID": 16344, "date": "2022-12-31T00:00:00", "smokePM_pred": 2.2135190963745099 }, "geometry": { "type": "Polygon", "coordinates": [ [ [ -80.815370505257832, 27.204576464524227 ], [ -80.805939104178805, 27.116212024483694 ], [ -80.904669073560754, 27.107758279754453 ], [ -80.914174769147934, 27.196090702562188 ], [ -80.815370505257832, 27.204576464524227 ] ] ] } },
{ "type": "Feature", "properties": { "ID": 16345, "date": "2022-12-31T00:00:00", "smokePM_pred": 2.2547268867492698 }, "geometry": { "type": "Polygon", "coordinates": [ [ [ -80.716522972015142, 27.212994938175537 ], [ -80.707166010110996, 27.12459873010447 ], [ -80.805939104178805, 27.116212024483694 ], [ -80.815370505257832, 27.204576464524227 ], [ -80.716522972015142, 27.212994938175537 ] ] ] } },
{ "type": "Feature", "properties": { "ID": 16346, "date": "2022-12-31T00:00:00", "smokePM_pred": 2.29792428016663 }, "geometry": { "type": "Polygon", "coordinates": [ [ [ -80.617632500271625, 27.22134600934978 ], [ -80.608350121220681, 27.132918282990726 ], [ -80.707166010110996, 27.12459873010447 ], [ -80.716522972015142, 27.212994938175537 ], [ -80.617632500271625, 27.22134600934978 ] ] ] } },
{ "type": "Feature", "properties": { "ID": 16347, "date": "2022-12-31T00:00:00", "smokePM_pred": 2.80957102775574 }, "geometry": { "type": "Polygon", "coordinates": [ [ [ -80.518699421787503, 27.22962956469366 ], [ -80.509491768273932, 27.141170570325887 ], [ -80.608350121220681, 27.132918282990726 ], [ -80.617632500271625, 27.22134600934978 ], [ -80.518699421787503, 27.22962956469366 ] ] ] } },
{ "type": "Feature", "properties": { "ID": 16858, "date": "2022-12-31T00:00:00", "smokePM_pred": 1.3600665330886801 }, "geometry": { "type": "Polygon", "coordinates": [ [ [ -80.923724064178685, 27.284418926112274 ], [ -80.914174769147934, 27.196090702562188 ], [ -81.012935433747785, 27.187537767264903 ], [ -81.02255920665624, 27.275833676506782 ], [ -80.923724064178685, 27.284418926112274 ] ] ] } },
{ "type": "Feature", "properties": { "ID": 16859, "date": "2022-12-31T00:00:00", "smokePM_pred": 2.2123858928680402 }, "geometry": { "type": "Polygon", "coordinates": [ [ [ -80.824845175841787, 27.29293675340578 ], [ -80.815370505257832, 27.204576464524227 ], [ -80.914174769147934, 27.196090702562188 ], [ -80.923724064178685, 27.284418926112274 ], [ -80.824845175841787, 27.29293675340578 ] ] ] } },
{ "type": "Feature", "properties": { "ID": 16860, "date": "2022-12-31T00:00:00", "smokePM_pred": 1.9760390520095801 }, "geometry": { "type": "Polygon", "coordinates": [ [ [ -80.725922872571502, 27.301387042865869 ], [ -80.716522972015142, 27.212994938175537 ], [ -80.815370505257832, 27.204576464524227 ], [ -80.824845175841787, 27.29293675340578 ], [ -80.725922872571502, 27.301387042865869 ] ] ] } },
{ "type": "Feature", "properties": { "ID": 16861, "date": "2022-12-31T00:00:00", "smokePM_pred": 1.97836458683014 }, "geometry": { "type": "Polygon", "coordinates": [ [ [ -80.626957486213655, 27.309769679783813 ], [ -80.617632500271625, 27.22134600934978 ], [ -80.716522972015142, 27.212994938175537 ], [ -80.725922872571502, 27.301387042865869 ], [ -80.626957486213655, 27.309769679783813 ] ] ] } },
{ "type": "Feature", "properties": { "ID": 16862, "date": "2022-12-31T00:00:00", "smokePM_pred": 2.3269205093383798 }, "geometry": { "type": "Polygon", "coordinates": [ [ [ -80.527949349528328, 27.318084550267567 ], [ -80.518699421787503, 27.22962956469366 ], [ -80.617632500271625, 27.22134600934978 ], [ -80.626957486213655, 27.309769679783813 ], [ -80.527949349528328, 27.318084550267567 ] ] ] } },
{ "type": "Feature", "properties": { "ID": 17373, "date": "2022-12-31T00:00:00", "smokePM_pred": 1.19077837467194 }, "geometry": { "type": "Polygon", "coordinates": [ [ [ -80.933317105223011, 27.372742931450091 ], [ -80.923724064178685, 27.284418926112274 ], [ -81.02255920665624, 27.275833676506782 ], [ -81.032227055579597, 27.364125318861511 ], [ -80.933317105223011, 27.372742931450091 ] ] ] } },
{ "type": "Feature", "properties": { "ID": 17374, "date": "2022-12-31T00:00:00", "smokePM_pred": 1.7712157964706401 }, "geometry": { "type": "Polygon", "coordinates": [ [ [ -80.834363261512436, 27.381292872430041 ], [ -80.824845175841787, 27.29293675340578 ], [ -80.923724064178685, 27.284418926112274 ], [ -80.933317105223011, 27.372742931450091 ], [ -80.834363261512436, 27.381292872430041 ] ] ] } },
{ "type": "Feature", "properties": { "ID": 17375, "date": "2022-12-31T00:00:00", "smokePM_pred": 1.8642675876617401 }, "geometry": { "type": "Polygon", "coordinates": [ [ [ -80.735365856367764, 27.389775025731883 ], [ -80.725922872571502, 27.301387042865869 ], [ -80.824845175841787, 27.29293675340578 ], [ -80.834363261512436, 27.381292872430041 ], [ -80.735365856367764, 27.389775025731883 ] ] ] } },
{ "type": "Feature", "properties": { "ID": 17376, "date": "2022-12-31T00:00:00", "smokePM_pred": 2.03274726867676 }, "geometry": { "type": "Polygon", "coordinates": [ [ [ -80.636325222634596, 27.39818927610245 ], [ -80.626957486213655, 27.309769679783813 ], [ -80.725922872571502, 27.301387042865869 ], [ -80.735365856367764, 27.389775025731883 ], [ -80.636325222634596, 27.39818927610245 ] ] ] } },
{ "type": "Feature", "properties": { "ID": 17377, "date": "2022-12-31T00:00:00", "smokePM_pred": 2.3081085681915301 }, "geometry": { "type": "Polygon", "coordinates": [ [ [ -80.537241694078588, 27.40653550910887 ], [ -80.527949349528328, 27.318084550267567 ], [ -80.626957486213655, 27.309769679783813 ], [ -80.636325222634596, 27.39818927610245 ], [ -80.537241694078588, 27.40653550910887 ] ] ] } },
{ "type": "Feature", "properties": { "ID": 17889, "date": "2022-12-31T00:00:00", "smokePM_pred": 1.48522925376892 }, "geometry": { "type": "Polygon", "coordinates": [ [ [ -80.843924908771541, 27.469644802830292 ], [ -80.834363261512436, 27.381292872430041 ], [ -80.933317105223011, 27.372742931450091 ], [ -80.942954039776538, 27.46106269955143 ], [ -80.843924908771541, 27.469644802830292 ] ] ] } },
{ "type": "Feature", "properties": { "ID": 17890, "date": "2022-12-31T00:00:00", "smokePM_pred": 1.82620978355408 }, "geometry": { "type": "Polygon", "coordinates": [ [ [ -80.7448520689059, 27.47815886826282 ], [ -80.735365856367764, 27.389775025731883 ], [ -80.834363261512436, 27.381292872430041 ], [ -80.843924908771541, 27.469644802830292 ], [ -80.7448520689059, 27.47815886826282 ] ] ] } },
{ "type": "Feature", "properties": { "ID": 17891, "date": "2022-12-31T00:00:00", "smokePM_pred": 1.80350530147552 }, "geometry": { "type": "Polygon", "coordinates": [ [ [ -80.645735854030747, 27.486604780049316 ], [ -80.636325222634596, 27.39818927610245 ], [ -80.735365856367764, 27.389775025731883 ], [ -80.7448520689059, 27.47815886826282 ], [ -80.645735854030747, 27.486604780049316 ] ] ] } },
{ "type": "Feature", "properties": { "ID": 17892, "date": "2022-12-31T00:00:00", "smokePM_pred": 1.7018392086029099 }, "geometry": { "type": "Polygon", "coordinates": [ [ [ -80.546576598923181, 27.494982423214001 ], [ -80.537241694078588, 27.40653550910887 ], [ -80.636325222634596, 27.39818927610245 ], [ -80.645735854030747, 27.486604780049316 ], [ -80.546576598923181, 27.494982423214001 ] ] ] } },
{ "type": "Feature", "properties": { "ID": 22864, "date": "2022-12-31T00:00:00", "smokePM_pred": 6.0254411697387704 }, "geometry": { "type": "Polygon", "coordinates": [ [ [ -97.45614206753163, 25.855840161837193 ], [ -97.435434093859982, 25.776490281936866 ], [ -97.523038602512258, 25.757760074191069 ], [ -97.543787783715274, 25.837043952073589 ], [ -97.45614206753163, 25.855840161837193 ] ] ] } },
{ "type": "Feature", "properties": { "ID": 22865, "date": "2022-12-31T00:00:00", "smokePM_pred": 5.5166893005371103 }, "geometry": { "type": "Polygon", "coordinates": [ [ [ -97.368409355058802, 25.874595908630312 ], [ -97.347742823790014, 25.795180148489685 ], [ -97.435434093859982, 25.776490281936866 ], [ -97.45614206753163, 25.855840161837193 ], [ -97.368409355058802, 25.874595908630312 ] ] ] } },
{ "type": "Feature", "properties": { "ID": 22866, "date": "2022-12-31T00:00:00", "smokePM_pred": 4.8452177047729501 }, "geometry": { "type": "Polygon", "coordinates": [ [ [ -97.280589774407531, 25.893310995888839 ], [ -97.2599649205399, 25.813829478084013 ], [ -97.347742823790014, 25.795180148489685 ], [ -97.368409355058802, 25.874595908630312 ], [ -97.280589774407531, 25.893310995888839 ] ] ] } },
{ "type": "Feature", "properties": { "ID": 22868, "date": "2022-12-31T00:00:00", "smokePM_pred": 3.72598099708557 }, "geometry": { "type": "Polygon", "coordinates": [ [ [ -97.104690527112439, 25.930618405583797 ], [ -97.084149733522921, 25.851005743377328 ], [ -97.172100513561389, 25.832438074961921 ], [ -97.192683454907993, 25.911985227055442 ], [ -97.104690527112439, 25.930618405583797 ] ] ] } },
{ "type": "Feature", "properties": { "ID": 23379, "date": "2022-12-31T00:00:00", "smokePM_pred": 6.20786333084106 }, "geometry": { "type": "Polygon", "coordinates": [ [ [ -97.476937037695279, 25.935173666853487 ], [ -97.45614206753163, 25.855840161837193 ], [ -97.543787783715274, 25.837043952073589 ], [ -97.564624088303702, 25.916311382339028 ], [ -97.476937037695279, 25.935173666853487 ] ] ] } },
{ "type": "Feature", "properties": { "ID": 23380, "date": "2022-12-31T00:00:00", "smokePM_pred": 5.8856902122497603 }, "geometry": { "type": "Polygon", "coordinates": [ [ [ -97.38916275470929, 25.95399536670319 ], [ -97.368409355058802, 25.874595908630312 ], [ -97.45614206753163, 25.855840161837193 ], [ -97.476937037695279, 25.935173666853487 ], [ -97.38916275470929, 25.95399536670319 ] ] ] } },
{ "type": "Feature", "properties": { "ID": 23381, "date": "2022-12-31T00:00:00", "smokePM_pred": 4.6735086441040004 }, "geometry": { "type": "Polygon", "coordinates": [ [ [ -97.301301367327071, 25.972776284523526 ], [ -97.280589774407531, 25.893310995888839 ], [ -97.368409355058802, 25.874595908630312 ], [ -97.38916275470929, 25.95399536670319 ], [ -97.301301367327071, 25.972776284523526 ] ] ] } },
{ "type": "Feature", "properties": { "ID": 23382, "date": "2022-12-31T00:00:00", "smokePM_pred": 3.9779398441314702 }, "geometry": { "type": "Polygon", "coordinates": [ [ [ -97.213353004754694, 25.991516222955845 ], [ -97.192683454907993, 25.911985227055442 ], [ -97.280589774407531, 25.893310995888839 ], [ -97.301301367327071, 25.972776284523526 ], [ -97.213353004754694, 25.991516222955845 ] ] ] } },
{ "type": "Feature", "properties": { "ID": 23383, "date": "2022-12-31T00:00:00", "smokePM_pred": 3.1075665950775102 }, "geometry": { "type": "Polygon", "coordinates": [ [ [ -97.125317797425666, 26.010214984651682 ], [ -97.104690527112439, 25.930618405583797 ], [ -97.192683454907993, 25.911985227055442 ], [ -97.213353004754694, 25.991516222955845 ], [ -97.125317797425666, 26.010214984651682 ] ] ] } },
{ "type": "Feature", "properties": { "ID": 23384, "date": "2022-12-31T00:00:00", "smokePM_pred": 3.6749835014343302 }, "geometry": { "type": "Polygon", "coordinates": [ [ [ -97.037195877003398, 26.028872372277092 ], [ -97.016611122797684, 25.949210334942915 ], [ -97.104690527112439, 25.930618405583797 ], [ -97.125317797425666, 26.010214984651682 ], [ -97.037195877003398, 26.028872372277092 ] ] ] } },
{ "type": "Feature", "properties": { "ID": 23895, "date": "2022-12-31T00:00:00", "smokePM_pred": 5.5171999931335396 }, "geometry": { "type": "Polygon", "coordinates": [ [ [ -97.410003258960145, 26.033378445899292 ], [ -97.38916275470929, 25.95399536670319 ], [ -97.476937037695279, 25.935173666853487 ], [ -97.49781924044018, 26.014490719868359 ], [ -97.410003258960145, 26.033378445899292 ] ] ] } },
{ "type": "Feature", "properties": { "ID": 23896, "date": "2022-12-31T00:00:00", "smokePM_pred": 4.2805743217468297 }, "geometry": { "type": "Polygon", "coordinates": [ [ [ -97.322099935641305, 26.052225267488364 ], [ -97.301301367327071, 25.972776284523526 ], [ -97.38916275470929, 25.95399536670319 ], [ -97.410003258960145, 26.033378445899292 ], [ -97.322099935641305, 26.052225267488364 ] ] ] } },
{ "type": "Feature", "properties": { "ID": 23897, "date": "2022-12-31T00:00:00", "smokePM_pred": 3.65342140197754 }, "geometry": { "type": "Polygon", "coordinates": [ [ [ -97.234109399563053, 26.071030986473669 ], [ -97.213353004754694, 25.991516222955845 ], [ -97.301301367327071, 25.972776284523526 ], [ -97.322099935641305, 26.052225267488364 ], [ -97.234109399563053, 26.071030986473669 ] ] ] } },
{ "type": "Feature", "properties": { "ID": 23898, "date": "2022-12-31T00:00:00", "smokePM_pred": 2.8971221446990998 }, "geometry": { "type": "Polygon", "coordinates": [ [ [ -97.14603178103755, 26.08979540470267 ], [ -97.125317797425666, 26.010214984651682 ], [ -97.213353004754694, 25.991516222955845 ], [ -97.234109399563053, 26.071030986473669 ], [ -97.14603178103755, 26.08979540470267 ] ] ] } },
{ "type": "Feature", "properties": { "ID": 23899, "date": "2022-12-31T00:00:00", "smokePM_pred": 3.4823029041290301 }, "geometry": { "type": "Polygon", "coordinates": [ [ [ -97.057867211612262, 26.108518324036531 ], [ -97.037195877003398, 26.028872372277092 ], [ -97.125317797425666, 26.010214984651682 ], [ -97.14603178103755, 26.08979540470267 ], [ -97.057867211612262, 26.108518324036531 ] ] ] } },
{ "type": "Feature", "properties": { "ID": 23900, "date": "2022-12-31T00:00:00", "smokePM_pred": 3.6651945114135702 }, "geometry": { "type": "Polygon", "coordinates": [ [ [ -96.969615824072633, 26.127199546354415 ], [ -96.948987376383812, 26.047488188516922 ], [ -97.037195877003398, 26.028872372277092 ], [ -97.057867211612262, 26.108518324036531 ], [ -96.969615824072633, 26.127199546354415 ] ] ] } },
{ "type": "Feature", "properties": { "ID": 24411, "date": "2022-12-31T00:00:00", "smokePM_pred": 3.80134153366089 }, "geometry": { "type": "Polygon", "coordinates": [ [ [ -97.342985716920424, 26.131657867988935 ], [ -97.322099935641305, 26.052225267488364 ], [ -97.410003258960145, 26.033378445899292 ], [ -97.430931105254842, 26.112745069114126 ], [ -97.342985716920424, 26.131657867988935 ] ] ] } },
{ "type": "Feature", "properties": { "ID": 24412, "date": "2022-12-31T00:00:00", "smokePM_pred": 3.3370778560638401 }, "geometry": { "type": "Polygon", "coordinates": [ [ [ -97.254952877024579, 26.150529441125514 ], [ -97.234109399563053, 26.071030986473669 ], [ -97.322099935641305, 26.052225267488364 ], [ -97.342985716920424, 26.131657867988935 ], [ -97.254952877024579, 26.150529441125514 ] ] ] } },
{ "type": "Feature", "properties": { "ID": 24413, "date": "2022-12-31T00:00:00", "smokePM_pred": 3.2231867313385001 }, "geometry": { "type": "Polygon", "coordinates": [ [ [ -97.166832715755518, 26.1693595895653 ], [ -97.14603178103755, 26.08979540470267 ], [ -97.234109399563053, 26.071030986473669 ], [ -97.254952877024579, 26.150529441125514 ], [ -97.166832715755518, 26.1693595895653 ] ] ] } },
{ "type": "Feature", "properties": { "ID": 24414, "date": "2022-12-31T00:00:00", "smokePM_pred": 3.68027997016907 }, "geometry": { "type": "Polygon", "coordinates": [ [ [ -97.078625364542233, 26.188148114362622 ], [ -97.057867211612262, 26.108518324036531 ], [ -97.14603178103755, 26.08979540470267 ], [ -97.166832715755518, 26.1693595895653 ], [ -97.078625364542233, 26.188148114362622 ] ] ] } },
{ "type": "Feature", "properties": { "ID": 24415, "date": "2022-12-31T00:00:00", "smokePM_pred": 3.90222144126892 }, "geometry": { "type": "Polygon", "coordinates": [ [ [ -96.990330956057107, 26.206894816589003 ], [ -96.969615824072633, 26.127199546354415 ], [ -97.057867211612262, 26.108518324036531 ], [ -97.078625364542233, 26.188148114362622 ], [ -96.990330956057107, 26.206894816589003 ] ] ] } },
{ "type": "Feature", "properties": { "ID": 24927, "date": "2022-12-31T00:00:00", "smokePM_pred": 3.86346435546875 }, "geometry": { "type": "Polygon", "coordinates": [ [ [ -97.275883676066101, 26.230011510132165 ], [ -97.254952877024579, 26.150529441125514 ], [ -97.342985716920424, 26.131657867988935 ], [ -97.363958949967312, 26.211074008934258 ], [ -97.275883676066101, 26.230011510132165 ] ] ] } },
{ "type": "Feature", "properties": { "ID": 24928, "date": "2022-12-31T00:00:00", "smokePM_pred": 3.6318342685699498 }, "geometry": { "type": "Polygon", "coordinates": [ [ [ -97.187720840624934, 26.248907462773083 ], [ -97.166832715755518, 26.1693595895653 ], [ -97.254952877024579, 26.150529441125514 ], [ -97.275883676066101, 26.230011510132165 ], [ -97.187720840624934, 26.248907462773083 ] ] ] } },
{ "type": "Feature", "properties": { "ID": 24929, "date": "2022-12-31T00:00:00", "smokePM_pred": 3.7589671611785902 }, "geometry": { "type": "Polygon", "coordinates": [ [ [ -97.099470574951695, 26.267761667102519 ], [ -97.078625364542233, 26.188148114362622 ], [ -97.166832715755518, 26.1693595895653 ], [ -97.187720840624934, 26.248907462773083 ], [ -97.099470574951695, 26.267761667102519 ] ] ] } },
{ "type": "Feature", "properties": { "ID": 24930, "date": "2022-12-31T00:00:00", "smokePM_pred": 3.8608560562133798 }, "geometry": { "type": "Polygon", "coordinates": [ [ [ -97.011133011603164, 26.286573923382402 ], [ -96.990330956057107, 26.206894816589003 ], [ -97.078625364542233, 26.188148114362622 ], [ -97.099470574951695, 26.267761667102519 ], [ -97.011133011603164, 26.286573923382402 ] ] ] } },
{ "type": "Feature", "properties": { "ID": 25443, "date": "2022-12-31T00:00:00", "smokePM_pred": 3.7758033275604199 }, "geometry": { "type": "Polygon", "coordinates": [ [ [ -97.208696395934581, 26.328438947562631 ], [ -97.187720840624934, 26.248907462773083 ], [ -97.275883676066101, 26.230011510132165 ], [ -97.2969020368553, 26.309477116416748 ], [ -97.208696395934581, 26.328438947562631 ] ] ] } },
{ "type": "Feature", "properties": { "ID": 25444, "date": "2022-12-31T00:00:00", "smokePM_pred": 3.6259388923645002 }, "geometry": { "type": "Polygon", "coordinates": [ [ [ -97.120403083245066, 26.347358905807287 ], [ -97.099470574951695, 26.267761667102519 ], [ -97.187720840624934, 26.248907462773083 ], [ -97.208696395934581, 26.328438947562631 ], [ -97.120403083245066, 26.347358905807287 ] ] ] } },
{ "type": "Feature", "properties": { "ID": 25445, "date": "2022-12-31T00:00:00", "smokePM_pred": 3.5988457202911399 }, "geometry": { "type": "Polygon", "coordinates": [ [ [ -97.032022231225312, 26.366236790601047 ], [ -97.011133011603164, 26.286573923382402 ], [ -97.099470574951695, 26.267761667102519 ], [ -97.120403083245066, 26.347358905807287 ], [ -97.032022231225312, 26.366236790601047 ] ] ] } },
{ "type": "Feature", "properties": { "ID": 25952, "date": "2022-12-31T00:00:00", "smokePM_pred": 5.42533302307129 }, "geometry": { "type": "Polygon", "coordinates": [ [ [ -97.757927827252857, 26.293164348598115 ], [ -97.736610617235726, 26.214046887254046 ], [ -97.82428751639209, 26.194838030811248 ], [ -97.845646209172472, 26.273888809012512 ], [ -97.757927827252857, 26.293164348598115 ] ] ] } },
{ "type": "Feature", "properties": { "ID": 25960, "date": "2022-12-31T00:00:00", "smokePM_pred": 3.8975777626037602 }, "geometry": { "type": "Polygon", "coordinates": [ [ [ -97.052998856692099, 26.445883341814135 ], [ -97.032022231225312, 26.366236790601047 ], [ -97.120403083245066, 26.347358905807287 ], [ -97.141423131078213, 26.426939753729961 ], [ -97.052998856692099, 26.445883341814135 ] ] ] } },
{ "type": "Feature", "properties": { "ID": 26467, "date": "2022-12-31T00:00:00", "smokePM_pred": 4.5803384780883798 }, "geometry": { "type": "Polygon", "coordinates": [ [ [ -97.779333719579896, 26.372264818786739 ], [ -97.757927827252857, 26.293164348598115 ], [ -97.845646209172472, 26.273888809012512 ], [ -97.867093707818142, 26.352922521653532 ], [ -97.779333719579896, 26.372264818786739 ] ] ] } }
]
}
