{
"type": "FeatureCollection",
"name": "geo_2022-12-22",
"crs": { "type": "name", "properties": { "name": "urn:ogc:def:crs:OGC:1.3:CRS84" } },
"features": [
{ "type": "Feature", "properties": { "ID": 23378, "date": "2022-12-22T00:00:00", "smokePM_pred": 3.9764046669006299 }, "geometry": { "type": "Polygon", "coordinates": [ [ [ -97.564624088303702, 25.916311382339028 ], [ -97.543787783715274, 25.837043952073589 ], [ -97.631346376715896, 25.818207475906139 ], [ -97.652223779775397, 25.897408710526115 ], [ -97.564624088303702, 25.916311382339028 ] ] ] } },
{ "type": "Feature", "properties": { "ID": 23893, "date": "2022-12-22T00:00:00", "smokePM_pred": 3.1760182380676301 }, "geometry": { "type": "Polygon", "coordinates": [ [ [ -97.585547752232102, 25.995562287562585 ], [ -97.564624088303702, 25.916311382339028 ], [ -97.652223779775397, 25.897408710526115 ], [ -97.673188667714115, 25.976593347149823 ], [ -97.585547752232102, 25.995562287562585 ] ] ] } },
{ "type": "Feature", "properties": { "ID": 23894, "date": "2022-12-22T00:00:00", "smokePM_pred": 3.4370679855346702 }, "geometry": { "type": "Polygon", "coordinates": [ [ [ -97.49781924044018, 26.014490719868359 ], [ -97.476937037695279, 25.935173666853487 ], [ -97.564624088303702, 25.916311382339028 ], [ -97.585547752232102, 25.995562287562585 ], [ -97.49781924044018, 26.014490719868359 ] ] ] } },
{ "type": "Feature", "properties": { "ID": 24406, "date": "2022-12-22T00:00:00", "smokePM_pred": 8.5325422286987305 }, "geometry": { "type": "Polygon", "coordinates": [ [ [ -97.781835582492789, 26.0366855956126 ], [ -97.760741861489123, 25.957584096794484 ], [ -97.848207209382096, 25.938534734653331 ], [ -97.869341803438004, 26.017569652573826 ], [ -97.781835582492789, 26.0366855956126 ] ] ] } },
{ "type": "Feature", "properties": { "ID": 24407, "date": "2022-12-22T00:00:00", "smokePM_pred": 3.0764296054840101 }, "geometry": { "type": "Polygon", "coordinates": [ [ [ -97.694241277563506, 26.055761307748291 ], [ -97.673188667714115, 25.976593347149823 ], [ -97.760741861489123, 25.957584096794484 ], [ -97.781835582492789, 26.0366855956126 ], [ -97.694241277563506, 26.055761307748291 ] ] ] } },
{ "type": "Feature", "properties": { "ID": 24408, "date": "2022-12-22T00:00:00", "smokePM_pred": 3.0053153038024898 }, "geometry": { "type": "Polygon", "coordinates": [ [ [ -97.60655901267458, 26.074796590022483 ], [ -97.585547752232102, 25.995562287562585 ], [ -97.673188667714115, 25.976593347149823 ], [ -97.694241277563506, 26.055761307748291 ], [ -97.60655901267458, 26.074796590022483 ] ] ] } },
{ "type": "Feature", "properties": { "ID": 24409, "date": "2022-12-22T00:00:00", "smokePM_pred": 2.8900127410888699 }, "geometry": { "type": "Polygon", "coordinates": [ [ [ -97.518788913077756, 26.093791243468196 ], [ -97.49781924044018, 26.014490719868359 ], [ -97.585547752232102, 25.995562287562585 ], [ -97.60655901267458, 26.074796590022483 ], [ -97.518788913077756, 26.093791243468196 ] ] ] } },
{ "type": "Feature", "properties": { "ID": 24921, "date": "2022-12-22T00:00:00", "smokePM_pred": 3.5515973567962602 }, "geometry": { "type": "Polygon", "coordinates": [ [ [ -97.803017387684619, 26.115770266597387 ], [ -97.781835582492789, 26.0366855956126 ], [ -97.869341803438004, 26.017569652573826 ], [ -97.890564604481469, 26.096587669273248 ], [ -97.803017387684619, 26.115770266597387 ] ] ] } },
{ "type": "Feature", "properties": { "ID": 24922, "date": "2022-12-22T00:00:00", "smokePM_pred": 3.2171926498413099 }, "geometry": { "type": "Polygon", "coordinates": [ [ [ -97.715381847577092, 26.134912513993012 ], [ -97.694241277563506, 26.055761307748291 ], [ -97.781835582492789, 26.0366855956126 ], [ -97.803017387684619, 26.115770266597387 ], [ -97.715381847577092, 26.134912513993012 ] ] ] } },
{ "type": "Feature", "properties": { "ID": 24923, "date": "2022-12-22T00:00:00", "smokePM_pred": 3.27631282806396 }, "geometry": { "type": "Polygon", "coordinates": [ [ [ -97.627658108029948, 26.15401421169814 ], [ -97.60655901267458, 26.074796590022483 ], [ -97.694241277563506, 26.055761307748291 ], [ -97.715381847577092, 26.134912513993012 ], [ -97.627658108029948, 26.15401421169814 ] ] ] } },
{ "type": "Feature", "properties": { "ID": 24924, "date": "2022-12-22T00:00:00", "smokePM_pred": 3.0134375095367401 }, "geometry": { "type": "Polygon", "coordinates": [ [ [ -97.539846294146884, 26.173075159941334 ], [ -97.518788913077756, 26.093791243468196 ], [ -97.60655901267458, 26.074796590022483 ], [ -97.627658108029948, 26.15401421169814 ], [ -97.539846294146884, 26.173075159941334 ] ] ] } },
{ "type": "Feature", "properties": { "ID": 24925, "date": "2022-12-22T00:00:00", "smokePM_pred": 3.4458189010620099 }, "geometry": { "type": "Polygon", "coordinates": [ [ [ -97.45194653226693, 26.1920951589459 ], [ -97.430931105254842, 26.112745069114126 ], [ -97.518788913077756, 26.093791243468196 ], [ -97.539846294146884, 26.173075159941334 ], [ -97.45194653226693, 26.1920951589459 ] ] ] } },
{ "type": "Feature", "properties": { "ID": 24926, "date": "2022-12-22T00:00:00", "smokePM_pred": 3.05996966362 }, "geometry": { "type": "Polygon", "coordinates": [ [ [ -97.363958949967312, 26.211074008934258 ], [ -97.342985716920424, 26.131657867988935 ], [ -97.430931105254842, 26.112745069114126 ], [ -97.45194653226693, 26.1920951589459 ], [ -97.363958949967312, 26.211074008934258 ] ] ] } },
{ "type": "Feature", "properties": { "ID": 24927, "date": "2022-12-22T00:00:00", "smokePM_pred": 2.9754440784454301 }, "geometry": { "type": "Polygon", "coordinates": [ [ [ -97.275883676066101, 26.230011510132165 ], [ -97.254952877024579, 26.150529441125514 ], [ -97.342985716920424, 26.131657867988935 ], [ -97.363958949967312, 26.211074008934258 ], [ -97.275883676066101, 26.230011510132165 ] ] ] } },
{ "type": "Feature", "properties": { "ID": 25437, "date": "2022-12-22T00:00:00", "smokePM_pred": 2.9593660831451398 }, "geometry": { "type": "Polygon", "coordinates": [ [ [ -97.736610617235726, 26.214046887254046 ], [ -97.715381847577092, 26.134912513993012 ], [ -97.803017387684619, 26.115770266597387 ], [ -97.82428751639209, 26.194838030811248 ], [ -97.736610617235726, 26.214046887254046 ] ] ] } },
{ "type": "Feature", "properties": { "ID": 25438, "date": "2022-12-22T00:00:00", "smokePM_pred": 2.5069501399993901 }, "geometry": { "type": "Polygon", "coordinates": [ [ [ -97.648845277927165, 26.233215074268287 ], [ -97.627658108029948, 26.15401421169814 ], [ -97.715381847577092, 26.134912513993012 ], [ -97.736610617235726, 26.214046887254046 ], [ -97.648845277927165, 26.233215074268287 ] ] ] } },
{ "type": "Feature", "properties": { "ID": 25439, "date": "2022-12-22T00:00:00", "smokePM_pred": 2.7696573734283398 }, "geometry": { "type": "Polygon", "coordinates": [ [ [ -97.560991623419255, 26.25234239127613 ], [ -97.539846294146884, 26.173075159941334 ], [ -97.627658108029948, 26.15401421169814 ], [ -97.648845277927165, 26.233215074268287 ], [ -97.560991623419255, 26.25234239127613 ] ] ] } },
{ "type": "Feature", "properties": { "ID": 25440, "date": "2022-12-22T00:00:00", "smokePM_pred": 3.3255171775817902 }, "geometry": { "type": "Polygon", "coordinates": [ [ [ -97.473049779905523, 26.27142863769361 ], [ -97.45194653226693, 26.1920951589459 ], [ -97.539846294146884, 26.173075159941334 ], [ -97.560991623419255, 26.25234239127613 ], [ -97.473049779905523, 26.27142863769361 ] ] ] } },
{ "type": "Feature", "properties": { "ID": 25441, "date": "2022-12-22T00:00:00", "smokePM_pred": 2.8231904506683301 }, "geometry": { "type": "Polygon", "coordinates": [ [ [ -97.385019874823072, 26.290473612934914 ], [ -97.363958949967312, 26.211074008934258 ], [ -97.45194653226693, 26.1920951589459 ], [ -97.473049779905523, 26.27142863769361 ], [ -97.385019874823072, 26.290473612934914 ] ] ] } },
{ "type": "Feature", "properties": { "ID": 25442, "date": "2022-12-22T00:00:00", "smokePM_pred": 2.78938961029053 }, "geometry": { "type": "Polygon", "coordinates": [ [ [ -97.2969020368553, 26.309477116416748 ], [ -97.275883676066101, 26.230011510132165 ], [ -97.363958949967312, 26.211074008934258 ], [ -97.385019874823072, 26.290473612934914 ], [ -97.2969020368553, 26.309477116416748 ] ] ] } },
{ "type": "Feature", "properties": { "ID": 25951, "date": "2022-12-22T00:00:00", "smokePM_pred": 3.5940146446228001 }, "geometry": { "type": "Polygon", "coordinates": [ [ [ -97.845646209172472, 26.273888809012512 ], [ -97.82428751639209, 26.194838030811248 ], [ -97.911875851681373, 26.175588705507312 ], [ -97.933275785433509, 26.254572681726962 ], [ -97.845646209172472, 26.273888809012512 ] ] ] } },
{ "type": "Feature", "properties": { "ID": 25952, "date": "2022-12-22T00:00:00", "smokePM_pred": 3.0400094985961901 }, "geometry": { "type": "Polygon", "coordinates": [ [ [ -97.757927827252857, 26.293164348598115 ], [ -97.736610617235726, 26.214046887254046 ], [ -97.82428751639209, 26.194838030811248 ], [ -97.845646209172472, 26.273888809012512 ], [ -97.757927827252857, 26.293164348598115 ] ] ] } },
{ "type": "Feature", "properties": { "ID": 25953, "date": "2022-12-22T00:00:00", "smokePM_pred": 2.6144602298736599 }, "geometry": { "type": "Polygon", "coordinates": [ [ [ -97.670120763230557, 26.312399099109037 ], [ -97.648845277927165, 26.233215074268287 ], [ -97.736610617235726, 26.214046887254046 ], [ -97.757927827252857, 26.293164348598115 ], [ -97.670120763230557, 26.312399099109037 ] ] ] } },
{ "type": "Feature", "properties": { "ID": 25954, "date": "2022-12-22T00:00:00", "smokePM_pred": 2.7460663318634002 }, "geometry": { "type": "Polygon", "coordinates": [ [ [ -97.582225141904686, 26.331592859159105 ], [ -97.560991623419255, 26.25234239127613 ], [ -97.648845277927165, 26.233215074268287 ], [ -97.670120763230557, 26.312399099109037 ], [ -97.582225141904686, 26.331592859159105 ] ] ] } },
{ "type": "Feature", "properties": { "ID": 25955, "date": "2022-12-22T00:00:00", "smokePM_pred": 2.86701440811157 }, "geometry": { "type": "Polygon", "coordinates": [ [ [ -97.494241089320553, 26.350745427355118 ], [ -97.473049779905523, 26.27142863769361 ], [ -97.560991623419255, 26.25234239127613 ], [ -97.582225141904686, 26.331592859159105 ], [ -97.494241089320553, 26.350745427355118 ] ] ] } },
{ "type": "Feature", "properties": { "ID": 25956, "date": "2022-12-22T00:00:00", "smokePM_pred": 2.7824449539184601 }, "geometry": { "type": "Polygon", "coordinates": [ [ [ -97.406168732772329, 26.369856602301134 ], [ -97.385019874823072, 26.290473612934914 ], [ -97.473049779905523, 26.27142863769361 ], [ -97.494241089320553, 26.350745427355118 ], [ -97.406168732772329, 26.369856602301134 ] ] ] } },
{ "type": "Feature", "properties": { "ID": 25957, "date": "2022-12-22T00:00:00", "smokePM_pred": 3.2113802433013898 }, "geometry": { "type": "Polygon", "coordinates": [ [ [ -97.31800820080602, 26.388926182602809 ], [ -97.2969020368553, 26.309477116416748 ], [ -97.385019874823072, 26.290473612934914 ], [ -97.406168732772329, 26.369856602301134 ], [ -97.31800820080602, 26.388926182602809 ] ] ] } },
{ "type": "Feature", "properties": { "ID": 26464, "date": "2022-12-22T00:00:00", "smokePM_pred": 3.9639523029327401 }, "geometry": { "type": "Polygon", "coordinates": [ [ [ -98.042346416075048, 26.314116010222982 ], [ -98.020816433720569, 26.235216168100614 ], [ -98.108268032955621, 26.215819469472642 ], [ -98.129838893040102, 26.29465220023955 ], [ -98.042346416075048, 26.314116010222982 ] ] ] } },
{ "type": "Feature", "properties": { "ID": 26465, "date": "2022-12-22T00:00:00", "smokePM_pred": 3.7170264720916699 }, "geometry": { "type": "Polygon", "coordinates": [ [ [ -97.95476464736592, 26.333539518076481 ], [ -97.933275785433509, 26.254572681726962 ], [ -98.020816433720569, 26.235216168100614 ], [ -98.042346416075048, 26.314116010222982 ], [ -97.95476464736592, 26.333539518076481 ] ] ] } },
{ "type": "Feature", "properties": { "ID": 26466, "date": "2022-12-22T00:00:00", "smokePM_pred": 3.86881399154663 }, "geometry": { "type": "Polygon", "coordinates": [ [ [ -97.867093707818142, 26.352922521653532 ], [ -97.845646209172472, 26.273888809012512 ], [ -97.933275785433509, 26.254572681726962 ], [ -97.95476464736592, 26.333539518076481 ], [ -97.867093707818142, 26.352922521653532 ] ] ] } },
{ "type": "Feature", "properties": { "ID": 26467, "date": "2022-12-22T00:00:00", "smokePM_pred": 2.5557951927185099 }, "geometry": { "type": "Polygon", "coordinates": [ [ [ -97.779333719579896, 26.372264818786739 ], [ -97.757927827252857, 26.293164348598115 ], [ -97.845646209172472, 26.273888809012512 ], [ -97.867093707818142, 26.352922521653532 ], [ -97.779333719579896, 26.372264818786739 ] ] ] } },
{ "type": "Feature", "properties": { "ID": 26468, "date": "2022-12-22T00:00:00", "smokePM_pred": 2.79730129241943 }, "geometry": { "type": "Polygon", "coordinates": [ [ [ -97.691484806045167, 26.391566207292026 ], [ -97.670120763230557, 26.312399099109037 ], [ -97.757927827252857, 26.293164348598115 ], [ -97.779333719579896, 26.372264818786739 ], [ -97.691484806045167, 26.391566207292026 ] ] ] } },
{ "type": "Feature", "properties": { "ID": 26469, "date": "2022-12-22T00:00:00", "smokePM_pred": 2.7400610446929901 }, "geometry": { "type": "Polygon", "coordinates": [ [ [ -97.603547091856569, 26.410826484973025 ], [ -97.582225141904686, 26.331592859159105 ], [ -97.670120763230557, 26.312399099109037 ], [ -97.691484806045167, 26.391566207292026 ], [ -97.603547091856569, 26.410826484973025 ] ] ] } },
{ "type": "Feature", "properties": { "ID": 26470, "date": "2022-12-22T00:00:00", "smokePM_pred": 2.4712426662445099 }, "geometry": { "type": "Polygon", "coordinates": [ [ [ -97.515520702908262, 26.430045449625336 ], [ -97.494241089320553, 26.350745427355118 ], [ -97.582225141904686, 26.331592859159105 ], [ -97.603547091856569, 26.410826484973025 ], [ -97.515520702908262, 26.430045449625336 ] ] ] } },
{ "type": "Feature", "properties": { "ID": 26471, "date": "2022-12-22T00:00:00", "smokePM_pred": 3.0985944271087602 }, "geometry": { "type": "Polygon", "coordinates": [ [ [ -97.427405766348784, 26.449222899040926 ], [ -97.406168732772329, 26.369856602301134 ], [ -97.494241089320553, 26.350745427355118 ], [ -97.515520702908262, 26.430045449625336 ], [ -97.427405766348784, 26.449222899040926 ] ] ] } },
{ "type": "Feature", "properties": { "ID": 26472, "date": "2022-12-22T00:00:00", "smokePM_pred": 3.4541697502136199 }, "geometry": { "type": "Polygon", "coordinates": [ [ [ -97.339202410583937, 26.468358631012453 ], [ -97.31800820080602, 26.388926182602809 ], [ -97.406168732772329, 26.369856602301134 ], [ -97.427405766348784, 26.449222899040926 ], [ -97.339202410583937, 26.468358631012453 ] ] ] } },
{ "type": "Feature", "properties": { "ID": 26979, "date": "2022-12-22T00:00:00", "smokePM_pred": 3.1800310611724898 }, "geometry": { "type": "Polygon", "coordinates": [ [ [ -98.063965690380243, 26.392998557789955 ], [ -98.042346416075048, 26.314116010222982 ], [ -98.129838893040102, 26.29465220023955 ], [ -98.151499164740372, 26.37346756202982 ], [ -98.063965690380243, 26.392998557789955 ] ] ] } },
{ "type": "Feature", "properties": { "ID": 26980, "date": "2022-12-22T00:00:00", "smokePM_pred": 3.7800481319427499 }, "geometry": { "type": "Polygon", "coordinates": [ [ [ -97.976342680344118, 26.412489134391546 ], [ -97.95476464736592, 26.333539518076481 ], [ -98.042346416075048, 26.314116010222982 ], [ -98.063965690380243, 26.392998557789955 ], [ -97.976342680344118, 26.412489134391546 ] ] ] } },
{ "type": "Feature", "properties": { "ID": 26981, "date": "2022-12-22T00:00:00", "smokePM_pred": 2.79348921775818 }, "geometry": { "type": "Polygon", "coordinates": [ [ [ -97.888630255361875, 26.43193908887886 ], [ -97.867093707818142, 26.352922521653532 ], [ -97.95476464736592, 26.333539518076481 ], [ -97.976342680344118, 26.412489134391546 ], [ -97.888630255361875, 26.43193908887886 ] ] ] } },
{ "type": "Feature", "properties": { "ID": 26982, "date": "2022-12-22T00:00:00", "smokePM_pred": 3.31152319908142 }, "geometry": { "type": "Polygon", "coordinates": [ [ [ -97.800828537411533, 26.451348218274262 ], [ -97.779333719579896, 26.372264818786739 ], [ -97.867093707818142, 26.352922521653532 ], [ -97.888630255361875, 26.43193908887886 ], [ -97.800828537411533, 26.451348218274262 ] ] ] } },
{ "type": "Feature", "properties": { "ID": 26983, "date": "2022-12-22T00:00:00", "smokePM_pred": 2.8726549148559601 }, "geometry": { "type": "Polygon", "coordinates": [ [ [ -97.712937649722249, 26.470716319582497 ], [ -97.691484806045167, 26.391566207292026 ], [ -97.779333719579896, 26.372264818786739 ], [ -97.800828537411533, 26.451348218274262 ], [ -97.712937649722249, 26.470716319582497 ] ] ] } },
{ "type": "Feature", "properties": { "ID": 26984, "date": "2022-12-22T00:00:00", "smokePM_pred": 2.7788846492767298 }, "geometry": { "type": "Polygon", "coordinates": [ [ [ -97.624957716777232, 26.490043189795003 ], [ -97.603547091856569, 26.410826484973025 ], [ -97.691484806045167, 26.391566207292026 ], [ -97.712937649722249, 26.470716319582497 ], [ -97.624957716777232, 26.490043189795003 ] ] ] } },
{ "type": "Feature", "properties": { "ID": 26985, "date": "2022-12-22T00:00:00", "smokePM_pred": 2.39772295951843 }, "geometry": { "type": "Polygon", "coordinates": [ [ [ -97.53688886431668, 26.509328625894266 ], [ -97.515520702908262, 26.430045449625336 ], [ -97.603547091856569, 26.410826484973025 ], [ -97.624957716777232, 26.490043189795003 ], [ -97.53688886431668, 26.509328625894266 ] ] ] } },
{ "type": "Feature", "properties": { "ID": 26986, "date": "2022-12-22T00:00:00", "smokePM_pred": 3.2460513114929199 }, "geometry": { "type": "Polygon", "coordinates": [ [ [ -97.44873121934063, 26.528572424858179 ], [ -97.427405766348784, 26.449222899040926 ], [ -97.515520702908262, 26.430045449625336 ], [ -97.53688886431668, 26.509328625894266 ], [ -97.44873121934063, 26.528572424858179 ] ] ] } },
{ "type": "Feature", "properties": { "ID": 26987, "date": "2022-12-22T00:00:00", "smokePM_pred": 3.5035326480865501 }, "geometry": { "type": "Polygon", "coordinates": [ [ [ -97.360484910111879, 26.547774383664418 ], [ -97.339202410583937, 26.468358631012453 ], [ -97.427405766348784, 26.449222899040926 ], [ -97.44873121934063, 26.528572424858179 ], [ -97.360484910111879, 26.547774383664418 ] ] ] } },
{ "type": "Feature", "properties": { "ID": 27494, "date": "2022-12-22T00:00:00", "smokePM_pred": 2.3768548965454102 }, "geometry": { "type": "Polygon", "coordinates": [ [ [ -98.085674500568985, 26.4718637300182 ], [ -98.063965690380243, 26.392998557789955 ], [ -98.151499164740372, 26.37346756202982 ], [ -98.173249091808415, 26.452265473752657 ], [ -98.085674500568985, 26.4718637300182 ] ] ] } },
{ "type": "Feature", "properties": { "ID": 27495, "date": "2022-12-22T00:00:00", "smokePM_pred": 2.51093626022339 }, "geometry": { "type": "Polygon", "coordinates": [ [ [ -97.998010128476466, 26.491421450197315 ], [ -97.976342680344118, 26.412489134391546 ], [ -98.063965690380243, 26.392998557789955 ], [ -98.085674500568985, 26.4718637300182 ], [ -97.998010128476466, 26.491421450197315 ] ] ] } },
{ "type": "Feature", "properties": { "ID": 27496, "date": "2022-12-22T00:00:00", "smokePM_pred": 2.4956572055816699 }, "geometry": { "type": "Polygon", "coordinates": [ [ [ -97.910256096082207, 26.510938430523161 ], [ -97.888630255361875, 26.43193908887886 ], [ -97.976342680344118, 26.412489134391546 ], [ -97.998010128476466, 26.491421450197315 ], [ -97.910256096082207, 26.510938430523161 ] ] ] } },
{ "type": "Feature", "properties": { "ID": 27497, "date": "2022-12-22T00:00:00", "smokePM_pred": 3.1976554393768302 }, "geometry": { "type": "Polygon", "coordinates": [ [ [ -97.822412525191126, 26.530414467205972 ], [ -97.800828537411533, 26.451348218274262 ], [ -97.888630255361875, 26.43193908887886 ], [ -97.910256096082207, 26.510938430523161 ], [ -97.822412525191126, 26.530414467205972 ] ] ] } },
{ "type": "Feature", "properties": { "ID": 27498, "date": "2022-12-22T00:00:00", "smokePM_pred": 2.4887113571167001 }, "geometry": { "type": "Polygon", "coordinates": [ [ [ -97.734479538864562, 26.549849356437335 ], [ -97.712937649722249, 26.470716319582497 ], [ -97.800828537411533, 26.451348218274262 ], [ -97.822412525191126, 26.530414467205972 ], [ -97.734479538864562, 26.549849356437335 ] ] ] } },
{ "type": "Feature", "properties": { "ID": 27499, "date": "2022-12-22T00:00:00", "smokePM_pred": 2.5901787281036399 }, "geometry": { "type": "Polygon", "coordinates": [ [ [ -97.646457261423421, 26.569242894394563 ], [ -97.624957716777232, 26.490043189795003 ], [ -97.712937649722249, 26.470716319582497 ], [ -97.734479538864562, 26.549849356437335 ], [ -97.646457261423421, 26.569242894394563 ] ] ] } },
{ "type": "Feature", "properties": { "ID": 27500, "date": "2022-12-22T00:00:00", "smokePM_pred": 2.3379366397857702 }, "geometry": { "type": "Polygon", "coordinates": [ [ [ -97.558345818451031, 26.588594877245058 ], [ -97.53688886431668, 26.509328625894266 ], [ -97.624957716777232, 26.490043189795003 ], [ -97.646457261423421, 26.569242894394563 ], [ -97.558345818451031, 26.588594877245058 ] ] ] } },
{ "type": "Feature", "properties": { "ID": 27501, "date": "2022-12-22T00:00:00", "smokePM_pred": 3.62175488471985 }, "geometry": { "type": "Polygon", "coordinates": [ [ [ -97.470145336796094, 26.607905101150674 ], [ -97.44873121934063, 26.528572424858179 ], [ -97.53688886431668, 26.509328625894266 ], [ -97.558345818451031, 26.588594877245058 ], [ -97.470145336796094, 26.607905101150674 ] ] ] } },
{ "type": "Feature", "properties": { "ID": 28011, "date": "2022-12-22T00:00:00", "smokePM_pred": 2.3848462104797399 }, "geometry": { "type": "Polygon", "coordinates": [ [ [ -97.931971475508831, 26.589920466109433 ], [ -97.910256096082207, 26.510938430523161 ], [ -97.998010128476466, 26.491421450197315 ], [ -98.019767237119453, 26.570336384706497 ], [ -97.931971475508831, 26.589920466109433 ] ] ] } },
{ "type": "Feature", "properties": { "ID": 28012, "date": "2022-12-22T00:00:00", "smokePM_pred": 5.37717485427856 }, "geometry": { "type": "Polygon", "coordinates": [ [ [ -97.844085928616096, 26.60946348541615 ], [ -97.822412525191126, 26.530414467205972 ], [ -97.910256096082207, 26.510938430523161 ], [ -97.931971475508831, 26.589920466109433 ], [ -97.844085928616096, 26.60946348541615 ] ] ] } },
{ "type": "Feature", "properties": { "ID": 28013, "date": "2022-12-22T00:00:00", "smokePM_pred": 2.67420601844788 }, "geometry": { "type": "Polygon", "coordinates": [ [ [ -97.756110719331872, 26.628965238003161 ], [ -97.734479538864562, 26.549849356437335 ], [ -97.822412525191126, 26.530414467205972 ], [ -97.844085928616096, 26.60946348541615 ], [ -97.756110719331872, 26.628965238003161 ] ] ] } },
{ "type": "Feature", "properties": { "ID": 28014, "date": "2022-12-22T00:00:00", "smokePM_pred": 3.1808676719665501 }, "geometry": { "type": "Polygon", "coordinates": [ [ [ -97.66804597181175, 26.648425519231708 ], [ -97.646457261423421, 26.569242894394563 ], [ -97.734479538864562, 26.549849356437335 ], [ -97.756110719331872, 26.628965238003161 ], [ -97.66804597181175, 26.648425519231708 ] ] ] } },
{ "type": "Feature", "properties": { "ID": 28015, "date": "2022-12-22T00:00:00", "smokePM_pred": 3.6800720691680899 }, "geometry": { "type": "Polygon", "coordinates": [ [ [ -97.579891811479314, 26.66784412445212 ], [ -97.558345818451031, 26.588594877245058 ], [ -97.646457261423421, 26.569242894394563 ], [ -97.66804597181175, 26.648425519231708 ], [ -97.579891811479314, 26.66784412445212 ] ] ] } },
{ "type": "Feature", "properties": { "ID": 70693, "date": "2022-12-22T00:00:00", "smokePM_pred": 1.46210813522339 }, "geometry": { "type": "Polygon", "coordinates": [ [ [ -105.620295605012245, 31.386216156061529 ], [ -105.587651858175633, 31.31384603709261 ], [ -105.67190616651051, 31.285854101374728 ], [ -105.70457874983849, 31.358144977471095 ], [ -105.620295605012245, 31.386216156061529 ] ] ] } },
{ "type": "Feature", "properties": { "ID": 70694, "date": "2022-12-22T00:00:00", "smokePM_pred": 1.49595618247986 }, "geometry": { "type": "Polygon", "coordinates": [ [ [ -105.535894625724751, 31.414253998006689 ], [ -105.503280038679961, 31.34180468405269 ], [ -105.587651858175633, 31.31384603709261 ], [ -105.620295605012245, 31.386216156061529 ], [ -105.535894625724751, 31.414253998006689 ] ] ] } },
{ "type": "Feature", "properties": { "ID": 70695, "date": "2022-12-22T00:00:00", "smokePM_pred": 1.4940478801727299 }, "geometry": { "type": "Polygon", "coordinates": [ [ [ -105.451375807196442, 31.442258243512139 ], [ -105.418790704176899, 31.369729783280874 ], [ -105.503280038679961, 31.34180468405269 ], [ -105.535894625724751, 31.414253998006689 ], [ -105.451375807196442, 31.442258243512139 ] ] ] } },
{ "type": "Feature", "properties": { "ID": 71206, "date": "2022-12-22T00:00:00", "smokePM_pred": 1.50673007965088 }, "geometry": { "type": "Polygon", "coordinates": [ [ [ -105.8215629849511, 31.402220724090306 ], [ -105.788744066289127, 31.330040721571617 ], [ -105.872791561747803, 31.301903647237577 ], [ -105.905638664437205, 31.374004229009657 ], [ -105.8215629849511, 31.402220724090306 ] ] ] } },
{ "type": "Feature", "properties": { "ID": 71207, "date": "2022-12-22T00:00:00", "smokePM_pred": 1.4948823451995801 }, "geometry": { "type": "Polygon", "coordinates": [ [ [ -105.737369161758352, 31.430404354828685 ], [ -105.70457874983849, 31.358144977471095 ], [ -105.788744066289127, 31.330040721571617 ], [ -105.8215629849511, 31.402220724090306 ], [ -105.737369161758352, 31.430404354828685 ] ] ] } },
{ "type": "Feature", "properties": { "ID": 71208, "date": "2022-12-22T00:00:00", "smokePM_pred": 1.5769277811050399 }, "geometry": { "type": "Polygon", "coordinates": [ [ [ -105.653057186527775, 31.45855486153534 ], [ -105.620295605012245, 31.386216156061529 ], [ -105.70457874983849, 31.358144977471095 ], [ -105.737369161758352, 31.430404354828685 ], [ -105.653057186527775, 31.45855486153534 ] ] ] } },
{ "type": "Feature", "properties": { "ID": 71209, "date": "2022-12-22T00:00:00", "smokePM_pred": 1.6531435251236 }, "geometry": { "type": "Polygon", "coordinates": [ [ [ -105.56862705222936, 31.48667198405581 ], [ -105.535894625724751, 31.414253998006689 ], [ -105.620295605012245, 31.386216156061529 ], [ -105.653057186527775, 31.45855486153534 ], [ -105.56862705222936, 31.48667198405581 ] ] ] } },
{ "type": "Feature", "properties": { "ID": 71210, "date": "2022-12-22T00:00:00", "smokePM_pred": 1.46861672401428 }, "geometry": { "type": "Polygon", "coordinates": [ [ [ -105.484078753142498, 31.514755461774179 ], [ -105.451375807196442, 31.442258243512139 ], [ -105.535894625724751, 31.414253998006689 ], [ -105.56862705222936, 31.48667198405581 ], [ -105.484078753142498, 31.514755461774179 ] ] ] } },
{ "type": "Feature", "properties": { "ID": 71720, "date": "2022-12-22T00:00:00", "smokePM_pred": 1.2668442726135301 }, "geometry": { "type": "Polygon", "coordinates": [ [ [ -105.938603901423264, 31.446073007479974 ], [ -105.905638664437205, 31.374004229009657 ], [ -105.989596209840812, 31.345755128807749 ], [ -106.022589298180023, 31.417744357019206 ], [ -105.938603901423264, 31.446073007479974 ] ] ] } },
{ "type": "Feature", "properties": { "ID": 71721, "date": "2022-12-22T00:00:00", "smokePM_pred": 1.5469051599502599 }, "geometry": { "type": "Polygon", "coordinates": [ [ [ -105.854500047535254, 31.474369008075726 ], [ -105.8215629849511, 31.402220724090306 ], [ -105.905638664437205, 31.374004229009657 ], [ -105.938603901423264, 31.446073007479974 ], [ -105.854500047535254, 31.474369008075726 ] ] ] } },
{ "type": "Feature", "properties": { "ID": 71722, "date": "2022-12-22T00:00:00", "smokePM_pred": 1.5737429857253999 }, "geometry": { "type": "Polygon", "coordinates": [ [ [ -105.770277725932942, 31.502632098772661 ], [ -105.737369161758352, 31.430404354828685 ], [ -105.8215629849511, 31.402220724090306 ], [ -105.854500047535254, 31.474369008075726 ], [ -105.770277725932942, 31.502632098772661 ] ] ] } },
{ "type": "Feature", "properties": { "ID": 71723, "date": "2022-12-22T00:00:00", "smokePM_pred": 1.46108686923981 }, "geometry": { "type": "Polygon", "coordinates": [ [ [ -105.685936927329394, 31.530862019065236 ], [ -105.653057186527775, 31.45855486153534 ], [ -105.737369161758352, 31.430404354828685 ], [ -105.770277725932942, 31.502632098772661 ], [ -105.685936927329394, 31.530862019065236 ] ] ] } },
{ "type": "Feature", "properties": { "ID": 71724, "date": "2022-12-22T00:00:00", "smokePM_pred": 1.46033883094788 }, "geometry": { "type": "Polygon", "coordinates": [ [ [ -105.601477643742058, 31.559058507979607 ], [ -105.56862705222936, 31.48667198405581 ], [ -105.653057186527775, 31.45855486153534 ], [ -105.685936927329394, 31.530862019065236 ], [ -105.601477643742058, 31.559058507979607 ] ] ] } },
{ "type": "Feature", "properties": { "ID": 71725, "date": "2022-12-22T00:00:00", "smokePM_pred": 1.5539078712463399 }, "geometry": { "type": "Polygon", "coordinates": [ [ [ -105.516899868501014, 31.587221304077239 ], [ -105.484078753142498, 31.514755461774179 ], [ -105.56862705222936, 31.48667198405581 ], [ -105.601477643742058, 31.559058507979607 ], [ -105.516899868501014, 31.587221304077239 ] ] ] } },
{ "type": "Feature", "properties": { "ID": 72233, "date": "2022-12-22T00:00:00", "smokePM_pred": 2.8747711181640598 }, "geometry": { "type": "Polygon", "coordinates": [ [ [ -106.139595299603769, 31.461260842395806 ], [ -106.106456249676398, 31.389383316251919 ], [ -106.19020476906293, 31.360990144257968 ], [ -106.223371012711624, 31.432787949158133 ], [ -106.139595299603769, 31.461260842395806 ] ] ] } },
{ "type": "Feature", "properties": { "ID": 72234, "date": "2022-12-22T00:00:00", "smokePM_pred": 1.36257195472717 }, "geometry": { "type": "Polygon", "coordinates": [ [ [ -106.055700831992866, 31.489701561635471 ], [ -106.022589298180023, 31.417744357019206 ], [ -106.106456249676398, 31.389383316251919 ], [ -106.139595299603769, 31.461260842395806 ], [ -106.055700831992866, 31.489701561635471 ] ] ] } },
{ "type": "Feature", "properties": { "ID": 72235, "date": "2022-12-22T00:00:00", "smokePM_pred": 1.4897447824478101 }, "geometry": { "type": "Polygon", "coordinates": [ [ [ -105.971687595755228, 31.518109846990029 ], [ -105.938603901423264, 31.446073007479974 ], [ -106.022589298180023, 31.417744357019206 ], [ -106.055700831992866, 31.489701561635471 ], [ -105.971687595755228, 31.518109846990029 ] ] ] } },
{ "type": "Feature", "properties": { "ID": 72236, "date": "2022-12-22T00:00:00", "smokePM_pred": 1.6602357625961299 }, "geometry": { "type": "Polygon", "coordinates": [ [ [ -105.8875555780497, 31.546485438090382 ], [ -105.854500047535254, 31.474369008075726 ], [ -105.938603901423264, 31.446073007479974 ], [ -105.971687595755228, 31.518109846990029 ], [ -105.8875555780497, 31.546485438090382 ] ] ] } },
{ "type": "Feature", "properties": { "ID": 72237, "date": "2022-12-22T00:00:00", "smokePM_pred": 1.5388875007629399 }, "geometry": { "type": "Polygon", "coordinates": [ [ [ -105.803304767326139, 31.574828074088849 ], [ -105.770277725932942, 31.502632098772661 ], [ -105.854500047535254, 31.474369008075726 ], [ -105.8875555780497, 31.546485438090382 ], [ -105.803304767326139, 31.574828074088849 ] ] ] } },
{ "type": "Feature", "properties": { "ID": 72238, "date": "2022-12-22T00:00:00", "smokePM_pred": 1.47760689258575 }, "geometry": { "type": "Polygon", "coordinates": [ [ [ -105.718935153333575, 31.603137493662668 ], [ -105.685936927329394, 31.530862019065236 ], [ -105.770277725932942, 31.502632098772661 ], [ -105.803304767326139, 31.574828074088849 ], [ -105.718935153333575, 31.603137493662668 ] ] ] } },
{ "type": "Feature", "properties": { "ID": 72239, "date": "2022-12-22T00:00:00", "smokePM_pred": 1.5385710000991799 }, "geometry": { "type": "Polygon", "coordinates": [ [ [ -105.634446727128633, 31.631413435017517 ], [ -105.601477643742058, 31.559058507979607 ], [ -105.685936927329394, 31.530862019065236 ], [ -105.718935153333575, 31.603137493662668 ], [ -105.634446727128633, 31.631413435017517 ] ] ] } },
{ "type": "Feature", "properties": { "ID": 72747, "date": "2022-12-22T00:00:00", "smokePM_pred": 2.6149423122406001 }, "geometry": { "type": "Polygon", "coordinates": [ [ [ -106.256655995676368, 31.504553425413654 ], [ -106.223371012711624, 31.432787949158133 ], [ -106.307027986714445, 31.404283141324132 ], [ -106.340339825318097, 31.475968770592466 ], [ -106.256655995676368, 31.504553425413654 ] ] ] } },
{ "type": "Feature", "properties": { "ID": 72748, "date": "2022-12-22T00:00:00", "smokePM_pred": 2.6922168731689502 }, "geometry": { "type": "Polygon", "coordinates": [ [ [ -106.172853104246542, 31.533106124031189 ], [ -106.139595299603769, 31.461260842395806 ], [ -106.223371012711624, 31.432787949158133 ], [ -106.256655995676368, 31.504553425413654 ], [ -106.172853104246542, 31.533106124031189 ] ] ] } },
{ "type": "Feature", "properties": { "ID": 72749, "date": "2022-12-22T00:00:00", "smokePM_pred": 1.34561514854431 }, "geometry": { "type": "Polygon", "coordinates": [ [ [ -106.088931134646231, 31.561626606238416 ], [ -106.055700831992866, 31.489701561635471 ], [ -106.139595299603769, 31.461260842395806 ], [ -106.172853104246542, 31.533106124031189 ], [ -106.088931134646231, 31.561626606238416 ] ] ] } },
{ "type": "Feature", "properties": { "ID": 72750, "date": "2022-12-22T00:00:00", "smokePM_pred": 1.52873206138611 }, "geometry": { "type": "Polygon", "coordinates": [ [ [ -106.004890071770149, 31.590114611339917 ], [ -105.971687595755228, 31.518109846990029 ], [ -106.055700831992866, 31.489701561635471 ], [ -106.088931134646231, 31.561626606238416 ], [ -106.004890071770149, 31.590114611339917 ] ] ] } },
{ "type": "Feature", "properties": { "ID": 72751, "date": "2022-12-22T00:00:00", "smokePM_pred": 1.36719369888306 }, "geometry": { "type": "Polygon", "coordinates": [ [ [ -105.920729901798737, 31.61856987815494 ], [ -105.8875555780497, 31.546485438090382 ], [ -105.971687595755228, 31.518109846990029 ], [ -106.004890071770149, 31.590114611339917 ], [ -105.920729901798737, 31.61856987815494 ] ] ] } },
{ "type": "Feature", "properties": { "ID": 72752, "date": "2022-12-22T00:00:00", "smokePM_pred": 1.5625907182693499 }, "geometry": { "type": "Polygon", "coordinates": [ [ [ -105.836450612206278, 31.646992145020818 ], [ -105.803304767326139, 31.574828074088849 ], [ -105.8875555780497, 31.546485438090382 ], [ -105.920729901798737, 31.61856987815494 ], [ -105.836450612206278, 31.646992145020818 ] ] ] } },
{ "type": "Feature", "properties": { "ID": 72753, "date": "2022-12-22T00:00:00", "smokePM_pred": 1.3832253217697099 }, "geometry": { "type": "Polygon", "coordinates": [ [ [ -105.752052191769479, 31.6753811497965 ], [ -105.718935153333575, 31.603137493662668 ], [ -105.803304767326139, 31.574828074088849 ], [ -105.836450612206278, 31.646992145020818 ], [ -105.752052191769479, 31.6753811497965 ] ] ] } },
{ "type": "Feature", "properties": { "ID": 73262, "date": "2022-12-22T00:00:00", "smokePM_pred": 2.5399308204650901 }, "geometry": { "type": "Polygon", "coordinates": [ [ [ -106.290060040640654, 31.57628643563412 ], [ -106.256655995676368, 31.504553425413654 ], [ -106.340339825318097, 31.475968770592466 ], [ -106.373770708268566, 31.547621849838897 ], [ -106.290060040640654, 31.57628643563412 ] ] ] } },
{ "type": "Feature", "properties": { "ID": 73263, "date": "2022-12-22T00:00:00", "smokePM_pred": 2.6150531768798801 }, "geometry": { "type": "Polygon", "coordinates": [ [ [ -106.206229987272735, 31.60491902398077 ], [ -106.172853104246542, 31.533106124031189 ], [ -106.256655995676368, 31.504553425413654 ], [ -106.290060040640654, 31.57628643563412 ], [ -106.206229987272735, 31.60491902398077 ] ] ] } },
{ "type": "Feature", "properties": { "ID": 73264, "date": "2022-12-22T00:00:00", "smokePM_pred": 2.38630890846252 }, "geometry": { "type": "Polygon", "coordinates": [ [ [ -106.12228053078961, 31.633519353866173 ], [ -106.088931134646231, 31.561626606238416 ], [ -106.172853104246542, 31.533106124031189 ], [ -106.206229987272735, 31.60491902398077 ], [ -106.12228053078961, 31.633519353866173 ] ] ] } },
{ "type": "Feature", "properties": { "ID": 73265, "date": "2022-12-22T00:00:00", "smokePM_pred": 1.3908110857009901 }, "geometry": { "type": "Polygon", "coordinates": [ [ [ -106.038211655096148, 31.662087163785568 ], [ -106.004890071770149, 31.590114611339917 ], [ -106.088931134646231, 31.561626606238416 ], [ -106.12228053078961, 31.633519353866173 ], [ -106.038211655096148, 31.662087163785568 ] ] ] } },
{ "type": "Feature", "properties": { "ID": 73777, "date": "2022-12-22T00:00:00", "smokePM_pred": 2.4122226238250701 }, "geometry": { "type": "Polygon", "coordinates": [ [ [ -106.323583471556915, 31.647986841883441 ], [ -106.290060040640654, 31.57628643563412 ], [ -106.373770708268566, 31.547621849838897 ], [ -106.407320958522646, 31.619242240917053 ], [ -106.323583471556915, 31.647986841883441 ] ] ] } },
{ "type": "Feature", "properties": { "ID": 73778, "date": "2022-12-22T00:00:00", "smokePM_pred": 1.7763191461563099 }, "geometry": { "type": "Polygon", "coordinates": [ [ [ -106.239726273627511, 31.676699404521049 ], [ -106.206229987272735, 31.60491902398077 ], [ -106.290060040640654, 31.57628643563412 ], [ -106.323583471556915, 31.647986841883441 ], [ -106.239726273627511, 31.676699404521049 ] ] ] } }
]
}
