{
"type": "FeatureCollection",
"name": "geo_2022-11-25",
"crs": { "type": "name", "properties": { "name": "urn:ogc:def:crs:OGC:1.3:CRS84" } },
"features": [
{ "type": "Feature", "properties": { "ID": 91416, "date": "2022-11-25T00:00:00", "smokePM_pred": 3.4330964088439901 }, "geometry": { "type": "Polygon", "coordinates": [ [ [ -95.514575714528462, 37.743192922731723 ], [ -95.483611182338976, 37.662552865255286 ], [ -95.585002172389494, 37.637949283435219 ], [ -95.61604913187081, 37.718518146566097 ], [ -95.514575714528462, 37.743192922731723 ] ] ] } },
{ "type": "Feature", "properties": { "ID": 91929, "date": "2022-11-25T00:00:00", "smokePM_pred": 3.5597448348999001 }, "geometry": { "type": "Polygon", "coordinates": [ [ [ -95.748651654280792, 37.77424409447935 ], [ -95.717398624866448, 37.693769692578194 ], [ -95.818623986679953, 37.668947886211626 ], [ -95.849958669707149, 37.749350630825987 ], [ -95.748651654280792, 37.77424409447935 ] ] ] } },
{ "type": "Feature", "properties": { "ID": 91930, "date": "2022-11-25T00:00:00", "smokePM_pred": 3.5143363475799601 }, "geometry": { "type": "Polygon", "coordinates": [ [ [ -95.647220016158272, 37.799064041377321 ], [ -95.61604913187081, 37.718518146566097 ], [ -95.717398624866448, 37.693769692578194 ], [ -95.748651654280792, 37.77424409447935 ], [ -95.647220016158272, 37.799064041377321 ] ] ] } },
{ "type": "Feature", "properties": { "ID": 91931, "date": "2022-11-25T00:00:00", "smokePM_pred": 2.5520906448364298 }, "geometry": { "type": "Polygon", "coordinates": [ [ [ -95.545663961933784, 37.823810144789 ], [ -95.514575714528462, 37.743192922731723 ], [ -95.61604913187081, 37.718518146566097 ], [ -95.647220016158272, 37.799064041377321 ], [ -95.545663961933784, 37.823810144789 ] ] ] } },
{ "type": "Feature", "properties": { "ID": 91932, "date": "2022-11-25T00:00:00", "smokePM_pred": 2.6067426204681401 }, "geometry": { "type": "Polygon", "coordinates": [ [ [ -95.443983700973959, 37.848482078184368 ], [ -95.412978582430995, 37.767793695834136 ], [ -95.514575714528462, 37.743192922731723 ], [ -95.545663961933784, 37.823810144789 ], [ -95.443983700973959, 37.848482078184368 ] ] ] } },
{ "type": "Feature", "properties": { "ID": 92445, "date": "2022-11-25T00:00:00", "smokePM_pred": 2.6915881633758501 }, "geometry": { "type": "Polygon", "coordinates": [ [ [ -95.678515317009769, 37.879586856609301 ], [ -95.647220016158272, 37.799064041377321 ], [ -95.748651654280792, 37.77424409447935 ], [ -95.780029306852001, 37.854695283447633 ], [ -95.678515317009769, 37.879586856609301 ] ] ] } },
{ "type": "Feature", "properties": { "ID": 92446, "date": "2022-11-25T00:00:00", "smokePM_pred": 2.6486048698425302 }, "geometry": { "type": "Polygon", "coordinates": [ [ [ -95.576876416537885, 37.904404420725726 ], [ -95.545663961933784, 37.823810144789 ], [ -95.647220016158272, 37.799064041377321 ], [ -95.678515317009769, 37.879586856609301 ], [ -95.576876416537885, 37.904404420725726 ] ] ] } },
{ "type": "Feature", "properties": { "ID": 92447, "date": "2022-11-25T00:00:00", "smokePM_pred": 2.7150609493255602 }, "geometry": { "type": "Polygon", "coordinates": [ [ [ -95.475112814569769, 37.929147647972826 ], [ -95.443983700973959, 37.848482078184368 ], [ -95.545663961933784, 37.823810144789 ], [ -95.576876416537885, 37.904404420725726 ], [ -95.475112814569769, 37.929147647972826 ] ] ] } },
{ "type": "Feature", "properties": { "ID": 98161, "date": "2022-11-25T00:00:00", "smokePM_pred": 2.7007527351379399 }, "geometry": { "type": "Polygon", "coordinates": [ [ [ -90.639303704017252, 39.965862108327151 ], [ -90.611621330411509, 39.882119124367023 ], [ -90.720273819624865, 39.860790661517314 ], [ -90.748067655873314, 39.944470645507721 ], [ -90.639303704017252, 39.965862108327151 ] ] ] } },
{ "type": "Feature", "properties": { "ID": 98162, "date": "2022-11-25T00:00:00", "smokePM_pred": 2.7229797840118399 }, "geometry": { "type": "Polygon", "coordinates": [ [ [ -90.530423694133731, 39.987160747883301 ], [ -90.502853301140206, 39.903354998735807 ], [ -90.611621330411509, 39.882119124367023 ], [ -90.639303704017252, 39.965862108327151 ], [ -90.530423694133731, 39.987160747883301 ] ] ] } },
{ "type": "Feature", "properties": { "ID": 98675, "date": "2022-11-25T00:00:00", "smokePM_pred": 3.0822017192840598 }, "geometry": { "type": "Polygon", "coordinates": [ [ [ -90.775977915192271, 40.028133228533669 ], [ -90.748067655873314, 39.944470645507721 ], [ -90.856715185208557, 39.922986679154526 ], [ -90.884736749696202, 40.006585888984183 ], [ -90.775977915192271, 40.028133228533669 ] ] ] } },
{ "type": "Feature", "properties": { "ID": 98676, "date": "2022-11-25T00:00:00", "smokePM_pred": 2.82921171188354 }, "geometry": { "type": "Polygon", "coordinates": [ [ [ -90.667102136200413, 40.049587830992742 ], [ -90.639303704017252, 39.965862108327151 ], [ -90.748067655873314, 39.944470645507721 ], [ -90.775977915192271, 40.028133228533669 ], [ -90.667102136200413, 40.049587830992742 ] ] ] } },
{ "type": "Feature", "properties": { "ID": 98677, "date": "2022-11-25T00:00:00", "smokePM_pred": 2.86192774772644 }, "geometry": { "type": "Polygon", "coordinates": [ [ [ -90.558109777911653, 40.070949375233056 ], [ -90.530423694133731, 39.987160747883301 ], [ -90.639303704017252, 39.965862108327151 ], [ -90.667102136200413, 40.049587830992742 ], [ -90.558109777911653, 40.070949375233056 ] ] ] } },
{ "type": "Feature", "properties": { "ID": 99190, "date": "2022-11-25T00:00:00", "smokePM_pred": 2.9367184638977002 }, "geometry": { "type": "Polygon", "coordinates": [ [ [ -90.80400511955267, 40.111778322825494 ], [ -90.775977915192271, 40.028133228533669 ], [ -90.884736749696202, 40.006585888984183 ], [ -90.912875621094727, 40.090167469568989 ], [ -90.80400511955267, 40.111778322825494 ] ] ] } },
{ "type": "Feature", "properties": { "ID": 99191, "date": "2022-11-25T00:00:00", "smokePM_pred": 2.8873872756957999 }, "geometry": { "type": "Polygon", "coordinates": [ [ [ -90.695017148234399, 40.133296205269431 ], [ -90.667102136200413, 40.049587830992742 ], [ -90.775977915192271, 40.028133228533669 ], [ -90.80400511955267, 40.111778322825494 ], [ -90.695017148234399, 40.133296205269431 ] ] ] } },
{ "type": "Feature", "properties": { "ID": 169972, "date": "2022-11-25T00:00:00", "smokePM_pred": 5.4008688926696804 }, "geometry": { "type": "Polygon", "coordinates": [ [ [ -123.537591518842376, 39.208836040094681 ], [ -123.477952309506691, 39.156588105939747 ], [ -123.545032066372173, 39.110218717419372 ], [ -123.60462300504696, 39.162380844532052 ], [ -123.537591518842376, 39.208836040094681 ] ] ] } },
{ "type": "Feature", "properties": { "ID": 169973, "date": "2022-11-25T00:00:00", "smokePM_pred": 5.7720799446106001 }, "geometry": { "type": "Polygon", "coordinates": [ [ [ -123.47040490610155, 39.255297886219054 ], [ -123.410717642383929, 39.202964020705863 ], [ -123.477952309506691, 39.156588105939747 ], [ -123.537591518842376, 39.208836040094681 ], [ -123.47040490610155, 39.255297886219054 ] ] ] } },
{ "type": "Feature", "properties": { "ID": 170487, "date": "2022-11-25T00:00:00", "smokePM_pred": 5.7484245300293004 }, "geometry": { "type": "Polygon", "coordinates": [ [ [ -123.597385854577368, 39.261007216083982 ], [ -123.537591518842376, 39.208836040094681 ], [ -123.60462300504696, 39.162380844532052 ], [ -123.664368653265285, 39.214466213815989 ], [ -123.597385854577368, 39.261007216083982 ] ] ] } },
{ "type": "Feature", "properties": { "ID": 170488, "date": "2022-11-25T00:00:00", "smokePM_pred": 5.7177591323852504 }, "geometry": { "type": "Polygon", "coordinates": [ [ [ -123.530247713896088, 39.307554993859064 ], [ -123.47040490610155, 39.255297886219054 ], [ -123.537591518842376, 39.208836040094681 ], [ -123.597385854577368, 39.261007216083982 ], [ -123.530247713896088, 39.307554993859064 ] ] ] } },
{ "type": "Feature", "properties": { "ID": 170489, "date": "2022-11-25T00:00:00", "smokePM_pred": 5.6884727478027299 }, "geometry": { "type": "Polygon", "coordinates": [ [ [ -123.462953811297567, 39.354109293534698 ], [ -123.403062749147679, 39.301766129380148 ], [ -123.47040490610155, 39.255297886219054 ], [ -123.530247713896088, 39.307554993859064 ], [ -123.462953811297567, 39.354109293534698 ] ] ] } },
{ "type": "Feature", "properties": { "ID": 171002, "date": "2022-11-25T00:00:00", "smokePM_pred": 5.9352278709411603 }, "geometry": { "type": "Polygon", "coordinates": [ [ [ -123.6573355321663, 39.313101379890234 ], [ -123.597385854577325, 39.261007216084032 ], [ -123.6643686532652, 39.214466213816046 ], [ -123.72426922424944, 39.266474571804146 ], [ -123.6573355321663, 39.313101379890234 ] ] ] } },
{ "type": "Feature", "properties": { "ID": 171003, "date": "2022-11-25T00:00:00", "smokePM_pred": 5.9612455368042001 }, "geometry": { "type": "Polygon", "coordinates": [ [ [ -123.590246283469227, 39.359735089058525 ], [ -123.530247713896088, 39.307554993859064 ], [ -123.597385854577368, 39.261007216083982 ], [ -123.657335532166357, 39.313101379890192 ], [ -123.590246283469227, 39.359735089058525 ] ] ] } },
{ "type": "Feature", "properties": { "ID": 171004, "date": "2022-11-25T00:00:00", "smokePM_pred": 6.1178269386291504 }, "geometry": { "type": "Polygon", "coordinates": [ [ [ -123.523001055982377, 39.406375445624803 ], [ -123.462953811297567, 39.354109293534698 ], [ -123.530247713896088, 39.307554993859064 ], [ -123.590246283469227, 39.359735089058525 ], [ -123.523001055982377, 39.406375445624803 ] ] ] } },
{ "type": "Feature", "properties": { "ID": 171005, "date": "2022-11-25T00:00:00", "smokePM_pred": 4.8814539909362802 }, "geometry": { "type": "Polygon", "coordinates": [ [ [ -123.455599426683534, 39.453022194582338 ], [ -123.395503726026419, 39.400669860185239 ], [ -123.462953811297567, 39.354109293534698 ], [ -123.523001055982377, 39.406375445624803 ], [ -123.455599426683534, 39.453022194582338 ] ] ] } },
{ "type": "Feature", "properties": { "ID": 171517, "date": "2022-11-25T00:00:00", "smokePM_pred": 6.2499704360961896 }, "geometry": { "type": "Polygon", "coordinates": [ [ [ -123.717440766227369, 39.365118276868415 ], [ -123.6573355321663, 39.313101379890234 ], [ -123.72426922424944, 39.266474571804146 ], [ -123.784324930380649, 39.318405664406434 ], [ -123.717440766227369, 39.365118276868415 ] ] ] } },
{ "type": "Feature", "properties": { "ID": 171518, "date": "2022-11-25T00:00:00", "smokePM_pred": 5.9233956336975098 }, "geometry": { "type": "Polygon", "coordinates": [ [ [ -123.650400831690902, 39.411837916617813 ], [ -123.590246283469156, 39.359735089058567 ], [ -123.6573355321663, 39.313101379890234 ], [ -123.717440766227369, 39.365118276868415 ], [ -123.650400831690902, 39.411837916617813 ] ] ] } },
{ "type": "Feature", "properties": { "ID": 171519, "date": "2022-11-25T00:00:00", "smokePM_pred": 6.2273035049438503 }, "geometry": { "type": "Polygon", "coordinates": [ [ [ -123.58320470233889, 39.458564329896518 ], [ -123.523001055982377, 39.406375445624803 ], [ -123.590246283469227, 39.359735089058525 ], [ -123.650400831690973, 39.411837916617763 ], [ -123.58320470233889, 39.458564329896518 ] ] ] } },
{ "type": "Feature", "properties": { "ID": 171520, "date": "2022-11-25T00:00:00", "smokePM_pred": 5.8802800178527797 }, "geometry": { "type": "Polygon", "coordinates": [ [ [ -123.515851952877071, 39.505297261620733 ], [ -123.455599426683477, 39.453022194582388 ], [ -123.523001055982306, 39.406375445624853 ], [ -123.583204702338833, 39.458564329896568 ], [ -123.515851952877071, 39.505297261620733 ] ] ] } },
{ "type": "Feature", "properties": { "ID": 171521, "date": "2022-11-25T00:00:00", "smokePM_pred": 4.8017058372497603 }, "geometry": { "type": "Polygon", "coordinates": [ [ [ -123.44834215715494, 39.552036455376467 ], [ -123.388040971708818, 39.499675079597957 ], [ -123.455599426683534, 39.453022194582338 ], [ -123.515851952877142, 39.505297261620683 ], [ -123.44834215715494, 39.552036455376467 ] ] ] } },
{ "type": "Feature", "properties": { "ID": 172032, "date": "2022-11-25T00:00:00", "smokePM_pred": 5.6437573432922399 }, "geometry": { "type": "Polygon", "coordinates": [ [ [ -123.777701770527187, 39.417057651746525 ], [ -123.717440766227369, 39.365118276868415 ], [ -123.784324930380649, 39.318405664406434 ], [ -123.844535983183775, 39.370259236910762 ], [ -123.777701770527187, 39.417057651746525 ] ] ] } },
{ "type": "Feature", "properties": { "ID": 172033, "date": "2022-11-25T00:00:00", "smokePM_pred": 6.0383057594299299 }, "geometry": { "type": "Polygon", "coordinates": [ [ [ -123.710711574584664, 39.463863220705385 ], [ -123.650400831690902, 39.411837916617813 ], [ -123.717440766227369, 39.365118276868415 ], [ -123.777701770527187, 39.417057651746525 ], [ -123.710711574584664, 39.463863220705385 ] ] ] } },
{ "type": "Feature", "properties": { "ID": 172034, "date": "2022-11-25T00:00:00", "smokePM_pred": 5.9151964187622097 }, "geometry": { "type": "Polygon", "coordinates": [ [ [ -123.643564968662261, 39.510675689959236 ], [ -123.58320470233889, 39.458564329896518 ], [ -123.650400831690973, 39.411837916617763 ], [ -123.710711574584735, 39.463863220705328 ], [ -123.643564968662261, 39.510675689959236 ] ] ] } },
{ "type": "Feature", "properties": { "ID": 172035, "date": "2022-11-25T00:00:00", "smokePM_pred": 6.0180168151855504 }, "geometry": { "type": "Polygon", "coordinates": [ [ [ -123.57626152518921, 39.557494804350952 ], [ -123.515851952877142, 39.505297261620683 ], [ -123.58320470233889, 39.458564329896518 ], [ -123.643564968662261, 39.510675689959236 ], [ -123.57626152518921, 39.557494804350952 ] ] ] } },
{ "type": "Feature", "properties": { "ID": 172036, "date": "2022-11-25T00:00:00", "smokePM_pred": 4.5395441055297896 }, "geometry": { "type": "Polygon", "coordinates": [ [ [ -123.508800815722822, 39.604320307389983 ], [ -123.448342157154855, 39.552036455376509 ], [ -123.515851952877071, 39.505297261620733 ], [ -123.576261525189139, 39.557494804351002 ], [ -123.508800815722822, 39.604320307389983 ] ] ] } },
{ "type": "Feature", "properties": { "ID": 172548, "date": "2022-11-25T00:00:00", "smokePM_pred": 5.2381529808044398 }, "geometry": { "type": "Polygon", "coordinates": [ [ [ -123.771178727312204, 39.515810744858413 ], [ -123.710711574584664, 39.463863220705385 ], [ -123.777701770527187, 39.417057651746525 ], [ -123.838118757966072, 39.46891924862603 ], [ -123.771178727312204, 39.515810744858413 ] ] ] } },
{ "type": "Feature", "properties": { "ID": 172549, "date": "2022-11-25T00:00:00", "smokePM_pred": 6.0080418586731001 }, "geometry": { "type": "Polygon", "coordinates": [ [ [ -123.704082072390946, 39.5627092687862 ], [ -123.643564968662261, 39.510675689959236 ], [ -123.710711574584735, 39.463863220705328 ], [ -123.771178727312289, 39.515810744858364 ], [ -123.704082072390946, 39.5627092687862 ] ] ] } },
{ "type": "Feature", "properties": { "ID": 172550, "date": "2022-11-25T00:00:00", "smokePM_pred": 5.8011279106140101 }, "geometry": { "type": "Polygon", "coordinates": [ [ [ -123.636828363349991, 39.609614565182802 ], [ -123.57626152518921, 39.557494804350952 ], [ -123.643564968662261, 39.510675689959236 ], [ -123.704082072390946, 39.5627092687862 ], [ -123.636828363349991, 39.609614565182802 ] ] ] } },
{ "type": "Feature", "properties": { "ID": 172551, "date": "2022-11-25T00:00:00", "smokePM_pred": 4.7050857543945304 }, "geometry": { "type": "Polygon", "coordinates": [ [ [ -123.569417169450091, 39.656526377484852 ], [ -123.508800815722907, 39.604320307389933 ], [ -123.57626152518921, 39.557494804350952 ], [ -123.636828363349991, 39.609614565182802 ], [ -123.569417169450091, 39.656526377484852 ] ] ] } },
{ "type": "Feature", "properties": { "ID": 173063, "date": "2022-11-25T00:00:00", "smokePM_pred": 5.8151330947876003 }, "geometry": { "type": "Polygon", "coordinates": [ [ [ -123.831802504158659, 39.567680231983203 ], [ -123.771178727312289, 39.515810744858364 ], [ -123.838118757966143, 39.46891924862598 ], [ -123.898691940562912, 39.520702810982307 ], [ -123.831802504158659, 39.567680231983203 ] ] ] } },
{ "type": "Feature", "properties": { "ID": 173064, "date": "2022-11-25T00:00:00", "smokePM_pred": 4.5631794929504403 }, "geometry": { "type": "Polygon", "coordinates": [ [ [ -123.764756230091365, 39.614664808714927 ], [ -123.704082072390946, 39.5627092687862 ], [ -123.771178727312289, 39.515810744858364 ], [ -123.831802504158659, 39.567680231983203 ], [ -123.764756230091365, 39.614664808714927 ] ] ] } },
{ "type": "Feature", "properties": { "ID": 173065, "date": "2022-11-25T00:00:00", "smokePM_pred": 5.98262596130371 }, "geometry": { "type": "Polygon", "coordinates": [ [ [ -123.697552686222721, 39.661656285885329 ], [ -123.636828363349991, 39.609614565182802 ], [ -123.704082072390946, 39.5627092687862 ], [ -123.764756230091365, 39.614664808714927 ], [ -123.697552686222721, 39.661656285885329 ] ] ] } },
{ "type": "Feature", "properties": { "ID": 173066, "date": "2022-11-25T00:00:00", "smokePM_pred": 6.9535541534423801 }, "geometry": { "type": "Polygon", "coordinates": [ [ [ -123.630191439511776, 39.708654406862188 ], [ -123.569417169450091, 39.656526377484852 ], [ -123.636828363349991, 39.609614565182802 ], [ -123.697552686222721, 39.661656285885329 ], [ -123.630191439511776, 39.708654406862188 ] ] ] } },
{ "type": "Feature", "properties": { "ID": 173578, "date": "2022-11-25T00:00:00", "smokePM_pred": 5.3569369316101101 }, "geometry": { "type": "Polygon", "coordinates": [ [ [ -123.892583118516839, 39.619471424355851 ], [ -123.831802504158659, 39.567680231983203 ], [ -123.898691940562912, 39.520702810982307 ], [ -123.959421529439737, 39.572408081665394 ], [ -123.892583118516839, 39.619471424355851 ] ] ] } },
{ "type": "Feature", "properties": { "ID": 173579, "date": "2022-11-25T00:00:00", "smokePM_pred": 5.1672959327697798 }, "geometry": { "type": "Polygon", "coordinates": [ [ [ -123.825587657442682, 39.666542051447784 ], [ -123.764756230091365, 39.614664808714927 ], [ -123.831802504158659, 39.567680231983203 ], [ -123.892583118516839, 39.619471424355851 ], [ -123.825587657442682, 39.666542051447784 ] ] ] } },
{ "type": "Feature", "properties": { "ID": 173580, "date": "2022-11-25T00:00:00", "smokePM_pred": 5.6629447937011701 }, "geometry": { "type": "Polygon", "coordinates": [ [ [ -123.758434711788084, 39.713619707587519 ], [ -123.697552686222721, 39.661656285885329 ], [ -123.764756230091365, 39.614664808714927 ], [ -123.825587657442682, 39.666542051447784 ], [ -123.758434711788084, 39.713619707587519 ] ] ] } },
{ "type": "Feature", "properties": { "ID": 173581, "date": "2022-11-25T00:00:00", "smokePM_pred": 6.7146773338317898 }, "geometry": { "type": "Polygon", "coordinates": [ [ [ -123.691123846205784, 39.760704136077976 ], [ -123.630191439511776, 39.708654406862188 ], [ -123.697552686222721, 39.661656285885329 ], [ -123.758434711788084, 39.713619707587519 ], [ -123.691123846205784, 39.760704136077976 ] ] ] } }
]
}
