{
"type": "FeatureCollection",
"name": "geo_2022-11-28",
"crs": { "type": "name", "properties": { "name": "urn:ogc:def:crs:OGC:1.3:CRS84" } },
"features": [
{ "type": "Feature", "properties": { "ID": 22865, "date": "2022-11-28T00:00:00", "smokePM_pred": 2.3369903564453098 }, "geometry": { "type": "Polygon", "coordinates": [ [ [ -97.368409355058802, 25.874595908630312 ], [ -97.347742823790014, 25.795180148489685 ], [ -97.435434093859982, 25.776490281936866 ], [ -97.45614206753163, 25.855840161837193 ], [ -97.368409355058802, 25.874595908630312 ] ] ] } },
{ "type": "Feature", "properties": { "ID": 22866, "date": "2022-11-28T00:00:00", "smokePM_pred": 3.23828101158142 }, "geometry": { "type": "Polygon", "coordinates": [ [ [ -97.280589774407531, 25.893310995888839 ], [ -97.2599649205399, 25.813829478084013 ], [ -97.347742823790014, 25.795180148489685 ], [ -97.368409355058802, 25.874595908630312 ], [ -97.280589774407531, 25.893310995888839 ] ] ] } },
{ "type": "Feature", "properties": { "ID": 22868, "date": "2022-11-28T00:00:00", "smokePM_pred": 2.6307966709136998 }, "geometry": { "type": "Polygon", "coordinates": [ [ [ -97.104690527112439, 25.930618405583797 ], [ -97.084149733522921, 25.851005743377328 ], [ -97.172100513561389, 25.832438074961921 ], [ -97.192683454907993, 25.911985227055442 ], [ -97.104690527112439, 25.930618405583797 ] ] ] } },
{ "type": "Feature", "properties": { "ID": 23381, "date": "2022-11-28T00:00:00", "smokePM_pred": 2.8972795009613002 }, "geometry": { "type": "Polygon", "coordinates": [ [ [ -97.301301367327071, 25.972776284523526 ], [ -97.280589774407531, 25.893310995888839 ], [ -97.368409355058802, 25.874595908630312 ], [ -97.38916275470929, 25.95399536670319 ], [ -97.301301367327071, 25.972776284523526 ] ] ] } },
{ "type": "Feature", "properties": { "ID": 23382, "date": "2022-11-28T00:00:00", "smokePM_pred": 2.7982349395752002 }, "geometry": { "type": "Polygon", "coordinates": [ [ [ -97.213353004754694, 25.991516222955845 ], [ -97.192683454907993, 25.911985227055442 ], [ -97.280589774407531, 25.893310995888839 ], [ -97.301301367327071, 25.972776284523526 ], [ -97.213353004754694, 25.991516222955845 ] ] ] } },
{ "type": "Feature", "properties": { "ID": 23383, "date": "2022-11-28T00:00:00", "smokePM_pred": 2.6418719291686998 }, "geometry": { "type": "Polygon", "coordinates": [ [ [ -97.125317797425666, 26.010214984651682 ], [ -97.104690527112439, 25.930618405583797 ], [ -97.192683454907993, 25.911985227055442 ], [ -97.213353004754694, 25.991516222955845 ], [ -97.125317797425666, 26.010214984651682 ] ] ] } },
{ "type": "Feature", "properties": { "ID": 23384, "date": "2022-11-28T00:00:00", "smokePM_pred": 3.1632874011993399 }, "geometry": { "type": "Polygon", "coordinates": [ [ [ -97.037195877003398, 26.028872372277092 ], [ -97.016611122797684, 25.949210334942915 ], [ -97.104690527112439, 25.930618405583797 ], [ -97.125317797425666, 26.010214984651682 ], [ -97.037195877003398, 26.028872372277092 ] ] ] } },
{ "type": "Feature", "properties": { "ID": 23897, "date": "2022-11-28T00:00:00", "smokePM_pred": 2.9698657989502002 }, "geometry": { "type": "Polygon", "coordinates": [ [ [ -97.234109399563053, 26.071030986473669 ], [ -97.213353004754694, 25.991516222955845 ], [ -97.301301367327071, 25.972776284523526 ], [ -97.322099935641305, 26.052225267488364 ], [ -97.234109399563053, 26.071030986473669 ] ] ] } },
{ "type": "Feature", "properties": { "ID": 23898, "date": "2022-11-28T00:00:00", "smokePM_pred": 2.4241735935211199 }, "geometry": { "type": "Polygon", "coordinates": [ [ [ -97.14603178103755, 26.08979540470267 ], [ -97.125317797425666, 26.010214984651682 ], [ -97.213353004754694, 25.991516222955845 ], [ -97.234109399563053, 26.071030986473669 ], [ -97.14603178103755, 26.08979540470267 ] ] ] } },
{ "type": "Feature", "properties": { "ID": 23899, "date": "2022-11-28T00:00:00", "smokePM_pred": 3.1919031143188499 }, "geometry": { "type": "Polygon", "coordinates": [ [ [ -97.057867211612262, 26.108518324036531 ], [ -97.037195877003398, 26.028872372277092 ], [ -97.125317797425666, 26.010214984651682 ], [ -97.14603178103755, 26.08979540470267 ], [ -97.057867211612262, 26.108518324036531 ] ] ] } },
{ "type": "Feature", "properties": { "ID": 23900, "date": "2022-11-28T00:00:00", "smokePM_pred": 3.1923584938049299 }, "geometry": { "type": "Polygon", "coordinates": [ [ [ -96.969615824072633, 26.127199546354415 ], [ -96.948987376383812, 26.047488188516922 ], [ -97.037195877003398, 26.028872372277092 ], [ -97.057867211612262, 26.108518324036531 ], [ -96.969615824072633, 26.127199546354415 ] ] ] } },
{ "type": "Feature", "properties": { "ID": 24413, "date": "2022-11-28T00:00:00", "smokePM_pred": 3.0694725513458301 }, "geometry": { "type": "Polygon", "coordinates": [ [ [ -97.166832715755518, 26.1693595895653 ], [ -97.14603178103755, 26.08979540470267 ], [ -97.234109399563053, 26.071030986473669 ], [ -97.254952877024579, 26.150529441125514 ], [ -97.166832715755518, 26.1693595895653 ] ] ] } },
{ "type": "Feature", "properties": { "ID": 24414, "date": "2022-11-28T00:00:00", "smokePM_pred": 3.6324772834777801 }, "geometry": { "type": "Polygon", "coordinates": [ [ [ -97.078625364542233, 26.188148114362622 ], [ -97.057867211612262, 26.108518324036531 ], [ -97.14603178103755, 26.08979540470267 ], [ -97.166832715755518, 26.1693595895653 ], [ -97.078625364542233, 26.188148114362622 ] ] ] } },
{ "type": "Feature", "properties": { "ID": 24415, "date": "2022-11-28T00:00:00", "smokePM_pred": 3.5134441852569598 }, "geometry": { "type": "Polygon", "coordinates": [ [ [ -96.990330956057107, 26.206894816589003 ], [ -96.969615824072633, 26.127199546354415 ], [ -97.057867211612262, 26.108518324036531 ], [ -97.078625364542233, 26.188148114362622 ], [ -96.990330956057107, 26.206894816589003 ] ] ] } },
{ "type": "Feature", "properties": { "ID": 24929, "date": "2022-11-28T00:00:00", "smokePM_pred": 3.9996607303619398 }, "geometry": { "type": "Polygon", "coordinates": [ [ [ -97.099470574951695, 26.267761667102519 ], [ -97.078625364542233, 26.188148114362622 ], [ -97.166832715755518, 26.1693595895653 ], [ -97.187720840624934, 26.248907462773083 ], [ -97.099470574951695, 26.267761667102519 ] ] ] } },
{ "type": "Feature", "properties": { "ID": 24930, "date": "2022-11-28T00:00:00", "smokePM_pred": 3.4811303615570099 }, "geometry": { "type": "Polygon", "coordinates": [ [ [ -97.011133011603164, 26.286573923382402 ], [ -96.990330956057107, 26.206894816589003 ], [ -97.078625364542233, 26.188148114362622 ], [ -97.099470574951695, 26.267761667102519 ], [ -97.011133011603164, 26.286573923382402 ] ] ] } },
{ "type": "Feature", "properties": { "ID": 33332, "date": "2022-11-28T00:00:00", "smokePM_pred": 3.3011548519134499 }, "geometry": { "type": "Polygon", "coordinates": [ [ [ -81.860886436863311, 30.049580465729601 ], [ -81.84934865656227, 29.961604949951159 ], [ -81.950361133641323, 29.951543497144616 ], [ -81.961983370216757, 30.039483459374459 ], [ -81.860886436863311, 30.049580465729601 ] ] ] } },
{ "type": "Feature", "properties": { "ID": 33333, "date": "2022-11-28T00:00:00", "smokePM_pred": 3.0813615322113002 }, "geometry": { "type": "Polygon", "coordinates": [ [ [ -81.75973837438022, 30.059602729427894 ], [ -81.748285236677631, 29.971591916296131 ], [ -81.84934865656227, 29.961604949951159 ], [ -81.860886436863311, 30.049580465729601 ], [ -81.75973837438022, 30.059602729427894 ] ] ] } },
{ "type": "Feature", "properties": { "ID": 43095, "date": "2022-11-28T00:00:00", "smokePM_pred": 3.75035452842712 }, "geometry": { "type": "Polygon", "coordinates": [ [ [ -84.337653722313419, 31.464717548496562 ], [ -84.323150010358901, 31.377713157996741 ], [ -84.424532728971855, 31.36525877882762 ], [ -84.439122967275168, 31.452220817837706 ], [ -84.337653722313419, 31.464717548496562 ] ] ] } },
{ "type": "Feature", "properties": { "ID": 43096, "date": "2022-11-28T00:00:00", "smokePM_pred": 3.5271623134613002 }, "geometry": { "type": "Polygon", "coordinates": [ [ [ -84.236121530341947, 31.477138188766443 ], [ -84.221704580299871, 31.390091693708904 ], [ -84.323150010358901, 31.377713157996741 ], [ -84.337653722313419, 31.464717548496562 ], [ -84.236121530341947, 31.477138188766443 ] ] ] } },
{ "type": "Feature", "properties": { "ID": 45185, "date": "2022-11-28T00:00:00", "smokePM_pred": 2.58531522750854 }, "geometry": { "type": "Polygon", "coordinates": [ [ [ -81.313661073327395, 32.156064856702663 ], [ -81.301649189123282, 32.06792892976646 ], [ -81.405130160602468, 32.057682095542276 ], [ -81.417236712385616, 32.145783149642071 ], [ -81.313661073327395, 32.156064856702663 ] ] ] } },
{ "type": "Feature", "properties": { "ID": 45186, "date": "2022-11-28T00:00:00", "smokePM_pred": 2.8785810470581099 }, "geometry": { "type": "Polygon", "coordinates": [ [ [ -81.210032809015146, 32.166264613230737 ], [ -81.198115797405094, 32.078094083816211 ], [ -81.301649189123282, 32.06792892976646 ], [ -81.313661073327395, 32.156064856702663 ], [ -81.210032809015146, 32.166264613230737 ] ] ] } },
{ "type": "Feature", "properties": { "ID": 45187, "date": "2022-11-28T00:00:00", "smokePM_pred": 2.83023285865784 }, "geometry": { "type": "Polygon", "coordinates": [ [ [ -81.106352316973314, 32.176382272078534 ], [ -81.094530381605693, 32.088177411220848 ], [ -81.198115797405094, 32.078094083816211 ], [ -81.210032809015146, 32.166264613230737 ], [ -81.106352316973314, 32.176382272078534 ] ] ] } },
{ "type": "Feature", "properties": { "ID": 45699, "date": "2022-11-28T00:00:00", "smokePM_pred": 2.6645202636718799 }, "geometry": { "type": "Polygon", "coordinates": [ [ [ -81.429396285846195, 32.233878882354595 ], [ -81.417236712385616, 32.145783149642071 ], [ -81.520759329988081, 32.135419640230573 ], [ -81.53301375952779, 32.223480165845395 ], [ -81.429396285846195, 32.233878882354595 ] ] ] } },
{ "type": "Feature", "properties": { "ID": 45700, "date": "2022-11-28T00:00:00", "smokePM_pred": 2.4352178573608398 }, "geometry": { "type": "Polygon", "coordinates": [ [ [ -81.325725583006019, 32.244195526420512 ], [ -81.313661073327395, 32.156064856702663 ], [ -81.417236712385616, 32.145783149642071 ], [ -81.429396285846195, 32.233878882354595 ], [ -81.325725583006019, 32.244195526420512 ] ] ] } },
{ "type": "Feature", "properties": { "ID": 45701, "date": "2022-11-28T00:00:00", "smokePM_pred": 2.6085076332092298 }, "geometry": { "type": "Polygon", "coordinates": [ [ [ -81.22200204857397, 32.254429949177123 ], [ -81.210032809015146, 32.166264613230737 ], [ -81.313661073327395, 32.156064856702663 ], [ -81.325725583006019, 32.244195526420512 ], [ -81.22200204857397, 32.254429949177123 ] ] ] } },
{ "type": "Feature", "properties": { "ID": 45702, "date": "2022-11-28T00:00:00", "smokePM_pred": 2.7049596309661901 }, "geometry": { "type": "Polygon", "coordinates": [ [ [ -81.118226081448896, 32.264582002796494 ], [ -81.106352316973314, 32.176382272078534 ], [ -81.210032809015146, 32.166264613230737 ], [ -81.22200204857397, 32.254429949177123 ], [ -81.118226081448896, 32.264582002796494 ] ] ] } },
{ "type": "Feature", "properties": { "ID": 54345, "date": "2022-11-28T00:00:00", "smokePM_pred": 4.1368117332458496 }, "geometry": { "type": "Polygon", "coordinates": [ [ [ -92.704723570003949, 32.060885902874219 ], [ -92.68215476148427, 31.978298899216345 ], [ -92.779009443087318, 31.959069625016639 ], [ -92.801648343914991, 32.041595221741673 ], [ -92.704723570003949, 32.060885902874219 ] ] ] } },
{ "type": "Feature", "properties": { "ID": 54346, "date": "2022-11-28T00:00:00", "smokePM_pred": 4.0647473335266104 }, "geometry": { "type": "Polygon", "coordinates": [ [ [ -92.607706122658328, 32.080112565073392 ], [ -92.585207731888048, 31.997464333081457 ], [ -92.68215476148427, 31.978298899216345 ], [ -92.704723570003949, 32.060885902874219 ], [ -92.607706122658328, 32.080112565073392 ] ] ] } },
{ "type": "Feature", "properties": { "ID": 54347, "date": "2022-11-28T00:00:00", "smokePM_pred": 4.1426033973693803 }, "geometry": { "type": "Polygon", "coordinates": [ [ [ -92.510596230731352, 32.099274967495781 ], [ -92.488168582916927, 32.016565686757801 ], [ -92.585207731888048, 31.997464333081457 ], [ -92.607706122658328, 32.080112565073392 ], [ -92.510596230731352, 32.099274967495781 ] ] ] } },
{ "type": "Feature", "properties": { "ID": 54860, "date": "2022-11-28T00:00:00", "smokePM_pred": 4.1500802040100098 }, "geometry": { "type": "Polygon", "coordinates": [ [ [ -92.727385052265532, 32.143457565602645 ], [ -92.704723570003949, 32.060885902874219 ], [ -92.801648343914991, 32.041595221741673 ], [ -92.824380145493777, 32.124105380130665 ], [ -92.727385052265532, 32.143457565602645 ] ] ] } },
{ "type": "Feature", "properties": { "ID": 54861, "date": "2022-11-28T00:00:00", "smokePM_pred": 4.1474971771240199 }, "geometry": { "type": "Polygon", "coordinates": [ [ [ -92.630296958317516, 32.162745553504159 ], [ -92.607706122658328, 32.080112565073392 ], [ -92.704723570003949, 32.060885902874219 ], [ -92.727385052265532, 32.143457565602645 ], [ -92.630296958317516, 32.162745553504159 ] ] ] } },
{ "type": "Feature", "properties": { "ID": 54862, "date": "2022-11-28T00:00:00", "smokePM_pred": 3.9405083656311 }, "geometry": { "type": "Polygon", "coordinates": [ [ [ -92.533116092736165, 32.181969101998973 ], [ -92.510596230731352, 32.099274967495781 ], [ -92.607706122658328, 32.080112565073392 ], [ -92.630296958317516, 32.162745553504159 ], [ -92.533116092736165, 32.181969101998973 ] ] ] } },
{ "type": "Feature", "properties": { "ID": 54863, "date": "2022-11-28T00:00:00", "smokePM_pred": 3.85759449005127 }, "geometry": { "type": "Polygon", "coordinates": [ [ [ -92.435842686464227, 32.201127969596612 ], [ -92.413394124921894, 32.118372869643586 ], [ -92.510596230731352, 32.099274967495781 ], [ -92.533116092736165, 32.181969101998973 ], [ -92.435842686464227, 32.201127969596612 ] ] ] } },
{ "type": "Feature", "properties": { "ID": 55376, "date": "2022-11-28T00:00:00", "smokePM_pred": 4.0263032913207999 }, "geometry": { "type": "Polygon", "coordinates": [ [ [ -92.652980565919407, 32.24536322623554 ], [ -92.630296958317516, 32.162745553504159 ], [ -92.727385052265532, 32.143457565602645 ], [ -92.750139535555974, 32.226013814826125 ], [ -92.652980565919407, 32.24536322623554 ] ] ] } },
{ "type": "Feature", "properties": { "ID": 55377, "date": "2022-11-28T00:00:00", "smokePM_pred": 3.6352617740631099 }, "geometry": { "type": "Polygon", "coordinates": [ [ [ -92.555728495741221, 32.264648018567158 ], [ -92.533116092736165, 32.181969101998973 ], [ -92.630296958317516, 32.162745553504159 ], [ -92.652980565919407, 32.24536322623554 ], [ -92.555728495741221, 32.264648018567158 ] ] ] } },
{ "type": "Feature", "properties": { "ID": 55378, "date": "2022-11-28T00:00:00", "smokePM_pred": 3.7445211410522501 }, "geometry": { "type": "Polygon", "coordinates": [ [ [ -92.458383556206314, 32.283867949334301 ], [ -92.435842686464227, 32.201127969596612 ], [ -92.533116092736165, 32.181969101998973 ], [ -92.555728495741221, 32.264648018567158 ], [ -92.458383556206314, 32.283867949334301 ] ] ] } },
{ "type": "Feature", "properties": { "ID": 55892, "date": "2022-11-28T00:00:00", "smokePM_pred": 3.5871493816375701 }, "geometry": { "type": "Polygon", "coordinates": [ [ [ -92.578433768414513, 32.347311645152217 ], [ -92.555728495741221, 32.264648018567158 ], [ -92.652980565919407, 32.24536322623554 ], [ -92.675757274374092, 32.327965510779677 ], [ -92.578433768414513, 32.347311645152217 ] ] ] } },
{ "type": "Feature", "properties": { "ID": 55893, "date": "2022-11-28T00:00:00", "smokePM_pred": 3.64463090896606 }, "geometry": { "type": "Polygon", "coordinates": [ [ [ -92.481017062563112, 32.366592737248901 ], [ -92.458383556206314, 32.283867949334301 ], [ -92.555728495741221, 32.264648018567158 ], [ -92.578433768414513, 32.347311645152217 ], [ -92.481017062563112, 32.366592737248901 ] ] ] } },
{ "type": "Feature", "properties": { "ID": 55894, "date": "2022-11-28T00:00:00", "smokePM_pred": 3.6279041767120401 }, "geometry": { "type": "Polygon", "coordinates": [ [ [ -92.383507390124961, 32.385808543936228 ], [ -92.360945980368456, 32.303022776403175 ], [ -92.458383556206314, 32.283867949334301 ], [ -92.481017062563112, 32.366592737248901 ], [ -92.383507390124961, 32.385808543936228 ] ] ] } },
{ "type": "Feature", "properties": { "ID": 56407, "date": "2022-11-28T00:00:00", "smokePM_pred": 3.55250215530396 }, "geometry": { "type": "Polygon", "coordinates": [ [ [ -92.601232241292891, 32.429959909355546 ], [ -92.578433768414513, 32.347311645152217 ], [ -92.675757274374092, 32.327965510779677 ], [ -92.698627414458784, 32.410552334296526 ], [ -92.601232241292891, 32.429959909355546 ] ] ] } },
{ "type": "Feature", "properties": { "ID": 56408, "date": "2022-11-28T00:00:00", "smokePM_pred": 3.6990039348602299 }, "geometry": { "type": "Polygon", "coordinates": [ [ [ -92.503743535820291, 32.449302261383927 ], [ -92.481017062563112, 32.366592737248901 ], [ -92.578433768414513, 32.347311645152217 ], [ -92.601232241292891, 32.429959909355546 ], [ -92.503743535820291, 32.449302261383927 ] ] ] } },
{ "type": "Feature", "properties": { "ID": 56923, "date": "2022-11-28T00:00:00", "smokePM_pred": 3.7311520576477002 }, "geometry": { "type": "Polygon", "coordinates": [ [ [ -92.5265633081451, 32.531996449431766 ], [ -92.503743535820291, 32.449302261383927 ], [ -92.601232241292891, 32.429959909355546 ], [ -92.624124246793116, 32.512592738425646 ], [ -92.5265633081451, 32.531996449431766 ] ] ] } },
{ "type": "Feature", "properties": { "ID": 60665, "date": "2022-11-28T00:00:00", "smokePM_pred": 1.7712659835815401 }, "geometry": { "type": "Polygon", "coordinates": [ [ [ -78.475671358243943, 35.095674777121523 ], [ -78.465308873755276, 35.006733857281162 ], [ -78.573385549424444, 34.998179166916827 ], [ -78.583861936400154, 35.08709196582312 ], [ -78.475671358243943, 35.095674777121523 ] ] ] } },
{ "type": "Feature", "properties": { "ID": 60666, "date": "2022-11-28T00:00:00", "smokePM_pred": 1.71304094791412 }, "geometry": { "type": "Polygon", "coordinates": [ [ [ -78.367435284834983, 35.104162792123155 ], [ -78.35718689838184, 35.015194056234847 ], [ -78.465308873755276, 35.006733857281162 ], [ -78.475671358243943, 35.095674777121523 ], [ -78.367435284834983, 35.104162792123155 ] ] ] } },
{ "type": "Feature", "properties": { "ID": 61179, "date": "2022-11-28T00:00:00", "smokePM_pred": 1.7863198518753101 }, "geometry": { "type": "Polygon", "coordinates": [ [ [ -78.594384304441675, 35.176000715832146 ], [ -78.583861936400154, 35.08709196582312 ], [ -78.692006533713041, 35.078414490506539 ], [ -78.702643091005328, 35.167294755545392 ], [ -78.594384304441675, 35.176000715832146 ] ] ] } },
{ "type": "Feature", "properties": { "ID": 61180, "date": "2022-11-28T00:00:00", "smokePM_pred": 1.61106634140015 }, "geometry": { "type": "Polygon", "coordinates": [ [ [ -78.486079338205826, 35.184611707255627 ], [ -78.475671358243943, 35.095674777121523 ], [ -78.583861936400154, 35.08709196582312 ], [ -78.594384304441675, 35.176000715832146 ], [ -78.486079338205826, 35.184611707255627 ] ] ] } },
{ "type": "Feature", "properties": { "ID": 61181, "date": "2022-11-28T00:00:00", "smokePM_pred": 1.5422767400741599 }, "geometry": { "type": "Polygon", "coordinates": [ [ [ -78.377728679845845, 35.193127596911637 ], [ -78.367435284834983, 35.104162792123155 ], [ -78.475671358243943, 35.095674777121523 ], [ -78.486079338205826, 35.184611707255627 ], [ -78.377728679845845, 35.193127596911637 ] ] ] } },
{ "type": "Feature", "properties": { "ID": 65300, "date": "2022-11-28T00:00:00", "smokePM_pred": 1.0679304599762001 }, "geometry": { "type": "Polygon", "coordinates": [ [ [ -78.571004922304255, 35.895961575919856 ], [ -78.560225777821771, 35.807057147966333 ], [ -78.66934522320031, 35.79824721100681 ], [ -78.680242712018099, 35.887122973543342 ], [ -78.571004922304255, 35.895961575919856 ] ] ] } },
{ "type": "Feature", "properties": { "ID": 65301, "date": "2022-11-28T00:00:00", "smokePM_pred": 0.95479732751846302 }, "geometry": { "type": "Polygon", "coordinates": [ [ [ -78.461719816619365, 35.904702611363227 ], [ -78.451059224304302, 35.815769828246964 ], [ -78.560225777821771, 35.807057147966333 ], [ -78.571004922304255, 35.895961575919856 ], [ -78.461719816619365, 35.904702611363227 ] ] ] } },
{ "type": "Feature", "properties": { "ID": 65302, "date": "2022-11-28T00:00:00", "smokePM_pred": 0.89298081398010298 }, "geometry": { "type": "Polygon", "coordinates": [ [ [ -78.352387900040426, 35.913345943257653 ], [ -78.341846065655531, 35.824385115878577 ], [ -78.451059224304302, 35.815769828246964 ], [ -78.461719816619365, 35.904702611363227 ], [ -78.352387900040426, 35.913345943257653 ] ] ] } },
{ "type": "Feature", "properties": { "ID": 214849, "date": "2022-11-28T00:00:00", "smokePM_pred": 1.1344461441039999 }, "geometry": { "type": "Polygon", "coordinates": [ [ [ -124.464882769745387, 47.343463443170499 ], [ -124.384733519911109, 47.292435033068422 ], [ -124.459702127907462, 47.237978514960076 ], [ -124.539771265615272, 47.288910271576007 ], [ -124.464882769745387, 47.343463443170499 ] ] ] } },
{ "type": "Feature", "properties": { "ID": 214850, "date": "2022-11-28T00:00:00", "smokePM_pred": 1.1359429359436 }, "geometry": { "type": "Polygon", "coordinates": [ [ [ -124.389773959066261, 47.398014514220868 ], [ -124.309544912417962, 47.34688925595632 ], [ -124.384733519911109, 47.292435033068422 ], [ -124.464882769745387, 47.343463443170499 ], [ -124.389773959066261, 47.398014514220868 ] ] ] } },
{ "type": "Feature", "properties": { "ID": 214851, "date": "2022-11-28T00:00:00", "smokePM_pred": 0.84258681535720803 }, "geometry": { "type": "Polygon", "coordinates": [ [ [ -124.314444023013039, 47.452563110169862 ], [ -124.234135499412474, 47.401340808963042 ], [ -124.309544912417962, 47.34688925595632 ], [ -124.389773959066261, 47.398014514220868 ], [ -124.314444023013039, 47.452563110169862 ] ] ] } },
{ "type": "Feature", "properties": { "ID": 215365, "date": "2022-11-28T00:00:00", "smokePM_pred": 1.0700489282607999 }, "geometry": { "type": "Polygon", "coordinates": [ [ [ -124.470224130650251, 47.44903561292287 ], [ -124.389773959066261, 47.398014514220868 ], [ -124.464882769745387, 47.343463443170499 ], [ -124.545252333949662, 47.394387704970214 ], [ -124.470224130650251, 47.44903561292287 ] ] ] } },
{ "type": "Feature", "properties": { "ID": 215366, "date": "2022-11-28T00:00:00", "smokePM_pred": 0.66127902269363403 }, "geometry": { "type": "Polygon", "coordinates": [ [ [ -124.394974484745333, 47.503681241605769 ], [ -124.314444023013039, 47.452563110169862 ], [ -124.389773959066261, 47.398014514220868 ], [ -124.470224130650251, 47.44903561292287 ], [ -124.394974484745333, 47.503681241605769 ] ] ] } },
{ "type": "Feature", "properties": { "ID": 215367, "date": "2022-11-28T00:00:00", "smokePM_pred": 0.69954735040664695 }, "geometry": { "type": "Polygon", "coordinates": [ [ [ -124.319502578443831, 47.558324214452846 ], [ -124.238892148390491, 47.507108854344793 ], [ -124.314444023013039, 47.452563110169862 ], [ -124.394974484745333, 47.503681241605769 ], [ -124.319502578443831, 47.558324214452846 ] ] ] } },
{ "type": "Feature", "properties": { "ID": 215881, "date": "2022-11-28T00:00:00", "smokePM_pred": 1.0855278968811 }, "geometry": { "type": "Polygon", "coordinates": [ [ [ -124.475727206429823, 47.554694817969995 ], [ -124.394974484745333, 47.503681241605769 ], [ -124.470224130650251, 47.44903561292287 ], [ -124.550895744394467, 47.499952167938133 ], [ -124.475727206429823, 47.554694817969995 ] ] ] } },
{ "type": "Feature", "properties": { "ID": 215882, "date": "2022-11-28T00:00:00", "smokePM_pred": 0.81645506620407104 }, "geometry": { "type": "Polygon", "coordinates": [ [ [ -124.400336088908105, 47.609435009163889 ], [ -124.319502578443831, 47.558324214452846 ], [ -124.394974484745333, 47.503681241605769 ], [ -124.475727206429823, 47.554694817969995 ], [ -124.400336088908105, 47.609435009163889 ] ] ] } },
{ "type": "Feature", "properties": { "ID": 215883, "date": "2022-11-28T00:00:00", "smokePM_pred": 0.76512503623962402 }, "geometry": { "type": "Polygon", "coordinates": [ [ [ -124.324721566728471, 47.664172362933868 ], [ -124.243807591287776, 47.612964152768399 ], [ -124.319502578443831, 47.558324214452846 ], [ -124.400336088908105, 47.609435009163889 ], [ -124.324721566728471, 47.664172362933868 ] ] ] } },
{ "type": "Feature", "properties": { "ID": 216397, "date": "2022-11-28T00:00:00", "smokePM_pred": 1.2792320251464799 }, "geometry": { "type": "Polygon", "coordinates": [ [ [ -124.481393003579711, 47.660440850952504 ], [ -124.400336088908105, 47.609435009163889 ], [ -124.475727206429823, 47.554694817969995 ], [ -124.556702507219768, 47.605603452925145 ], [ -124.481393003579711, 47.660440850952504 ] ] ] } },
{ "type": "Feature", "properties": { "ID": 216398, "date": "2022-11-28T00:00:00", "smokePM_pred": 0.88482016324997004 }, "geometry": { "type": "Polygon", "coordinates": [ [ [ -124.405859774182289, 47.715275609731059 ], [ -124.324721566728471, 47.664172362933868 ], [ -124.400336088908105, 47.609435009163889 ], [ -124.481393003579711, 47.660440850952504 ], [ -124.405859774182289, 47.715275609731059 ] ] ] } },
{ "type": "Feature", "properties": { "ID": 216399, "date": "2022-11-28T00:00:00", "smokePM_pred": 0.96153730154037498 }, "geometry": { "type": "Polygon", "coordinates": [ [ [ -124.330101986531844, 47.770107348643904 ], [ -124.248882812085952, 47.718906498550055 ], [ -124.324721566728471, 47.664172362933868 ], [ -124.405859774182289, 47.715275609731059 ], [ -124.330101986531844, 47.770107348643904 ] ] ] } },
{ "type": "Feature", "properties": { "ID": 216911, "date": "2022-11-28T00:00:00", "smokePM_pred": 1.4302990436553999 }, "geometry": { "type": "Polygon", "coordinates": [ [ [ -124.637900703559538, 47.656406759100342 ], [ -124.556702507219768, 47.605603452925145 ], [ -124.631789114851443, 47.550763794116413 ], [ -124.712904553859872, 47.601470105284591 ], [ -124.637900703559538, 47.656406759100342 ] ] ] } },
{ "type": "Feature", "properties": { "ID": 216912, "date": "2022-11-28T00:00:00", "smokePM_pred": 1.4655954837799099 }, "geometry": { "type": "Polygon", "coordinates": [ [ [ -124.562673643550866, 47.711341351249168 ], [ -124.481393003579711, 47.660440850952504 ], [ -124.556702507219768, 47.605603452925145 ], [ -124.637900703559538, 47.656406759100342 ], [ -124.562673643550866, 47.711341351249168 ] ] ] } },
{ "type": "Feature", "properties": { "ID": 216913, "date": "2022-11-28T00:00:00", "smokePM_pred": 1.0107947587966899 }, "geometry": { "type": "Polygon", "coordinates": [ [ [ -124.487222539432182, 47.766273503390863 ], [ -124.405859774182289, 47.715275609731059 ], [ -124.481393003579711, 47.660440850952504 ], [ -124.562673643550866, 47.711341351249168 ], [ -124.487222539432182, 47.766273503390863 ] ] ] } },
{ "type": "Feature", "properties": { "ID": 216914, "date": "2022-11-28T00:00:00", "smokePM_pred": 0.90761297941207897 }, "geometry": { "type": "Polygon", "coordinates": [ [ [ -124.411546554012077, 47.821202835030377 ], [ -124.330101986531844, 47.770107348643904 ], [ -124.405859774182289, 47.715275609731059 ], [ -124.487222539432182, 47.766273503390863 ], [ -124.411546554012077, 47.821202835030377 ] ] ] } },
{ "type": "Feature", "properties": { "ID": 217427, "date": "2022-11-28T00:00:00", "smokePM_pred": 1.35927069187164 }, "geometry": { "type": "Polygon", "coordinates": [ [ [ -124.644178327167111, 47.762136120443337 ], [ -124.562673643550866, 47.711341351249168 ], [ -124.637900703559538, 47.656406759100342 ], [ -124.71932210914197, 47.707104348094504 ], [ -124.644178327167111, 47.762136120443337 ] ] ] } },
{ "type": "Feature", "properties": { "ID": 217428, "date": "2022-11-28T00:00:00", "smokePM_pred": 1.5034934282302901 }, "geometry": { "type": "Polygon", "coordinates": [ [ [ -124.568810185519297, 47.817165653092431 ], [ -124.487222539432182, 47.766273503390863 ], [ -124.562673643550866, 47.711341351249168 ], [ -124.644178327167111, 47.762136120443337 ], [ -124.568810185519297, 47.817165653092431 ] ] ] } },
{ "type": "Feature", "properties": { "ID": 217429, "date": "2022-11-28T00:00:00", "smokePM_pred": 1.1682760715484599 }, "geometry": { "type": "Polygon", "coordinates": [ [ [ -124.493216842306794, 47.872192565677331 ], [ -124.411546554012077, 47.821202835030377 ], [ -124.487222539432182, 47.766273503390863 ], [ -124.568810185519297, 47.817165653092431 ], [ -124.493216842306794, 47.872192565677331 ] ] ] } },
{ "type": "Feature", "properties": { "ID": 217430, "date": "2022-11-28T00:00:00", "smokePM_pred": 1.11572825908661 }, "geometry": { "type": "Polygon", "coordinates": [ [ [ -124.417397452809112, 47.927216475664132 ], [ -124.3356448473141, 47.876128963508592 ], [ -124.411546554012077, 47.821202835030377 ], [ -124.493216842306794, 47.872192565677331 ], [ -124.417397452809112, 47.927216475664132 ] ] ] } },
{ "type": "Feature", "properties": { "ID": 217943, "date": "2022-11-28T00:00:00", "smokePM_pred": 1.4439904689788801 }, "geometry": { "type": "Polygon", "coordinates": [ [ [ -124.650623032699698, 47.867951666966313 ], [ -124.568810185519297, 47.817165653092431 ], [ -124.644178327167111, 47.762136120443337 ], [ -124.725907369984085, 47.812824767886866 ], [ -124.650623032699698, 47.867951666966313 ] ] ] } },
{ "type": "Feature", "properties": { "ID": 217944, "date": "2022-11-28T00:00:00", "smokePM_pred": 1.0488259792327901 }, "geometry": { "type": "Polygon", "coordinates": [ [ [ -124.575113176416011, 47.923076147493163 ], [ -124.493216842306794, 47.872192565677331 ], [ -124.568810185519297, 47.817165653092431 ], [ -124.650623032699698, 47.867951666966313 ], [ -124.575113176416011, 47.923076147493163 ] ] ] } },
{ "type": "Feature", "properties": { "ID": 217945, "date": "2022-11-28T00:00:00", "smokePM_pred": 1.1414057016372701 }, "geometry": { "type": "Polygon", "coordinates": [ [ [ -124.499376951663862, 47.978197827067625 ], [ -124.417397452809112, 47.927216475664132 ], [ -124.493216842306794, 47.872192565677331 ], [ -124.575113176416011, 47.923076147493163 ], [ -124.499376951663862, 47.978197827067625 ] ] ] } },
{ "type": "Feature", "properties": { "ID": 218458, "date": "2022-11-28T00:00:00", "smokePM_pred": 1.3105043172836299 }, "geometry": { "type": "Polygon", "coordinates": [ [ [ -124.732661398400651, 47.918631152098023 ], [ -124.650623032699698, 47.867951666966313 ], [ -124.725907369984085, 47.812824767886866 ], [ -124.807861084724365, 47.863406901897321 ], [ -124.732661398400651, 47.918631152098023 ] ] ] } },
{ "type": "Feature", "properties": { "ID": 218459, "date": "2022-11-28T00:00:00", "smokePM_pred": 1.0826658010482799 }, "geometry": { "type": "Polygon", "coordinates": [ [ [ -124.65723587851565, 47.973853186330174 ], [ -124.575113176416011, 47.923076147493163 ], [ -124.650623032699698, 47.867951666966313 ], [ -124.732661398400651, 47.918631152098023 ], [ -124.65723587851565, 47.973853186330174 ] ] ] } },
{ "type": "Feature", "properties": { "ID": 218460, "date": "2022-11-28T00:00:00", "smokePM_pred": 1.22960376739502 }, "geometry": { "type": "Polygon", "coordinates": [ [ [ -124.581583670847237, 48.029072622337168 ], [ -124.499376951663862, 47.978197827067625 ], [ -124.575113176416011, 47.923076147493163 ], [ -124.65723587851565, 47.973853186330174 ], [ -124.581583670847237, 48.029072622337168 ] ] ] } },
{ "type": "Feature", "properties": { "ID": 218461, "date": "2022-11-28T00:00:00", "smokePM_pred": 1.3616763353347801 }, "geometry": { "type": "Polygon", "coordinates": [ [ [ -124.50570391826038, 48.084289075672665 ], [ -124.423413506105874, 48.033316321105715 ], [ -124.499376951663862, 47.978197827067625 ], [ -124.581583670847237, 48.029072622337168 ], [ -124.50570391826038, 48.084289075672665 ] ] ] } },
{ "type": "Feature", "properties": { "ID": 218462, "date": "2022-11-28T00:00:00", "smokePM_pred": 1.58132541179657 }, "geometry": { "type": "Polygon", "coordinates": [ [ [ -124.429595760711635, 48.13950215969129 ], [ -124.347221984540965, 48.088431242829941 ], [ -124.423413506105874, 48.033316321105715 ], [ -124.50570391826038, 48.084289075672665 ], [ -124.429595760711635, 48.13950215969129 ] ] ] } },
{ "type": "Feature", "properties": { "ID": 218463, "date": "2022-11-28T00:00:00", "smokePM_pred": 1.7428398132324201 }, "geometry": { "type": "Polygon", "coordinates": [ [ [ -124.353258335253628, 48.194711485539173 ], [ -124.270801528909544, 48.143542203260004 ], [ -124.347221984540965, 48.088431242829941 ], [ -124.429595760711635, 48.13950215969129 ], [ -124.353258335253628, 48.194711485539173 ] ] ] } },
{ "type": "Feature", "properties": { "ID": 218973, "date": "2022-11-28T00:00:00", "smokePM_pred": 1.4153860807418801 }, "geometry": { "type": "Polygon", "coordinates": [ [ [ -124.814925597176725, 47.969203714531268 ], [ -124.732661398400651, 47.918631152098023 ], [ -124.807861084724365, 47.863406901897321 ], [ -124.89003978123381, 47.913882129761497 ], [ -124.814925597176725, 47.969203714531268 ] ] ] } },
{ "type": "Feature", "properties": { "ID": 218974, "date": "2022-11-28T00:00:00", "smokePM_pred": 1.1912469863891599 }, "geometry": { "type": "Polygon", "coordinates": [ [ [ -124.739585267913256, 48.024523286987922 ], [ -124.65723587851565, 47.973853186330174 ], [ -124.732661398400651, 47.918631152098023 ], [ -124.814925597176725, 47.969203714531268 ], [ -124.739585267913256, 48.024523286987922 ] ] ] } },
{ "type": "Feature", "properties": { "ID": 218975, "date": "2022-11-28T00:00:00", "smokePM_pred": 1.28929018974304 }, "geometry": { "type": "Polygon", "coordinates": [ [ [ -124.664017934464255, 48.079840465027061 ], [ -124.581583670847237, 48.029072622337168 ], [ -124.65723587851565, 47.973853186330174 ], [ -124.739585267913256, 48.024523286987922 ], [ -124.664017934464255, 48.079840465027061 ] ] ] } },
{ "type": "Feature", "properties": { "ID": 218976, "date": "2022-11-28T00:00:00", "smokePM_pred": 1.40706121921539 }, "geometry": { "type": "Polygon", "coordinates": [ [ [ -124.58822273489281, 48.135154864349133 ], [ -124.50570391826038, 48.084289075672665 ], [ -124.581583670847237, 48.029072622337168 ], [ -124.664017934464255, 48.079840465027061 ], [ -124.58822273489281, 48.135154864349133 ] ] ] } },
{ "type": "Feature", "properties": { "ID": 218977, "date": "2022-11-28T00:00:00", "smokePM_pred": 1.3182892799377399 }, "geometry": { "type": "Polygon", "coordinates": [ [ [ -124.512198804308369, 48.190466098450003 ], [ -124.429595760711635, 48.13950215969129 ], [ -124.50570391826038, 48.084289075672665 ], [ -124.58822273489281, 48.135154864349133 ], [ -124.512198804308369, 48.190466098450003 ] ] ] } },
{ "type": "Feature", "properties": { "ID": 218978, "date": "2022-11-28T00:00:00", "smokePM_pred": 1.5354987382888801 }, "geometry": { "type": "Polygon", "coordinates": [ [ [ -124.435945274870988, 48.245773778611479 ], [ -124.353258335253628, 48.194711485539173 ], [ -124.429595760711635, 48.13950215969129 ], [ -124.512198804308369, 48.190466098450003 ], [ -124.435945274870988, 48.245773778611479 ] ] ] } },
{ "type": "Feature", "properties": { "ID": 219489, "date": "2022-11-28T00:00:00", "smokePM_pred": 1.56684005260468 }, "geometry": { "type": "Polygon", "coordinates": [ [ [ -124.822161661003477, 48.075086053216808 ], [ -124.739585267913256, 48.024523286987922 ], [ -124.814925597176725, 47.969203714531268 ], [ -124.897415940665582, 48.019668959271691 ], [ -124.822161661003477, 48.075086053216808 ] ] ] } },
{ "type": "Feature", "properties": { "ID": 219490, "date": "2022-11-28T00:00:00", "smokePM_pred": 1.1061091423034699 }, "geometry": { "type": "Polygon", "coordinates": [ [ [ -124.746680063711395, 48.130500957631284 ], [ -124.664017934464255, 48.079840465027061 ], [ -124.739585267913256, 48.024523286987922 ], [ -124.822161661003477, 48.075086053216808 ], [ -124.746680063711395, 48.130500957631284 ] ] ] } },
{ "type": "Feature", "properties": { "ID": 219491, "date": "2022-11-28T00:00:00", "smokePM_pred": 1.2514454126357999 }, "geometry": { "type": "Polygon", "coordinates": [ [ [ -124.670970282046653, 48.185913288371573 ], [ -124.58822273489281, 48.135154864349133 ], [ -124.664017934464255, 48.079840465027061 ], [ -124.746680063711395, 48.130500957631284 ], [ -124.670970282046653, 48.185913288371573 ] ] ] } },
{ "type": "Feature", "properties": { "ID": 219492, "date": "2022-11-28T00:00:00", "smokePM_pred": 1.5770893096923799 }, "geometry": { "type": "Polygon", "coordinates": [ [ [ -124.595031446267271, 48.241322659083977 ], [ -124.512198804308369, 48.190466098450003 ], [ -124.58822273489281, 48.135154864349133 ], [ -124.670970282046653, 48.185913288371573 ], [ -124.595031446267271, 48.241322659083977 ] ] ] } },
{ "type": "Feature", "properties": { "ID": 219493, "date": "2022-11-28T00:00:00", "smokePM_pred": 2.20657157897949 }, "geometry": { "type": "Polygon", "coordinates": [ [ [ -124.518862683636101, 48.296728681195212 ], [ -124.435945274870988, 48.245773778611479 ], [ -124.512198804308369, 48.190466098450003 ], [ -124.595031446267271, 48.241322659083977 ], [ -124.518862683636101, 48.296728681195212 ] ] ] } },
{ "type": "Feature", "properties": { "ID": 220005, "date": "2022-11-28T00:00:00", "smokePM_pred": 1.516960978508 }, "geometry": { "type": "Polygon", "coordinates": [ [ [ -124.829570376831356, 48.181053701587089 ], [ -124.746680063711395, 48.130500957631284 ], [ -124.822161661003477, 48.075086053216808 ], [ -124.904965371223156, 48.125541087721615 ], [ -124.829570376831356, 48.181053701587089 ] ] ] } },
{ "type": "Feature", "properties": { "ID": 220006, "date": "2022-11-28T00:00:00", "smokePM_pred": 0.85512781143188499 }, "geometry": { "type": "Polygon", "coordinates": [ [ [ -124.753946882815882, 48.236563947908429 ], [ -124.670970282046653, 48.185913288371573 ], [ -124.746680063711395, 48.130500957631284 ], [ -124.829570376831356, 48.181053701587089 ], [ -124.753946882815882, 48.236563947908429 ] ] ] } },
{ "type": "Feature", "properties": { "ID": 220007, "date": "2022-11-28T00:00:00", "smokePM_pred": 1.25393402576447 }, "geometry": { "type": "Polygon", "coordinates": [ [ [ -124.678094014579457, 48.292071440491739 ], [ -124.595031446267271, 48.241322659083977 ], [ -124.670970282046653, 48.185913288371573 ], [ -124.753946882815882, 48.236563947908429 ], [ -124.678094014579457, 48.292071440491739 ] ] ] } },
{ "type": "Feature", "properties": { "ID": 220008, "date": "2022-11-28T00:00:00", "smokePM_pred": 1.35038709640503 }, "geometry": { "type": "Polygon", "coordinates": [ [ [ -124.60201089448347, 48.347575790917936 ], [ -124.518862683636101, 48.296728681195212 ], [ -124.595031446267271, 48.241322659083977 ], [ -124.678094014579457, 48.292071440491739 ], [ -124.60201089448347, 48.347575790917936 ] ] ] } },
{ "type": "Feature", "properties": { "ID": 220520, "date": "2022-11-28T00:00:00", "smokePM_pred": 1.5329977273941 }, "geometry": { "type": "Polygon", "coordinates": [ [ [ -124.912689189067507, 48.231498297278613 ], [ -124.829570376831356, 48.181053701587089 ], [ -124.904965371223156, 48.125541087721615 ], [ -124.987996709006225, 48.175887992165336 ], [ -124.912689189067507, 48.231498297278613 ] ] ] } },
{ "type": "Feature", "properties": { "ID": 220521, "date": "2022-11-28T00:00:00", "smokePM_pred": 1.3764032125473 }, "geometry": { "type": "Polygon", "coordinates": [ [ [ -124.837152857299131, 48.287106442063809 ], [ -124.753946882815882, 48.236563947908429 ], [ -124.829570376831356, 48.181053701587089 ], [ -124.912689189067507, 48.231498297278613 ], [ -124.837152857299131, 48.287106442063809 ] ] ] } },
{ "type": "Feature", "properties": { "ID": 220522, "date": "2022-11-28T00:00:00", "smokePM_pred": 1.3793485164642301 }, "geometry": { "type": "Polygon", "coordinates": [ [ [ -124.761386834244945, 48.342712040496075 ], [ -124.678094014579457, 48.292071440491739 ], [ -124.753946882815882, 48.236563947908429 ], [ -124.837152857299131, 48.287106442063809 ], [ -124.761386834244945, 48.342712040496075 ] ] ] } },
{ "type": "Feature", "properties": { "ID": 220523, "date": "2022-11-28T00:00:00", "smokePM_pred": 1.1795016527175901 }, "geometry": { "type": "Polygon", "coordinates": [ [ [ -124.685390237361005, 48.39831470431993 ], [ -124.60201089448347, 48.347575790917936 ], [ -124.678094014579457, 48.292071440491739 ], [ -124.761386834244945, 48.342712040496075 ], [ -124.685390237361005, 48.39831470431993 ] ] ] } },
{ "type": "Feature", "properties": { "ID": 221037, "date": "2022-11-28T00:00:00", "smokePM_pred": 1.55976510047913 }, "geometry": { "type": "Polygon", "coordinates": [ [ [ -124.84491022722618, 48.393244055847745 ], [ -124.761386834244945, 48.342712040496075 ], [ -124.837152857299131, 48.287106442063809 ], [ -124.920588522553487, 48.337540368881207 ], [ -124.84491022722618, 48.393244055847745 ] ] ] } },
{ "type": "Feature", "properties": { "ID": 221038, "date": "2022-11-28T00:00:00", "smokePM_pred": 1.23035311698914 }, "geometry": { "type": "Polygon", "coordinates": [ [ [ -124.769001039183237, 48.448945016857976 ], [ -124.685390237361005, 48.39831470431993 ], [ -124.761386834244945, 48.342712040496075 ], [ -124.84491022722618, 48.393244055847745 ], [ -124.769001039183237, 48.448945016857976 ] ] ] } }
]
}
