{
"type": "FeatureCollection",
"name": "geo_2022-12-24",
"crs": { "type": "name", "properties": { "name": "urn:ogc:def:crs:OGC:1.3:CRS84" } },
"features": [
{ "type": "Feature", "properties": { "ID": 34795, "date": "2022-12-24T00:00:00", "smokePM_pred": 2.9244112968444802 }, "geometry": { "type": "Polygon", "coordinates": [ [ [ -90.00423846465668, 29.240568214874916 ], [ -89.986253678875315, 29.15632680115635 ], [ -90.082192439026883, 29.140543205321016 ], [ -90.100244061017619, 29.224730304617498 ], [ -90.00423846465668, 29.240568214874916 ] ] ] } },
{ "type": "Feature", "properties": { "ID": 34796, "date": "2022-12-24T00:00:00", "smokePM_pred": 2.9127490520477299 }, "geometry": { "type": "Polygon", "coordinates": [ [ [ -89.908156019858524, 29.256344819092746 ], [ -89.890238325793561, 29.17204928491352 ], [ -89.986253678875315, 29.15632680115635 ], [ -90.00423846465668, 29.240568214874916 ], [ -89.908156019858524, 29.256344819092746 ] ] ] } },
{ "type": "Feature", "properties": { "ID": 35304, "date": "2022-12-24T00:00:00", "smokePM_pred": 3.3625214099884002 }, "geometry": { "type": "Polygon", "coordinates": [ [ [ -90.597570978573515, 29.22852908411906 ], [ -90.579110712972437, 29.144628116450615 ], [ -90.674650077568401, 29.128426548182414 ], [ -90.69317587583798, 29.212271974708049 ], [ -90.597570978573515, 29.22852908411906 ] ] ] } },
{ "type": "Feature", "properties": { "ID": 35305, "date": "2022-12-24T00:00:00", "smokePM_pred": 3.3536865711212198 }, "geometry": { "type": "Polygon", "coordinates": [ [ [ -90.501887511929326, 29.244725894478513 ], [ -90.48349303848299, 29.160769574588823 ], [ -90.579110712972437, 29.144628116450615 ], [ -90.597570978573515, 29.22852908411906 ], [ -90.501887511929326, 29.244725894478513 ] ] ] } },
{ "type": "Feature", "properties": { "ID": 35309, "date": "2022-12-24T00:00:00", "smokePM_pred": 2.9369523525238002 }, "geometry": { "type": "Polygon", "coordinates": [ [ [ -90.118372778989411, 29.308906126955375 ], [ -90.100244061017619, 29.224730304617498 ], [ -90.196172561645426, 29.208831286563711 ], [ -90.214368105691975, 29.292952520974797 ], [ -90.118372778989411, 29.308906126955375 ] ] ] } },
{ "type": "Feature", "properties": { "ID": 35310, "date": "2022-12-24T00:00:00", "smokePM_pred": 2.8069064617157 }, "geometry": { "type": "Polygon", "coordinates": [ [ [ -90.022300099122987, 29.324798431918769 ], [ -90.00423846465668, 29.240568214874916 ], [ -90.100244061017619, 29.224730304617498 ], [ -90.118372778989411, 29.308906126955375 ], [ -90.022300099122987, 29.324798431918769 ] ] ] } },
{ "type": "Feature", "properties": { "ID": 35311, "date": "2022-12-24T00:00:00", "smokePM_pred": 2.6565430164337198 }, "geometry": { "type": "Polygon", "coordinates": [ [ [ -89.926150313825673, 29.340629236764968 ], [ -89.908156019858524, 29.256344819092746 ], [ -90.00423846465668, 29.240568214874916 ], [ -90.022300099122987, 29.324798431918769 ], [ -89.926150313825673, 29.340629236764968 ] ] ] } },
{ "type": "Feature", "properties": { "ID": 35819, "date": "2022-12-24T00:00:00", "smokePM_pred": 3.3527343273162802 }, "geometry": { "type": "Polygon", "coordinates": [ [ [ -90.616109813803973, 29.312418316187614 ], [ -90.597570978573515, 29.22852908411906 ], [ -90.69317587583798, 29.212271974708049 ], [ -90.711780482487541, 29.296105584333652 ], [ -90.616109813803973, 29.312418316187614 ] ] ] } },
{ "type": "Feature", "properties": { "ID": 35820, "date": "2022-12-24T00:00:00", "smokePM_pred": 3.70129466056824 }, "geometry": { "type": "Polygon", "coordinates": [ [ [ -90.520360314756431, 29.328670559970163 ], [ -90.501887511929326, 29.244725894478513 ], [ -90.597570978573515, 29.22852908411906 ], [ -90.616109813803973, 29.312418316187614 ], [ -90.520360314756431, 29.328670559970163 ] ] ] } },
{ "type": "Feature", "properties": { "ID": 35821, "date": "2022-12-24T00:00:00", "smokePM_pred": 3.2889175415039098 }, "geometry": { "type": "Polygon", "coordinates": [ [ [ -90.424532225987704, 29.344862113581058 ], [ -90.406125716153966, 29.260862204550904 ], [ -90.501887511929326, 29.244725894478513 ], [ -90.520360314756431, 29.328670559970163 ], [ -90.424532225987704, 29.344862113581058 ] ] ] } },
{ "type": "Feature", "properties": { "ID": 35824, "date": "2022-12-24T00:00:00", "smokePM_pred": 2.88878726959229 }, "geometry": { "type": "Polygon", "coordinates": [ [ [ -90.136578850374391, 29.393070618660136 ], [ -90.118372778989411, 29.308906126955375 ], [ -90.214368105691975, 29.292952520974797 ], [ -90.23264124938882, 29.377062343973876 ], [ -90.136578850374391, 29.393070618660136 ] ] ] } },
{ "type": "Feature", "properties": { "ID": 35825, "date": "2022-12-24T00:00:00", "smokePM_pred": 2.6783180236816402 }, "geometry": { "type": "Polygon", "coordinates": [ [ [ -90.040438839269441, 29.409017398995225 ], [ -90.022300099122987, 29.324798431918769 ], [ -90.118372778989411, 29.308906126955375 ], [ -90.136578850374391, 29.393070618660136 ], [ -90.040438839269441, 29.409017398995225 ] ] ] } },
{ "type": "Feature", "properties": { "ID": 35826, "date": "2022-12-24T00:00:00", "smokePM_pred": 2.5869457721710201 }, "geometry": { "type": "Polygon", "coordinates": [ [ [ -89.944221464244492, 29.424902485019313 ], [ -89.926150313825673, 29.340629236764968 ], [ -90.022300099122987, 29.324798431918769 ], [ -90.040438839269441, 29.409017398995225 ], [ -89.944221464244492, 29.424902485019313 ] ] ] } },
{ "type": "Feature", "properties": { "ID": 36334, "date": "2022-12-24T00:00:00", "smokePM_pred": 3.3135468959808301 }, "geometry": { "type": "Polygon", "coordinates": [ [ [ -90.63472747964947, 29.396295756825083 ], [ -90.616109813803973, 29.312418316187614 ], [ -90.711780482487541, 29.296105584333652 ], [ -90.730464158888367, 29.379927320845109 ], [ -90.63472747964947, 29.396295756825083 ] ] ] } },
{ "type": "Feature", "properties": { "ID": 36335, "date": "2022-12-24T00:00:00", "smokePM_pred": 3.8486406803131099 }, "geometry": { "type": "Polygon", "coordinates": [ [ [ -90.538911707555826, 29.412603515615594 ], [ -90.520360314756431, 29.328670559970163 ], [ -90.616109813803973, 29.312418316187614 ], [ -90.63472747964947, 29.396295756825083 ], [ -90.538911707555826, 29.412603515615594 ] ] ] } },
{ "type": "Feature", "properties": { "ID": 36336, "date": "2022-12-24T00:00:00", "smokePM_pred": 3.4718594551086399 }, "geometry": { "type": "Polygon", "coordinates": [ [ [ -90.443017083644605, 29.428850394248688 ], [ -90.424532225987704, 29.344862113581058 ], [ -90.520360314756431, 29.328670559970163 ], [ -90.538911707555826, 29.412603515615594 ], [ -90.443017083644605, 29.428850394248688 ] ] ] } },
{ "type": "Feature", "properties": { "ID": 36339, "date": "2022-12-24T00:00:00", "smokePM_pred": 2.8969738483428999 }, "geometry": { "type": "Polygon", "coordinates": [ [ [ -90.154862534100701, 29.477223725816543 ], [ -90.136578850374391, 29.393070618660136 ], [ -90.23264124938882, 29.377062343973876 ], [ -90.250992252092942, 29.461160701262379 ], [ -90.154862534100701, 29.477223725816543 ] ] ] } },
{ "type": "Feature", "properties": { "ID": 36340, "date": "2022-12-24T00:00:00", "smokePM_pred": 2.7022867202758798 }, "geometry": { "type": "Polygon", "coordinates": [ [ [ -90.058654943586575, 29.493225062572389 ], [ -90.040438839269441, 29.409017398995225 ], [ -90.136578850374391, 29.393070618660136 ], [ -90.154862534100701, 29.477223725816543 ], [ -90.058654943586575, 29.493225062572389 ] ] ] } },
{ "type": "Feature", "properties": { "ID": 36341, "date": "2022-12-24T00:00:00", "smokePM_pred": 2.6047728061675999 }, "geometry": { "type": "Polygon", "coordinates": [ [ [ -89.962369729159221, 29.50916451070723 ], [ -89.944221464244492, 29.424902485019313 ], [ -90.040438839269441, 29.409017398995225 ], [ -90.058654943586575, 29.493225062572389 ], [ -89.962369729159221, 29.50916451070723 ] ] ] } },
{ "type": "Feature", "properties": { "ID": 36850, "date": "2022-12-24T00:00:00", "smokePM_pred": 4.3504467010498002 }, "geometry": { "type": "Polygon", "coordinates": [ [ [ -90.557541952425282, 29.496524705717935 ], [ -90.538911707555826, 29.412603515615594 ], [ -90.63472747964947, 29.396295756825083 ], [ -90.653424238602256, 29.480161349950023 ], [ -90.557541952425282, 29.496524705717935 ] ] ] } },
{ "type": "Feature", "properties": { "ID": 36851, "date": "2022-12-24T00:00:00", "smokePM_pred": 4.07395219802856 }, "geometry": { "type": "Polygon", "coordinates": [ [ [ -90.46158055081932, 29.512826991241596 ], [ -90.443017083644605, 29.428850394248688 ], [ -90.538911707555826, 29.412603515615594 ], [ -90.557541952425282, 29.496524705717935 ], [ -90.46158055081932, 29.512826991241596 ] ] ] } },
{ "type": "Feature", "properties": { "ID": 36855, "date": "2022-12-24T00:00:00", "smokePM_pred": 2.6690764427185099 }, "geometry": { "type": "Polygon", "coordinates": [ [ [ -90.076948672069051, 29.577421368877364 ], [ -90.058654943586575, 29.493225062572389 ], [ -90.154862534100701, 29.477223725816543 ], [ -90.173224090601181, 29.561365394266822 ], [ -90.076948672069051, 29.577421368877364 ] ] ] } },
{ "type": "Feature", "properties": { "ID": 36856, "date": "2022-12-24T00:00:00", "smokePM_pred": 2.5969359874725302 }, "geometry": { "type": "Polygon", "coordinates": [ [ [ -89.980595368117591, 29.593415260440754 ], [ -89.962369729159221, 29.50916451070723 ], [ -90.058654943586575, 29.493225062572389 ], [ -90.076948672069051, 29.577421368877364 ], [ -89.980595368117591, 29.593415260440754 ] ] ] } },
{ "type": "Feature", "properties": { "ID": 37365, "date": "2022-12-24T00:00:00", "smokePM_pred": 3.9905025959014901 }, "geometry": { "type": "Polygon", "coordinates": [ [ [ -90.576251312977689, 29.580434074329808 ], [ -90.557541952425282, 29.496524705717935 ], [ -90.653424238602256, 29.480161349950023 ], [ -90.672200354669869, 29.564015039228998 ], [ -90.576251312977689, 29.580434074329808 ] ] ] } },
{ "type": "Feature", "properties": { "ID": 37366, "date": "2022-12-24T00:00:00", "smokePM_pred": 3.91766262054443 }, "geometry": { "type": "Polygon", "coordinates": [ [ [ -90.480222890721322, 29.596791848998595 ], [ -90.46158055081932, 29.512826991241596 ], [ -90.557541952425282, 29.496524705717935 ], [ -90.576251312977689, 29.580434074329808 ], [ -90.480222890721322, 29.596791848998595 ] ] ] } },
{ "type": "Feature", "properties": { "ID": 37370, "date": "2022-12-24T00:00:00", "smokePM_pred": 2.8140056133270299 }, "geometry": { "type": "Polygon", "coordinates": [ [ [ -90.095320286224549, 29.661606263894555 ], [ -90.076948672069051, 29.577421368877364 ], [ -90.173224090601181, 29.561365394266822 ], [ -90.191663781822143, 29.645495569608862 ], [ -90.095320286224549, 29.661606263894555 ] ] ] } },
{ "type": "Feature", "properties": { "ID": 37371, "date": "2022-12-24T00:00:00", "smokePM_pred": 2.5820794105529798 }, "geometry": { "type": "Polygon", "coordinates": [ [ [ -89.998898642179668, 29.677654680590773 ], [ -89.980595368117591, 29.593415260440754 ], [ -90.076948672069051, 29.577421368877364 ], [ -90.095320286224549, 29.661606263894555 ], [ -89.998898642179668, 29.677654680590773 ] ] ] } },
{ "type": "Feature", "properties": { "ID": 38380, "date": "2022-12-24T00:00:00", "smokePM_pred": 3.30282354354858 }, "geometry": { "type": "Polygon", "coordinates": [ [ [ -92.046633457275064, 29.49390152063209 ], [ -92.026784842112477, 29.410873138718099 ], [ -92.121577969310721, 29.393501472215878 ], [ -92.141489758429628, 29.476471259086956 ], [ -92.046633457275064, 29.49390152063209 ] ] ] } },
{ "type": "Feature", "properties": { "ID": 38381, "date": "2022-12-24T00:00:00", "smokePM_pred": 2.8747727870941202 }, "geometry": { "type": "Polygon", "coordinates": [ [ [ -91.95169376419031, 29.511273278892336 ], [ -91.931908596194432, 29.428186479051174 ], [ -92.026784842112477, 29.410873138718099 ], [ -92.046633457275064, 29.49390152063209 ], [ -91.95169376419031, 29.511273278892336 ] ] ] } },
{ "type": "Feature", "properties": { "ID": 38382, "date": "2022-12-24T00:00:00", "smokePM_pred": 2.8356847763061501 }, "geometry": { "type": "Polygon", "coordinates": [ [ [ -91.856670900099061, 29.528586322142726 ], [ -91.836949452207918, 29.445441282379161 ], [ -91.931908596194432, 29.428186479051174 ], [ -91.95169376419031, 29.511273278892336 ], [ -91.856670900099061, 29.528586322142726 ] ] ] } },
{ "type": "Feature", "properties": { "ID": 38383, "date": "2022-12-24T00:00:00", "smokePM_pred": 2.8702347278595002 }, "geometry": { "type": "Polygon", "coordinates": [ [ [ -91.761565087471837, 29.545840438994713 ], [ -91.74190763234256, 29.462637338202107 ], [ -91.836949452207918, 29.445441282379161 ], [ -91.856670900099061, 29.528586322142726 ], [ -91.761565087471837, 29.545840438994713 ] ] ] } },
{ "type": "Feature", "properties": { "ID": 38395, "date": "2022-12-24T00:00:00", "smokePM_pred": 3.68454790115356 }, "geometry": { "type": "Polygon", "coordinates": [ [ [ -90.613908443210676, 29.748217122029573 ], [ -90.595040054349724, 29.664331565251594 ], [ -90.691056093383864, 29.647856768074742 ], [ -90.709991721808635, 29.731686479644377 ], [ -90.613908443210676, 29.748217122029573 ] ] ] } },
{ "type": "Feature", "properties": { "ID": 38396, "date": "2022-12-24T00:00:00", "smokePM_pred": 3.6075694561004599 }, "geometry": { "type": "Polygon", "coordinates": [ [ [ -90.517745249171341, 29.764686123304855 ], [ -90.498944368083542, 29.680744911707833 ], [ -90.595040054349724, 29.664331565251594 ], [ -90.613908443210676, 29.748217122029573 ], [ -90.517745249171341, 29.764686123304855 ] ] ] } },
{ "type": "Feature", "properties": { "ID": 38895, "date": "2022-12-24T00:00:00", "smokePM_pred": 3.05247974395752 }, "geometry": { "type": "Polygon", "coordinates": [ [ [ -92.066565464625512, 29.576916649996701 ], [ -92.046633457275064, 29.49390152063209 ], [ -92.141489758429628, 29.476471259086956 ], [ -92.16148515911388, 29.559427708742128 ], [ -92.066565464625512, 29.576916649996701 ] ] ] } },
{ "type": "Feature", "properties": { "ID": 38896, "date": "2022-12-24T00:00:00", "smokePM_pred": 3.24381446838379 }, "geometry": { "type": "Polygon", "coordinates": [ [ [ -91.971562103450495, 29.594346910795426 ], [ -91.95169376419031, 29.511273278892336 ], [ -92.046633457275064, 29.49390152063209 ], [ -92.066565464625512, 29.576916649996701 ], [ -91.971562103450495, 29.594346910795426 ] ] ] } },
{ "type": "Feature", "properties": { "ID": 38897, "date": "2022-12-24T00:00:00", "smokePM_pred": 2.9652409553527801 }, "geometry": { "type": "Polygon", "coordinates": [ [ [ -91.876475296784108, 29.611718278521355 ], [ -91.856670900099061, 29.528586322142726 ], [ -91.95169376419031, 29.511273278892336 ], [ -91.971562103450495, 29.594346910795426 ], [ -91.876475296784108, 29.611718278521355 ] ] ] } },
{ "type": "Feature", "properties": { "ID": 38898, "date": "2022-12-24T00:00:00", "smokePM_pred": 2.8654479980468799 }, "geometry": { "type": "Polygon", "coordinates": [ [ [ -91.781305267377121, 29.629030540894398 ], [ -91.761565087471837, 29.545840438994713 ], [ -91.856670900099061, 29.528586322142726 ], [ -91.876475296784108, 29.611718278521355 ], [ -91.781305267377121, 29.629030540894398 ] ] ] } },
{ "type": "Feature", "properties": { "ID": 38910, "date": "2022-12-24T00:00:00", "smokePM_pred": 2.8957350254058798 }, "geometry": { "type": "Polygon", "coordinates": [ [ [ -90.632856747771413, 29.832090687954082 ], [ -90.613908443210676, 29.748217122029573 ], [ -90.709991721808635, 29.731686479644377 ], [ -90.729007508550254, 29.815504116837491 ], [ -90.632856747771413, 29.832090687954082 ] ] ] } },
{ "type": "Feature", "properties": { "ID": 38911, "date": "2022-12-24T00:00:00", "smokePM_pred": 2.9579663276672399 }, "geometry": { "type": "Polygon", "coordinates": [ [ [ -90.536625801791359, 29.848615427470875 ], [ -90.517745249171341, 29.764686123304855 ], [ -90.613908443210676, 29.748217122029573 ], [ -90.632856747771413, 29.832090687954082 ], [ -90.536625801791359, 29.848615427470875 ] ] ] } },
{ "type": "Feature", "properties": { "ID": 39410, "date": "2022-12-24T00:00:00", "smokePM_pred": 3.1871476173400901 }, "geometry": { "type": "Polygon", "coordinates": [ [ [ -92.08658113892173, 29.659918463984788 ], [ -92.066565464625512, 29.576916649996701 ], [ -92.16148515911388, 29.559427708742128 ], [ -92.1815644463843, 29.64237075796618 ], [ -92.08658113892173, 29.659918463984788 ] ] ] } },
{ "type": "Feature", "properties": { "ID": 39411, "date": "2022-12-24T00:00:00", "smokePM_pred": 3.3841955661773699 }, "geometry": { "type": "Polygon", "coordinates": [ [ [ -91.991513888461284, 29.67740731232178 ], [ -91.971562103450495, 29.594346910795426 ], [ -92.066565464625512, 29.576916649996701 ], [ -92.08658113892173, 29.659918463984788 ], [ -91.991513888461284, 29.67740731232178 ] ] ] } },
{ "type": "Feature", "properties": { "ID": 39412, "date": "2022-12-24T00:00:00", "smokePM_pred": 3.1588361263275102 }, "geometry": { "type": "Polygon", "coordinates": [ [ [ -91.896362916469116, 29.694837089465246 ], [ -91.876475296784108, 29.611718278521355 ], [ -91.971562103450495, 29.594346910795426 ], [ -91.991513888461284, 29.67740731232178 ], [ -91.896362916469116, 29.694837089465246 ] ] ] } },
{ "type": "Feature", "properties": { "ID": 39413, "date": "2022-12-24T00:00:00", "smokePM_pred": 2.8732593059539799 }, "geometry": { "type": "Polygon", "coordinates": [ [ [ -91.801128445975536, 29.712207582240559 ], [ -91.781305267377121, 29.629030540894398 ], [ -91.876475296784108, 29.611718278521355 ], [ -91.896362916469116, 29.694837089465246 ], [ -91.801128445975536, 29.712207582240559 ] ] ] } },
{ "type": "Feature", "properties": { "ID": 39414, "date": "2022-12-24T00:00:00", "smokePM_pred": 3.4249517917633101 }, "geometry": { "type": "Polygon", "coordinates": [ [ [ -91.705810701575828, 29.729518577816403 ], [ -91.686052239536494, 29.64628348597731 ], [ -91.781305267377121, 29.629030540894398 ], [ -91.801128445975536, 29.712207582240559 ], [ -91.705810701575828, 29.729518577816403 ] ] ] } },
{ "type": "Feature", "properties": { "ID": 39425, "date": "2022-12-24T00:00:00", "smokePM_pred": 2.9666919708252002 }, "geometry": { "type": "Polygon", "coordinates": [ [ [ -90.651885237793294, 29.915952206057739 ], [ -90.632856747771413, 29.832090687954082 ], [ -90.729007508550254, 29.815504116837491 ], [ -90.748103723765482, 29.89930962229441 ], [ -90.651885237793294, 29.915952206057739 ] ] ] } },
{ "type": "Feature", "properties": { "ID": 39426, "date": "2022-12-24T00:00:00", "smokePM_pred": 2.8466880321502699 }, "geometry": { "type": "Polygon", "coordinates": [ [ [ -90.555586295300557, 29.932532767630963 ], [ -90.536625801791359, 29.848615427470875 ], [ -90.632856747771413, 29.832090687954082 ], [ -90.651885237793294, 29.915952206057739 ], [ -90.555586295300557, 29.932532767630963 ] ] ] } },
{ "type": "Feature", "properties": { "ID": 39926, "date": "2022-12-24T00:00:00", "smokePM_pred": 3.4598417282104501 }, "geometry": { "type": "Polygon", "coordinates": [ [ [ -92.011549395264552, 29.760454420751714 ], [ -91.991513888461284, 29.67740731232178 ], [ -92.08658113892173, 29.659918463984788 ], [ -92.106680756476379, 29.74290689948673 ], [ -92.011549395264552, 29.760454420751714 ] ] ] } },
{ "type": "Feature", "properties": { "ID": 39927, "date": "2022-12-24T00:00:00", "smokePM_pred": 3.01126909255981 }, "geometry": { "type": "Polygon", "coordinates": [ [ [ -91.916334034916346, 29.777942692645045 ], [ -91.896362916469116, 29.694837089465246 ], [ -91.991513888461284, 29.67740731232178 ], [ -92.011549395264552, 29.760454420751714 ], [ -91.916334034916346, 29.777942692645045 ] ] ] } },
{ "type": "Feature", "properties": { "ID": 39928, "date": "2022-12-24T00:00:00", "smokePM_pred": 3.2108130455017099 }, "geometry": { "type": "Polygon", "coordinates": [ [ [ -91.82103489874099, 29.795371501094561 ], [ -91.801128445975536, 29.712207582240559 ], [ -91.896362916469116, 29.694837089465246 ], [ -91.916334034916346, 29.777942692645045 ], [ -91.82103489874099, 29.795371501094561 ] ] ] } },
{ "type": "Feature", "properties": { "ID": 39929, "date": "2022-12-24T00:00:00", "smokePM_pred": 2.7627005577087398 }, "geometry": { "type": "Polygon", "coordinates": [ [ [ -91.725652211621437, 29.812740632371856 ], [ -91.705810701575828, 29.729518577816403 ], [ -91.801128445975536, 29.712207582240559 ], [ -91.82103489874099, 29.795371501094561 ], [ -91.725652211621437, 29.812740632371856 ] ] ] } },
{ "type": "Feature", "properties": { "ID": 39940, "date": "2022-12-24T00:00:00", "smokePM_pred": 2.8330600261688201 }, "geometry": { "type": "Polygon", "coordinates": [ [ [ -90.670994184597163, 29.999801619113512 ], [ -90.651885237793294, 29.915952206057739 ], [ -90.748103723765482, 29.89930962229441 ], [ -90.767280639170664, 29.983102938394232 ], [ -90.670994184597163, 29.999801619113512 ] ] ] } },
{ "type": "Feature", "properties": { "ID": 39941, "date": "2022-12-24T00:00:00", "smokePM_pred": 2.3837149143218999 }, "geometry": { "type": "Polygon", "coordinates": [ [ [ -90.574627000615166, 30.0164380869521 ], [ -90.555586295300557, 29.932532767630963 ], [ -90.651885237793294, 29.915952206057739 ], [ -90.670994184597163, 29.999801619113512 ], [ -90.574627000615166, 30.0164380869521 ] ] ] } },
{ "type": "Feature", "properties": { "ID": 40442, "date": "2022-12-24T00:00:00", "smokePM_pred": 3.4356598854064901 }, "geometry": { "type": "Polygon", "coordinates": [ [ [ -91.936388929453059, 29.861035025449979 ], [ -91.916334034916346, 29.777942692645045 ], [ -92.011549395264552, 29.760454420751714 ], [ -92.031668901466318, 29.843488173082626 ], [ -91.936388929453059, 29.861035025449979 ] ] ] } },
{ "type": "Feature", "properties": { "ID": 40443, "date": "2022-12-24T00:00:00", "smokePM_pred": 3.4761669635772701 }, "geometry": { "type": "Polygon", "coordinates": [ [ [ -91.841024902713087, 29.878522235237821 ], [ -91.82103489874099, 29.795371501094561 ], [ -91.916334034916346, 29.777942692645045 ], [ -91.936388929453059, 29.861035025449979 ], [ -91.841024902713087, 29.878522235237821 ] ] ] } },
{ "type": "Feature", "properties": { "ID": 40444, "date": "2022-12-24T00:00:00", "smokePM_pred": 2.8662960529327401 }, "geometry": { "type": "Polygon", "coordinates": [ [ [ -91.745577046416344, 29.895949587817626 ], [ -91.725652211621437, 29.812740632371856 ], [ -91.82103489874099, 29.795371501094561 ], [ -91.841024902713087, 29.878522235237821 ], [ -91.745577046416344, 29.895949587817626 ] ] ] } },
{ "type": "Feature", "properties": { "ID": 40445, "date": "2022-12-24T00:00:00", "smokePM_pred": 3.0763561725616499 }, "geometry": { "type": "Polygon", "coordinates": [ [ [ -91.6500455873162, 29.913316868911178 ], [ -91.630186200015075, 29.830049873098346 ], [ -91.725652211621437, 29.812740632371856 ], [ -91.745577046416344, 29.895949587817626 ], [ -91.6500455873162, 29.913316868911178 ] ] ] } },
{ "type": "Feature", "properties": { "ID": 40957, "date": "2022-12-24T00:00:00", "smokePM_pred": 3.3680105209350599 }, "geometry": { "type": "Polygon", "coordinates": [ [ [ -91.956527878980239, 29.944114024985787 ], [ -91.936388929453059, 29.861035025449979 ], [ -92.031668901466318, 29.843488173082626 ], [ -92.051872686245758, 29.92650850602698 ], [ -91.956527878980239, 29.944114024985787 ] ] ] } },
{ "type": "Feature", "properties": { "ID": 40960, "date": "2022-12-24T00:00:00", "smokePM_pred": 3.1385834217071502 }, "geometry": { "type": "Polygon", "coordinates": [ [ [ -91.669988349347548, 29.99657078943725 ], [ -91.6500455873162, 29.913316868911178 ], [ -91.745577046416344, 29.895949587817626 ], [ -91.765585484278731, 29.979145382047239 ], [ -91.669988349347548, 29.99657078943725 ] ] ] } },
{ "type": "Feature", "properties": { "ID": 43536, "date": "2022-12-24T00:00:00", "smokePM_pred": 8.6443719863891602 }, "geometry": { "type": "Polygon", "coordinates": [ [ [ -91.674948596449866, 30.430298046945818 ], [ -91.654651844513467, 30.34705205876493 ], [ -91.750598760692583, 30.32945447455895 ], [ -91.770962622353466, 30.412642083068377 ], [ -91.674948596449866, 30.430298046945818 ] ] ] } },
{ "type": "Feature", "properties": { "ID": 43537, "date": "2022-12-24T00:00:00", "smokePM_pred": 10.205670356750501 }, "geometry": { "type": "Polygon", "coordinates": [ [ [ -91.578849726207082, 30.44789241395917 ], [ -91.558620371341107, 30.364588229266193 ], [ -91.654651844513467, 30.34705205876493 ], [ -91.674948596449866, 30.430298046945818 ], [ -91.578849726207082, 30.44789241395917 ] ] ] } },
{ "type": "Feature", "properties": { "ID": 43538, "date": "2022-12-24T00:00:00", "smokePM_pred": 9.2010774612426793 }, "geometry": { "type": "Polygon", "coordinates": [ [ [ -91.48266624505834, 30.465424965464329 ], [ -91.462504574289156, 30.38206276833542 ], [ -91.558620371341107, 30.364588229266193 ], [ -91.578849726207082, 30.44789241395917 ], [ -91.48266624505834, 30.465424965464329 ] ] ] } },
{ "type": "Feature", "properties": { "ID": 44051, "date": "2022-12-24T00:00:00", "smokePM_pred": 8.8033189773559606 }, "geometry": { "type": "Polygon", "coordinates": [ [ [ -91.695330192998881, 30.51353067185978 ], [ -91.674948596449866, 30.430298046945818 ], [ -91.770962622353466, 30.412642083068377 ], [ -91.791411560419675, 30.495816240049248 ], [ -91.695330192998881, 30.51353067185978 ] ] ] } },
{ "type": "Feature", "properties": { "ID": 44052, "date": "2022-12-24T00:00:00", "smokePM_pred": 12.2920026779175 }, "geometry": { "type": "Polygon", "coordinates": [ [ [ -91.599163692252489, 30.531183323577089 ], [ -91.578849726207082, 30.44789241395917 ], [ -91.674948596449866, 30.430298046945818 ], [ -91.695330192998881, 30.51353067185978 ], [ -91.599163692252489, 30.531183323577089 ] ] ] } },
{ "type": "Feature", "properties": { "ID": 44053, "date": "2022-12-24T00:00:00", "smokePM_pred": 9.4029016494750994 }, "geometry": { "type": "Polygon", "coordinates": [ [ [ -91.502912291932716, 30.548773975637062 ], [ -91.48266624505834, 30.465424965464329 ], [ -91.578849726207082, 30.44789241395917 ], [ -91.599163692252489, 30.531183323577089 ], [ -91.502912291932716, 30.548773975637062 ] ] ] } },
{ "type": "Feature", "properties": { "ID": 44566, "date": "2022-12-24T00:00:00", "smokePM_pred": 8.4550542831420898 }, "geometry": { "type": "Polygon", "coordinates": [ [ [ -91.715796923148517, 30.596749870191662 ], [ -91.695330192998881, 30.51353067185978 ], [ -91.791411560419675, 30.495816240049248 ], [ -91.811945864188743, 30.578976881780779 ], [ -91.715796923148517, 30.596749870191662 ] ] ] } },
{ "type": "Feature", "properties": { "ID": 44567, "date": "2022-12-24T00:00:00", "smokePM_pred": 10.815259933471699 }, "geometry": { "type": "Polygon", "coordinates": [ [ [ -91.619562558146328, 30.614460895210804 ], [ -91.599163692252489, 30.531183323577089 ], [ -91.695330192998881, 30.51353067185978 ], [ -91.715796923148517, 30.596749870191662 ], [ -91.619562558146328, 30.614460895210804 ] ] ] } },
{ "type": "Feature", "properties": { "ID": 44568, "date": "2022-12-24T00:00:00", "smokePM_pred": 9.4892110824584996 }, "geometry": { "type": "Polygon", "coordinates": [ [ [ -91.523243003252816, 30.63210973635087 ], [ -91.502912291932716, 30.548773975637062 ], [ -91.599163692252489, 30.531183323577089 ], [ -91.619562558146328, 30.614460895210804 ], [ -91.523243003252816, 30.63210973635087 ] ] ] } },
{ "type": "Feature", "properties": { "ID": 45076, "date": "2022-12-24T00:00:00", "smokePM_pred": 4.20365285873413 }, "geometry": { "type": "Polygon", "coordinates": [ [ [ -92.216571020945949, 30.590180381524071 ], [ -92.195682765380909, 30.507269716886658 ], [ -92.291401133603671, 30.489190231657904 ], [ -92.312355729290033, 30.572041347695951 ], [ -92.216571020945949, 30.590180381524071 ] ] ] } },
{ "type": "Feature", "properties": { "ID": 45077, "date": "2022-12-24T00:00:00", "smokePM_pred": 4.79296970367432 }, "geometry": { "type": "Polygon", "coordinates": [ [ [ -92.120699449420982, 30.608258381135713 ], [ -92.09987782771816, 30.525288346627388 ], [ -92.195682765380909, 30.507269716886658 ], [ -92.216571020945949, 30.590180381524071 ], [ -92.120699449420982, 30.608258381135713 ] ] ] } },
{ "type": "Feature", "properties": { "ID": 45081, "date": "2022-12-24T00:00:00", "smokePM_pred": 8.0734148025512695 }, "geometry": { "type": "Polygon", "coordinates": [ [ [ -91.736349077536659, 30.679955578332681 ], [ -91.715796923148517, 30.596749870191662 ], [ -91.811945864188743, 30.578976881780779 ], [ -91.832565824607414, 30.662123944246954 ], [ -91.736349077536659, 30.679955578332681 ] ] ] } },
{ "type": "Feature", "properties": { "ID": 45082, "date": "2022-12-24T00:00:00", "smokePM_pred": 8.2904977798461896 }, "geometry": { "type": "Polygon", "coordinates": [ [ [ -91.640046614208202, 30.697725065659164 ], [ -91.619562558146328, 30.614460895210804 ], [ -91.715796923148517, 30.596749870191662 ], [ -91.736349077536659, 30.679955578332681 ], [ -91.640046614208202, 30.697725065659164 ] ] ] } },
{ "type": "Feature", "properties": { "ID": 45083, "date": "2022-12-24T00:00:00", "smokePM_pred": 8.0770740509033203 }, "geometry": { "type": "Polygon", "coordinates": [ [ [ -91.543658669010313, 30.715432184812595 ], [ -91.523243003252816, 30.63210973635087 ], [ -91.619562558146328, 30.614460895210804 ], [ -91.640046614208202, 30.697725065659164 ], [ -91.543658669010313, 30.715432184812595 ] ] ] } },
{ "type": "Feature", "properties": { "ID": 45591, "date": "2022-12-24T00:00:00", "smokePM_pred": 4.41707420349121 }, "geometry": { "type": "Polygon", "coordinates": [ [ [ -92.237546139969268, 30.673077044028354 ], [ -92.216571020945949, 30.590180381524071 ], [ -92.312355729290033, 30.572041347695951 ], [ -92.333397412821967, 30.65487837182306 ], [ -92.237546139969268, 30.673077044028354 ] ] ] } },
{ "type": "Feature", "properties": { "ID": 45592, "date": "2022-12-24T00:00:00", "smokePM_pred": 4.9030280113220197 }, "geometry": { "type": "Polygon", "coordinates": [ [ [ -92.141607708530415, 30.691214503236257 ], [ -92.120699449420982, 30.608258381135713 ], [ -92.216571020945949, 30.590180381524071 ], [ -92.237546139969268, 30.673077044028354 ], [ -92.141607708530415, 30.691214503236257 ] ] ] } },
{ "type": "Feature", "properties": { "ID": 45593, "date": "2022-12-24T00:00:00", "smokePM_pred": 5.9799070358276403 }, "geometry": { "type": "Polygon", "coordinates": [ [ [ -92.045582344826215, 30.709290525297906 ], [ -92.024741240766986, 30.626275123313821 ], [ -92.120699449420982, 30.608258381135713 ], [ -92.141607708530415, 30.691214503236257 ], [ -92.045582344826215, 30.709290525297906 ] ] ] } },
{ "type": "Feature", "properties": { "ID": 45596, "date": "2022-12-24T00:00:00", "smokePM_pred": 10.9757232666016 }, "geometry": { "type": "Polygon", "coordinates": [ [ [ -91.756986948460664, 30.763147732378357 ], [ -91.736349077536659, 30.679955578332681 ], [ -91.832565824607414, 30.662123944246954 ], [ -91.85327173428108, 30.745257363134442 ], [ -91.756986948460664, 30.763147732378357 ] ] ] } },
{ "type": "Feature", "properties": { "ID": 45597, "date": "2022-12-24T00:00:00", "smokePM_pred": 10.783525466918899 }, "geometry": { "type": "Polygon", "coordinates": [ [ [ -91.660616152417788, 30.780975771426903 ], [ -91.640046614208202, 30.697725065659164 ], [ -91.736349077536659, 30.679955578332681 ], [ -91.756986948460664, 30.763147732378357 ], [ -91.660616152417788, 30.780975771426903 ] ] ] } },
{ "type": "Feature", "properties": { "ID": 45598, "date": "2022-12-24T00:00:00", "smokePM_pred": 8.1845636367797905 }, "geometry": { "type": "Polygon", "coordinates": [ [ [ -91.564159580857677, 30.798741257936594 ], [ -91.543658669010313, 30.715432184812595 ], [ -91.640046614208202, 30.697725065659164 ], [ -91.660616152417788, 30.780975771426903 ], [ -91.564159580857677, 30.798741257936594 ] ] ] } },
{ "type": "Feature", "properties": { "ID": 46106, "date": "2022-12-24T00:00:00", "smokePM_pred": 4.8486356735229501 }, "geometry": { "type": "Polygon", "coordinates": [ [ [ -92.258608417857772, 30.755959638149637 ], [ -92.237546139969268, 30.673077044028354 ], [ -92.333397412821967, 30.65487837182306 ], [ -92.354526479865854, 30.737701237381234 ], [ -92.258608417857772, 30.755959638149637 ] ] ] } },
{ "type": "Feature", "properties": { "ID": 46107, "date": "2022-12-24T00:00:00", "smokePM_pred": 5.1263799667358398 }, "geometry": { "type": "Polygon", "coordinates": [ [ [ -92.162602900184339, 30.774156647087771 ], [ -92.141607708530415, 30.691214503236257 ], [ -92.237546139969268, 30.673077044028354 ], [ -92.258608417857772, 30.755959638149637 ], [ -92.162602900184339, 30.774156647087771 ] ] ] } },
{ "type": "Feature", "properties": { "ID": 46108, "date": "2022-12-24T00:00:00", "smokePM_pred": 6.1902189254760698 }, "geometry": { "type": "Polygon", "coordinates": [ [ [ -92.066510153434308, 30.792292039111711 ], [ -92.045582344826215, 30.709290525297906 ], [ -92.141607708530415, 30.691214503236257 ], [ -92.162602900184339, 30.774156647087771 ], [ -92.066510153434308, 30.792292039111711 ] ] ] } },
{ "type": "Feature", "properties": { "ID": 46111, "date": "2022-12-24T00:00:00", "smokePM_pred": 10.841925621032701 }, "geometry": { "type": "Polygon", "coordinates": [ [ [ -91.777710829886885, 30.846326268126464 ], [ -91.756986948460664, 30.763147732378357 ], [ -91.85327173428108, 30.745257363134442 ], [ -91.874063887483373, 30.828377073830652 ], [ -91.777710829886885, 30.846326268126464 ] ] ] } },
{ "type": "Feature", "properties": { "ID": 46112, "date": "2022-12-24T00:00:00", "smokePM_pred": 10.788755416870099 }, "geometry": { "type": "Polygon", "coordinates": [ [ [ -91.681271466424548, 30.864212948722628 ], [ -91.660616152417788, 30.780975771426903 ], [ -91.756986948460664, 30.763147732378357 ], [ -91.777710829886885, 30.846326268126464 ], [ -91.681271466424548, 30.864212948722628 ] ] ] } },
{ "type": "Feature", "properties": { "ID": 46621, "date": "2022-12-24T00:00:00", "smokePM_pred": 5.40611028671265 }, "geometry": { "type": "Polygon", "coordinates": [ [ [ -92.279758151692207, 30.838828097330197 ], [ -92.258608417857772, 30.755959638149637 ], [ -92.354526479865854, 30.737701237381234 ], [ -92.375743227760836, 30.820509877403111 ], [ -92.279758151692207, 30.838828097330197 ] ] ] } },
{ "type": "Feature", "properties": { "ID": 46622, "date": "2022-12-24T00:00:00", "smokePM_pred": 5.0569434165954599 }, "geometry": { "type": "Polygon", "coordinates": [ [ [ -92.183685321195611, 30.85708474654265 ], [ -92.162602900184339, 30.774156647087771 ], [ -92.258608417857772, 30.755959638149637 ], [ -92.279758151692207, 30.838828097330197 ], [ -92.183685321195611, 30.85708474654265 ] ] ] } },
{ "type": "Feature", "properties": { "ID": 46623, "date": "2022-12-24T00:00:00", "smokePM_pred": 5.85269975662231 }, "geometry": { "type": "Polygon", "coordinates": [ [ [ -92.087524963126612, 30.875279599018281 ], [ -92.066510153434308, 30.792292039111711 ], [ -92.162602900184339, 30.774156647087771 ], [ -92.183685321195611, 30.85708474654265 ], [ -92.087524963126612, 30.875279599018281 ] ] ] } },
{ "type": "Feature", "properties": { "ID": 46626, "date": "2022-12-24T00:00:00", "smokePM_pred": 11.5883874893188 }, "geometry": { "type": "Polygon", "coordinates": [ [ [ -91.798521017460345, 30.929491121074825 ], [ -91.777710829886885, 30.846326268126464 ], [ -91.874063887483373, 30.828377073830652 ], [ -91.894942580165761, 30.911483011421343 ], [ -91.798521017460345, 30.929491121074825 ] ] ] } },
{ "type": "Feature", "properties": { "ID": 47136, "date": "2022-12-24T00:00:00", "smokePM_pred": 5.41750288009644 }, "geometry": { "type": "Polygon", "coordinates": [ [ [ -92.300995640236778, 30.921682354702245 ], [ -92.279758151692207, 30.838828097330197 ], [ -92.375743227760836, 30.820509877403111 ], [ -92.397047955528251, 30.903304224609695 ], [ -92.300995640236778, 30.921682354702245 ] ] ] } },
{ "type": "Feature", "properties": { "ID": 47137, "date": "2022-12-24T00:00:00", "smokePM_pred": 4.9778685569763201 }, "geometry": { "type": "Polygon", "coordinates": [ [ [ -92.204855270061657, 30.939998735144879 ], [ -92.183685321195611, 30.85708474654265 ], [ -92.279758151692207, 30.838828097330197 ], [ -92.300995640236778, 30.921682354702245 ], [ -92.204855270061657, 30.939998735144879 ] ] ] } },
{ "type": "Feature", "properties": { "ID": 47652, "date": "2022-12-24T00:00:00", "smokePM_pred": 4.8476047515869096 }, "geometry": { "type": "Polygon", "coordinates": [ [ [ -92.226113046974106, 31.022898546127784 ], [ -92.204855270061657, 30.939998735144879 ], [ -92.300995640236778, 30.921682354702245 ], [ -92.322321183948773, 31.004522343085803 ], [ -92.226113046974106, 31.022898546127784 ] ] ] } },
{ "type": "Feature", "properties": { "ID": 56873, "date": "2022-12-24T00:00:00", "smokePM_pred": 4.9094476699829102 }, "geometry": { "type": "Polygon", "coordinates": [ [ [ -97.28551054506714, 31.486567810615618 ], [ -97.259490837517191, 31.407143367467235 ], [ -97.352055559563283, 31.384844548366832 ], [ -97.378130700082494, 31.464199819799436 ], [ -97.28551054506714, 31.486567810615618 ] ] ] } },
{ "type": "Feature", "properties": { "ID": 56874, "date": "2022-12-24T00:00:00", "smokePM_pred": 4.8952827453613299 }, "geometry": { "type": "Polygon", "coordinates": [ [ [ -97.192787342745902, 31.508882706397646 ], [ -97.16682340201362, 31.429389223522104 ], [ -97.259490837517191, 31.407143367467235 ], [ -97.28551054506714, 31.486567810615618 ], [ -97.192787342745902, 31.508882706397646 ] ] ] } },
{ "type": "Feature", "properties": { "ID": 57388, "date": "2022-12-24T00:00:00", "smokePM_pred": 4.5719184875488299 }, "geometry": { "type": "Polygon", "coordinates": [ [ [ -97.311633300211199, 31.565971887062506 ], [ -97.28551054506714, 31.486567810615618 ], [ -97.378130700082494, 31.464199819799436 ], [ -97.404309030622571, 31.543534627108695 ], [ -97.311633300211199, 31.565971887062506 ] ] ] } },
{ "type": "Feature", "properties": { "ID": 57389, "date": "2022-12-24T00:00:00", "smokePM_pred": 4.9009575843811 }, "geometry": { "type": "Polygon", "coordinates": [ [ [ -97.218854186916204, 31.58835592011177 ], [ -97.192787342745902, 31.508882706397646 ], [ -97.28551054506714, 31.486567810615618 ], [ -97.311633300211199, 31.565971887062506 ], [ -97.218854186916204, 31.58835592011177 ] ] ] } },
{ "type": "Feature", "properties": { "ID": 72747, "date": "2022-12-24T00:00:00", "smokePM_pred": 5.2284374237060502 }, "geometry": { "type": "Polygon", "coordinates": [ [ [ -106.256655995676368, 31.504553425413654 ], [ -106.223371012711624, 31.432787949158133 ], [ -106.307027986714445, 31.404283141324132 ], [ -106.340339825318097, 31.475968770592466 ], [ -106.256655995676368, 31.504553425413654 ] ] ] } },
{ "type": "Feature", "properties": { "ID": 72748, "date": "2022-12-24T00:00:00", "smokePM_pred": 5.2732076644897496 }, "geometry": { "type": "Polygon", "coordinates": [ [ [ -106.172853104246542, 31.533106124031189 ], [ -106.139595299603769, 31.461260842395806 ], [ -106.223371012711624, 31.432787949158133 ], [ -106.256655995676368, 31.504553425413654 ], [ -106.172853104246542, 31.533106124031189 ] ] ] } },
{ "type": "Feature", "properties": { "ID": 73262, "date": "2022-12-24T00:00:00", "smokePM_pred": 4.8549165725707999 }, "geometry": { "type": "Polygon", "coordinates": [ [ [ -106.290060040640654, 31.57628643563412 ], [ -106.256655995676368, 31.504553425413654 ], [ -106.340339825318097, 31.475968770592466 ], [ -106.373770708268566, 31.547621849838897 ], [ -106.290060040640654, 31.57628643563412 ] ] ] } },
{ "type": "Feature", "properties": { "ID": 73263, "date": "2022-12-24T00:00:00", "smokePM_pred": 4.6057500839233398 }, "geometry": { "type": "Polygon", "coordinates": [ [ [ -106.206229987272735, 31.60491902398077 ], [ -106.172853104246542, 31.533106124031189 ], [ -106.256655995676368, 31.504553425413654 ], [ -106.290060040640654, 31.57628643563412 ], [ -106.206229987272735, 31.60491902398077 ] ] ] } },
{ "type": "Feature", "properties": { "ID": 73264, "date": "2022-12-24T00:00:00", "smokePM_pred": 3.3784854412078902 }, "geometry": { "type": "Polygon", "coordinates": [ [ [ -106.12228053078961, 31.633519353866173 ], [ -106.088931134646231, 31.561626606238416 ], [ -106.172853104246542, 31.533106124031189 ], [ -106.206229987272735, 31.60491902398077 ], [ -106.12228053078961, 31.633519353866173 ] ] ] } },
{ "type": "Feature", "properties": { "ID": 73777, "date": "2022-12-24T00:00:00", "smokePM_pred": 4.6203184127807599 }, "geometry": { "type": "Polygon", "coordinates": [ [ [ -106.323583471556915, 31.647986841883441 ], [ -106.290060040640654, 31.57628643563412 ], [ -106.373770708268566, 31.547621849838897 ], [ -106.407320958522646, 31.619242240917053 ], [ -106.323583471556915, 31.647986841883441 ] ] ] } },
{ "type": "Feature", "properties": { "ID": 73778, "date": "2022-12-24T00:00:00", "smokePM_pred": 4.5667157173156703 }, "geometry": { "type": "Polygon", "coordinates": [ [ [ -106.239726273627511, 31.676699404521049 ], [ -106.206229987272735, 31.60491902398077 ], [ -106.290060040640654, 31.57628643563412 ], [ -106.323583471556915, 31.647986841883441 ], [ -106.239726273627511, 31.676699404521049 ] ] ] } },
{ "type": "Feature", "properties": { "ID": 73779, "date": "2022-12-24T00:00:00", "smokePM_pred": 3.3711168766021702 }, "geometry": { "type": "Polygon", "coordinates": [ [ [ -106.15574934635805, 31.705379667010245 ], [ -106.12228053078961, 31.633519353866173 ], [ -106.206229987272735, 31.60491902398077 ], [ -106.239726273627511, 31.676699404521049 ], [ -106.15574934635805, 31.705379667010245 ] ] ] } },
{ "type": "Feature", "properties": { "ID": 74292, "date": "2022-12-24T00:00:00", "smokePM_pred": 6.2803177833557102 }, "geometry": { "type": "Polygon", "coordinates": [ [ [ -106.357226613649246, 31.719654505677035 ], [ -106.323583471556915, 31.647986841883441 ], [ -106.407320958522646, 31.619242240917053 ], [ -106.440990900300406, 31.690829805132619 ], [ -106.357226613649246, 31.719654505677035 ] ] ] } },
{ "type": "Feature", "properties": { "ID": 74293, "date": "2022-12-24T00:00:00", "smokePM_pred": 4.7479972839355504 }, "geometry": { "type": "Polygon", "coordinates": [ [ [ -106.273342289536188, 31.748447127379627 ], [ -106.239726273627511, 31.676699404521049 ], [ -106.323583471556915, 31.647986841883441 ], [ -106.357226613649246, 31.719654505677035 ], [ -106.273342289536188, 31.748447127379627 ] ] ] } }
]
}
