{
  "type": "FeatureCollection",
  "name": "Wellington_1",
  "crs": {
    "type": "name",
    "properties": {
      "name": "urn:ogc:def:crs:OGC:1.3:CRS84"
    }
  },
  "features": [
    {
      "type": "Feature",
      "properties": {
        "largest_city": "Wellington_1",
        "all_cities": "Wellington_1",
        "total_area_ft2": 19944347.721861623
      },
      "geometry": {
        "type": "MultiPolygon",
        "coordinates": [
          [
            [
              [
                -80.2416922,
                26.626336899999973
              ],
              [
                -80.2431515,
                26.6263782
              ],
              [
                -80.2430506,
                26.629223699999983
              ],
              [
                -80.2415914,
                26.629182399999973
              ],
              [
                -80.2416922,
                26.626336899999973
              ]
            ]
          ],
          [
            [
              [
                -80.2482967,
                26.618499199999988
              ],
              [
                -80.2484192,
                26.615355299999976
              ],
              [
                -80.2500422,
                26.615405799999987
              ],
              [
                -80.2499197,
                26.6185498
              ],
              [
                -80.2482967,
                26.618499199999988
              ]
            ]
          ],
          [
            [
              [
                -80.2451002,
                26.621786900000018
              ],
              [
                -80.2434955,
                26.6217005
              ],
              [
                -80.24351895516685,
                26.62135249001204
              ],
              [
                -80.24351895489043,
                26.62135248996983
              ],
              [
                -80.24352937577457,
                26.621197875919083
              ],
              [
                -80.24358044755384,
                26.62044009757522
              ],
              [
                -80.24358044890865,
                26.620440097782044
              ],
              [
                -80.2436954,
                26.6187345
              ],
              [
                -80.2453,
                26.6188209
              ],
              [
                -80.24511878853231,
                26.62151095910205
              ],
              [
                -80.2451002,
                26.621786900000018
              ]
            ]
          ],
          [
            [
              [
                -80.2532229,
                26.622161
              ],
              [
                -80.2497423,
                26.6220456
              ],
              [
                -80.2497697146081,
                26.6213849284798
              ],
              [
                -80.24976971483053,
                26.621384928513752
              ],
              [
                -80.2497957,
                26.620758699999982
              ],
              [
                -80.25327630000001,
                26.620874099999988
              ],
              [
                -80.2532229,
                26.622161
              ]
            ]
          ],
          [
            [
              [
                -80.2469603,
                26.6294086
              ],
              [
                -80.2453677,
                26.629364299999978
              ],
              [
                -80.2454526,
                26.62653579999999
              ],
              [
                -80.2457358,
                26.626130799999988
              ],
              [
                -80.2470382,
                26.6262447
              ],
              [
                -80.2469603,
                26.6294086
              ]
            ]
          ],
          [
            [
              [
                -80.2380778,
                26.6295696
              ],
              [
                -80.2397176,
                26.6296068
              ],
              [
                -80.23963010000001,
                26.6326898
              ],
              [
                -80.2379902,
                26.6326525
              ],
              [
                -80.2380778,
                26.6295696
              ]
            ]
          ],
          [
            [
              [
                -80.2426274,
                26.6327835
              ],
              [
                -80.24116880000001,
                26.632726
              ],
              [
                -80.2413174,
                26.6297141
              ],
              [
                -80.2427759,
                26.6297716
              ],
              [
                -80.2426274,
                26.6327835
              ]
            ]
          ],
          [
            [
              [
                -80.1872462682822,
                26.633902388942236
              ],
              [
                -80.18720522425687,
                26.63385185088041
              ],
              [
                -80.18716980817678,
                26.63379798357895
              ],
              [
                -80.18714035241862,
                26.633741292117303
              ],
              [
                -80.18711713366348,
                26.633682306468486
              ],
              [
                -80.18701869357967,
                26.633387581729014
              ],
              [
                -80.18698712678062,
                26.633302870237888
              ],
              [
                -80.18698020166808,
                26.632711237888888
              ],
              [
                -80.1869745198239,
                26.63222586833233
              ],
              [
                -80.1873060601475,
                26.632222732593643
              ],
              [
                -80.18963965328693,
                26.63220064510624
              ],
              [
                -80.18964610049575,
                26.632750277461877
              ],
              [
                -80.18964644095722,
                26.632896092160557
              ],
              [
                -80.18964115796504,
                26.633132883361462
              ],
              [
                -80.18962865072133,
                26.63336945485312
              ],
              [
                -80.18960893180252,
                26.63360563158376
              ],
              [
                -80.18958201558166,
                26.633841232078925
              ],
              [
                -80.18954791912675,
                26.63407607888078
              ],
              [
                -80.18950667298049,
                26.634310000153786
              ],
              [
                -80.18945830319402,
                26.63454281603394
              ],
              [
                -80.1894028492932,
                26.63477435227949
              ],
              [
                -80.18940192762172,
                26.634774160365343
              ],
              [
                -80.1881824340808,
                26.63452196078163
              ],
              [
                -80.18811509816373,
                26.634473393531984
              ],
              [
                -80.18804515174246,
                26.63442790733658
              ],
              [
                -80.18739908518677,
                26.634029477169385
              ],
              [
                -80.18734365464213,
                26.633991620040185
              ],
              [
                -80.18729255667216,
                26.633949124805465
              ],
              [
                -80.1872462682822,
                26.633902388942236
              ]
            ]
          ],
          [
            [
              [
                -80.2377691,
                26.6391373
              ],
              [
                -80.2378517,
                26.6370859
              ],
              [
                -80.2393339,
                26.637154599999985
              ],
              [
                -80.2393297,
                26.6372576
              ],
              [
                -80.239312,
                26.6376864
              ],
              [
                -80.2392506,
                26.6391759
              ],
              [
                -80.2377691,
                26.6391373
              ]
            ]
          ],
          [
            [
              [
                -80.243359,
                26.6292435
              ],
              [
                -80.24345580000002,
                26.626418699999974
              ],
              [
                -80.2449086,
                26.6264584
              ],
              [
                -80.244812,
                26.6292832
              ],
              [
                -80.243359,
                26.6292435
              ]
            ]
          ],
          [
            [
              [
                -80.2492937,
                26.6293892
              ],
              [
                -80.2494099,
                26.626519299999984
              ],
              [
                -80.2509067,
                26.62656769999997
              ],
              [
                -80.2507905,
                26.62943770000001
              ],
              [
                -80.2492937,
                26.6293892
              ]
            ]
          ],
          [
            [
              [
                -80.2511044,
                26.6295021
              ],
              [
                -80.2512008,
                26.6265989
              ],
              [
                -80.2527726,
                26.6266406
              ],
              [
                -80.2526761,
                26.6295438
              ],
              [
                -80.2511044,
                26.6295021
              ]
            ]
          ],
          [
            [
              [
                -80.252373,
                26.646383799999988
              ],
              [
                -80.25274471986704,
                26.64651438656554
              ],
              [
                -80.25274471957728,
                26.64651438814546
              ],
              [
                -80.2534507,
                26.6467624
              ],
              [
                -80.2526392,
                26.648608
              ],
              [
                -80.2515614,
                26.648229399999984
              ],
              [
                -80.252373,
                26.646383799999988
              ]
            ]
          ],
          [
            [
              [
                -80.21690593862807,
                26.64858271591771
              ],
              [
                -80.21684364225976,
                26.64840727043551
              ],
              [
                -80.21677926179997,
                26.64817929375637
              ],
              [
                -80.21671825361575,
                26.647855576109993
              ],
              [
                -80.2194738240717,
                26.64795291839855
              ],
              [
                -80.21947193414012,
                26.64799608037218
              ],
              [
                -80.2195106,
                26.6479974
              ],
              [
                -80.2194476,
                26.649399
              ],
              [
                -80.2194105516275,
                26.64939789855031
              ],
              [
                -80.21940949212096,
                26.64942209449572
              ],
              [
                -80.21732705535857,
                26.64934857668616
              ],
              [
                -80.21724798834218,
                26.649235863524087
              ],
              [
                -80.21715188477647,
                26.64908463654498
              ],
              [
                -80.21702739893932,
                26.64885768169039
              ],
              [
                -80.21690593862807,
                26.64858271591771
              ]
            ]
          ],
          [
            [
              [
                -80.1764183,
                26.65343209999999
              ],
              [
                -80.1762849,
                26.6534172
              ],
              [
                -80.1761577,
                26.653387400000014
              ],
              [
                -80.1760076,
                26.6533147
              ],
              [
                -80.1758658,
                26.6532104
              ],
              [
                -80.1757532,
                26.653066899999978
              ],
              [
                -80.1757032,
                26.6529309
              ],
              [
                -80.1756845,
                26.6528042
              ],
              [
                -80.1756907,
                26.6526812
              ],
              [
                -80.1757241,
                26.652539599999987
              ],
              [
                -80.1757887,
                26.652424099999983
              ],
              [
                -80.1763599,
                26.6524241
              ],
              [
                -80.1765017,
                26.652329
              ],
              [
                -80.1767894,
                26.652344
              ],
              [
                -80.1768978,
                26.6524371
              ],
              [
                -80.17690190000002,
                26.65274829999998
              ],
              [
                -80.176806,
                26.6528321
              ],
              [
                -80.176806,
                26.653331499999986
              ],
              [
                -80.1767039,
                26.6533836
              ],
              [
                -80.1765934,
                26.65341719999997
              ],
              [
                -80.1764183,
                26.65343209999999
              ]
            ]
          ],
          [
            [
              [
                -80.23853654495167,
                26.654303066949552
              ],
              [
                -80.23811343621024,
                26.654508577641835
              ],
              [
                -80.238102,
                26.654670399999983
              ],
              [
                -80.2370670330689,
                26.654398800373873
              ],
              [
                -80.23705634498002,
                26.654433162019377
              ],
              [
                -80.2370622,
                26.6547268
              ],
              [
                -80.2371465,
                26.654923
              ],
              [
                -80.2371404,
                26.6550475
              ],
              [
                -80.23703010000001,
                26.655109800000012
              ],
              [
                -80.2369427,
                26.6551481
              ],
              [
                -80.2367427,
                26.6548316
              ],
              [
                -80.23629510000002,
                26.654217
              ],
              [
                -80.2357673,
                26.6536595
              ],
              [
                -80.2357478,
                26.6536389
              ],
              [
                -80.23590158880269,
                26.653527969323367
              ],
              [
                -80.23598122800344,
                26.653460105917073
              ],
              [
                -80.23608190938386,
                26.65336557109939
              ],
              [
                -80.2361675621825,
                26.653276918222975
              ],
              [
                -80.23625790000001,
                26.653126
              ],
              [
                -80.2365295,
                26.6526722
              ],
              [
                -80.2367389,
                26.6523273
              ],
              [
                -80.23705615345528,
                26.652154044776722
              ],
              [
                -80.23705615339361,
                26.652154044767297
              ],
              [
                -80.2370718,
                26.6521455
              ],
              [
                -80.23737570000002,
                26.652017099999988
              ],
              [
                -80.23749032201661,
                26.652039084864604
              ],
              [
                -80.23752793198828,
                26.652037301586333
              ],
              [
                -80.23767179358777,
                26.652061015056873
              ],
              [
                -80.23781410289845,
                26.652091363410577
              ],
              [
                -80.23795448083126,
                26.65212826394686
              ],
              [
                -80.23809255548369,
                26.652171621921262
              ],
              [
                -80.23814161876957,
                26.6521862421071
              ],
              [
                -80.2381880571782,
                26.652206646937657
              ],
              [
                -80.23823102539484,
                26.65223246709188
              ],
              [
                -80.23826974907182,
                26.652263235298484
              ],
              [
                -80.2383035266248,
                26.65229839597091
              ],
              [
                -80.23833174719944,
                26.652337310024866
              ],
              [
                -80.23835390055268,
                26.65237927655597
              ],
              [
                -80.23836958423922,
                26.652423534445685
              ],
              [
                -80.23836952642512,
                26.652423692811865
              ],
              [
                -80.2384606,
                26.6525464
              ],
              [
                -80.23846565212759,
                26.65254994965902
              ],
              [
                -80.23865978351836,
                26.65259551073514
              ],
              [
                -80.2388861,
                26.6525206
              ],
              [
                -80.2387386,
                26.6526935
              ],
              [
                -80.2386358,
                26.6528976
              ],
              [
                -80.2385912,
                26.6531865
              ],
              [
                -80.23859192345888,
                26.65322952680422
              ],
              [
                -80.23864931512712,
                26.653337230228598
              ],
              [
                -80.2387131141561,
                26.653443462681984
              ],
              [
                -80.2388057,
                26.65351
              ],
              [
                -80.2391198,
                26.654030400000014
              ],
              [
                -80.23853654495167,
                26.654303066949552
              ]
            ]
          ],
          [
            [
              [
                -80.2558735,
                26.6385843
              ],
              [
                -80.255764,
                26.6411921
              ],
              [
                -80.2544096,
                26.64114670000001
              ],
              [
                -80.254519,
                26.6385389
              ],
              [
                -80.2558735,
                26.6385843
              ]
            ]
          ],
          [
            [
              [
                -80.2555897,
                26.645696799999975
              ],
              [
                -80.2546596,
                26.6461938
              ],
              [
                -80.2535412,
                26.644521699999988
              ],
              [
                -80.2544713,
                26.644024700000017
              ],
              [
                -80.2555897,
                26.645696799999975
              ]
            ]
          ],
          [
            [
              [
                -80.2542498,
                26.653055599999988
              ],
              [
                -80.2533158,
                26.6533737
              ],
              [
                -80.2519369,
                26.651704
              ],
              [
                -80.2530192,
                26.65118729999997
              ],
              [
                -80.2542498,
                26.653055599999988
              ]
            ]
          ],
          [
            [
              [
                -80.2550245,
                26.6582791
              ],
              [
                -80.2539308,
                26.6561488
              ],
              [
                -80.2549708,
                26.6557223
              ],
              [
                -80.2560646,
                26.6578526
              ],
              [
                -80.2550245,
                26.6582791
              ]
            ]
          ],
          [
            [
              [
                -80.2609062,
                26.6406454
              ],
              [
                -80.2608507,
                26.6407915
              ],
              [
                -80.2607433,
                26.640965
              ],
              [
                -80.26064620000001,
                26.6410781
              ],
              [
                -80.260533,
                26.6411833
              ],
              [
                -80.2603815,
                26.6412385
              ],
              [
                -80.2602858,
                26.641283199999975
              ],
              [
                -80.2600667,
                26.6413424
              ],
              [
                -80.2599063,
                26.641362099999988
              ],
              [
                -80.2597445,
                26.641341100000012
              ],
              [
                -80.2595489,
                26.641278
              ],
              [
                -80.25943560000003,
                26.641207
              ],
              [
                -80.2593827,
                26.641117600000022
              ],
              [
                -80.25940180000002,
                26.640316799999987
              ],
              [
                -80.259415,
                26.6401643
              ],
              [
                -80.25944589999999,
                26.6400697
              ],
              [
                -80.2595018,
                26.6400052
              ],
              [
                -80.260936,
                26.6400421
              ],
              [
                -80.2609062,
                26.6406454
              ]
            ]
          ],
          [
            [
              [
                -80.26589963375858,
                26.64301623775186
              ],
              [
                -80.2658268392445,
                26.64358003972827
              ],
              [
                -80.2658287,
                26.6437563
              ],
              [
                -80.26582124347163,
                26.643757025835818
              ],
              [
                -80.26582124143081,
                26.643759577560314
              ],
              [
                -80.26551419563862,
                26.643786914110617
              ],
              [
                -80.26513042023763,
                26.643824269802355
              ],
              [
                -80.26492599030013,
                26.643849691401254
              ],
              [
                -80.26481644919998,
                26.643866156247018
              ],
              [
                -80.2639808,
                26.6440166
              ],
              [
                -80.2638565,
                26.6440438
              ],
              [
                -80.26334863732092,
                26.644167624466544
              ],
              [
                -80.26289985005828,
                26.64428468688205
              ],
              [
                -80.26283296419716,
                26.644302221075804
              ],
              [
                -80.26273967774816,
                26.644259099383518
              ],
              [
                -80.26257569747956,
                26.64390251016141
              ],
              [
                -80.26269096660188,
                26.643813715567273
              ],
              [
                -80.26282762191617,
                26.643703513309735
              ],
              [
                -80.26290918894396,
                26.643634470538746
              ],
              [
                -80.26310933718253,
                26.643454116386525
              ],
              [
                -80.26326105275254,
                26.64330617696716
              ],
              [
                -80.26339781855962,
                26.643163319095006
              ],
              [
                -80.26350399583292,
                26.64304557750032
              ],
              [
                -80.2637049139277,
                26.642804014148105
              ],
              [
                -80.26375625125402,
                26.642736941984325
              ],
              [
                -80.26396133569241,
                26.64245021756028
              ],
              [
                -80.2640397106442,
                26.642331546479543
              ],
              [
                -80.26414555659973,
                26.64215402003068
              ],
              [
                -80.26424275814105,
                26.64198216616053
              ],
              [
                -80.26430520503146,
                26.641865083637956
              ],
              [
                -80.26433756414461,
                26.641801804855856
              ],
              [
                -80.26434389232855,
                26.641803358395894
              ],
              [
                -80.264345,
                26.641801399999984
              ],
              [
                -80.265748,
                26.642145199999973
              ],
              [
                -80.26575148147495,
                26.64214849533543
              ],
              [
                -80.26575443372313,
                26.64214921906103
              ],
              [
                -80.2658351316881,
                26.642227673010854
              ],
              [
                -80.2660678,
                26.64244790000001
              ],
              [
                -80.26589963375858,
                26.64301623775186
              ]
            ]
          ],
          [
            [
              [
                -80.2684099,
                26.6490828
              ],
              [
                -80.2685658,
                26.6491296
              ],
              [
                -80.2685283,
                26.650055199999986
              ],
              [
                -80.2684163,
                26.6501507
              ],
              [
                -80.2673761,
                26.6501342
              ],
              [
                -80.2673619,
                26.6501067
              ],
              [
                -80.26735050000002,
                26.6500648
              ],
              [
                -80.2673439,
                26.6500197
              ],
              [
                -80.2673355,
                26.649942499999973
              ],
              [
                -80.2673315,
                26.6498795
              ],
              [
                -80.2673333,
                26.649819899999983
              ],
              [
                -80.267339,
                26.64976080000001
              ],
              [
                -80.2673469,
                26.6497129
              ],
              [
                -80.2673654,
                26.649641299999978
              ],
              [
                -80.2673961,
                26.6495601
              ],
              [
                -80.2674339,
                26.649489400000014
              ],
              [
                -80.2674616,
                26.6494469
              ],
              [
                -80.26749220000002,
                26.649397499999985
              ],
              [
                -80.2675441,
                26.649342399999984
              ],
              [
                -80.2676223,
                26.649269499999985
              ],
              [
                -80.2677152,
                26.64920779999999
              ],
              [
                -80.2677887,
                26.649165
              ],
              [
                -80.2679343,
                26.6491064
              ],
              [
                -80.2680924,
                26.6490711
              ],
              [
                -80.2682304,
                26.6490641
              ],
              [
                -80.2683293,
                26.6490699
              ],
              [
                -80.2684099,
                26.6490828
              ]
            ]
          ],
          [
            [
              [
                -80.26341953084001,
                26.66817714005114
              ],
              [
                -80.26348318958665,
                26.6680621817944
              ],
              [
                -80.26350416323429,
                26.668019983544543
              ],
              [
                -80.26323138768693,
                26.667845799963043
              ],
              [
                -80.26324478426275,
                26.667829252761486
              ],
              [
                -80.26325490288612,
                26.6678172860819
              ],
              [
                -80.26326529819059,
                26.66780545346136
              ],
              [
                -80.26327587585305,
                26.667793817514806
              ],
              [
                -80.26328669606063,
                26.667782321246584
              ],
              [
                -80.26329776240665,
                26.667771014427633
              ],
              [
                -80.26330901111061,
                26.66775987698913
              ],
              [
                -80.2633205005631,
                26.66774893301379
              ],
              [
                -80.26333220561125,
                26.667738155207942
              ],
              [
                -80.26334409301742,
                26.66772757086539
              ],
              [
                -80.26335619332428,
                26.66771715188965
              ],
              [
                -80.2638298758719,
                26.66731702846547
              ],
              [
                -80.26383090427406,
                26.667317838550396
              ],
              [
                -80.2638314,
                26.667317399999988
              ],
              [
                -80.26427042456004,
                26.66763162822814
              ],
              [
                -80.26429443333289,
                26.6676466080378
              ],
              [
                -80.2644500770219,
                26.667723896298305
              ],
              [
                -80.2645675197853,
                26.667780870657285
              ],
              [
                -80.26473717880044,
                26.667859239695908
              ],
              [
                -80.26489007835002,
                26.667976341589604
              ],
              [
                -80.26489075139156,
                26.667977279255112
              ],
              [
                -80.2648937,
                26.6679795
              ],
              [
                -80.2649973,
                26.6681237
              ],
              [
                -80.26504166106575,
                26.668212438603042
              ],
              [
                -80.26511299169451,
                26.66835344379038
              ],
              [
                -80.26523333450156,
                26.66859136558523
              ],
              [
                -80.26553996813558,
                26.66846615814155
              ],
              [
                -80.26558372237811,
                26.668552654550233
              ],
              [
                -80.26527708964241,
                26.66867786189899
              ],
              [
                -80.26527434095861,
                26.66867788111014
              ],
              [
                -80.2652767,
                26.6686826
              ],
              [
                -80.26346928552502,
                26.668690535649926
              ],
              [
                -80.2634532832402,
                26.668690646490084
              ],
              [
                -80.26339257599162,
                26.66856956368735
              ],
              [
                -80.26339074342845,
                26.66834947658994
              ],
              [
                -80.26341953084001,
                26.66817714005114
              ]
            ]
          ]
        ]
      }
    }
  ]
}