{
  "type": "FeatureCollection",
  "name": "Pascagoula",
  "crs": {
    "type": "name",
    "properties": {
      "name": "urn:ogc:def:crs:OGC:1.3:CRS84"
    }
  },
  "features": [
    {
      "type": "Feature",
      "properties": {
        "largest_city": "Pascagoula",
        "all_cities": "Bassfield, Columbus, Diamondhead, Ellisville, Lumberton, Moselle, Moss Point, New Augusta, Ocean Springs, Ovett, Pascagoula, Petal, Picayune, Poplarville, Prentiss, Purvis, Richton, Vancleave",
        "total_area_ft2": 19968668.65377354
      },
      "geometry": {
        "type": "MultiPolygon",
        "coordinates": [
          [
            [
              [
                -89.0251455,
                31.203790499999986
              ],
              [
                -89.0253814,
                31.2049546
              ],
              [
                -89.02469710000001,
                31.2050463
              ],
              [
                -89.0244494,
                31.203893900000022
              ],
              [
                -89.0251455,
                31.203790499999986
              ]
            ]
          ],
          [
            [
              [
                -89.0240425,
                31.20455289999999
              ],
              [
                -89.0242118,
                31.204473799999978
              ],
              [
                -89.0243847,
                31.2044365
              ],
              [
                -89.0245156,
                31.20503670000002
              ],
              [
                -89.0244824,
                31.2050874
              ],
              [
                -89.02376320000002,
                31.205151599999986
              ],
              [
                -89.0237475,
                31.2050023
              ],
              [
                -89.0237824,
                31.204872400000017
              ],
              [
                -89.023854,
                31.2047395
              ],
              [
                -89.0239535,
                31.2046171
              ],
              [
                -89.0240425,
                31.20455289999999
              ]
            ]
          ],
          [
            [
              [
                -89.2060268,
                31.3526583
              ],
              [
                -89.206663,
                31.352654899999983
              ],
              [
                -89.20667119999999,
                31.353750199999972
              ],
              [
                -89.206035,
                31.3537537
              ],
              [
                -89.2060268,
                31.3526583
              ]
            ]
          ],
          [
            [
              [
                -88.9330038,
                31.335016599999978
              ],
              [
                -88.9332163,
                31.3353068
              ],
              [
                -88.93373,
                31.335959
              ],
              [
                -88.9335058,
                31.3360707
              ],
              [
                -88.933305,
                31.3360447
              ],
              [
                -88.9311055,
                31.3361066
              ],
              [
                -88.93066180000001,
                31.335801399999987
              ],
              [
                -88.9305147,
                31.335520199999987
              ],
              [
                -88.93051,
                31.33509339999998
              ],
              [
                -88.930865,
                31.33495779999998
              ],
              [
                -88.9310354,
                31.3349757
              ],
              [
                -88.9312672,
                31.33501269999998
              ],
              [
                -88.9314487,
                31.3350276
              ],
              [
                -88.9329641,
                31.3350296
              ],
              [
                -88.9330038,
                31.335016599999978
              ]
            ]
          ],
          [
            [
              [
                -88.9354789,
                31.3496874
              ],
              [
                -88.935673,
                31.3496994
              ],
              [
                -88.9356632,
                31.349814899999984
              ],
              [
                -88.9354691,
                31.34980279999996
              ],
              [
                -88.9354789,
                31.3496874
              ]
            ]
          ],
          [
            [
              [
                -88.9439611,
                31.351898
              ],
              [
                -88.9439593,
                31.352889800000018
              ],
              [
                -88.9434491,
                31.3528998
              ],
              [
                -88.9434503,
                31.351906
              ],
              [
                -88.9439611,
                31.351898
              ]
            ]
          ],
          [
            [
              [
                -88.9415899,
                31.3532707
              ],
              [
                -88.94109760000002,
                31.35328889999998
              ],
              [
                -88.9410094,
                31.3532267
              ],
              [
                -88.9410049,
                31.353081
              ],
              [
                -88.9410271,
                31.353083
              ],
              [
                -88.9410486,
                31.3527806
              ],
              [
                -88.9411047,
                31.3523741
              ],
              [
                -88.9415132,
                31.3522917
              ],
              [
                -88.9417606,
                31.352404300000018
              ],
              [
                -88.9418038,
                31.3524143
              ],
              [
                -88.9420782,
                31.3527895
              ],
              [
                -88.9419731,
                31.3531796
              ],
              [
                -88.9415911,
                31.353247700000015
              ],
              [
                -88.9415899,
                31.3532707
              ]
            ]
          ],
          [
            [
              [
                -89.52507020000002,
                30.833101400000025
              ],
              [
                -89.525074,
                30.8333161
              ],
              [
                -89.5249618,
                30.8333176
              ],
              [
                -89.52495810000002,
                30.83310279999998
              ],
              [
                -89.52507020000002,
                30.833101400000025
              ]
            ]
          ],
          [
            [
              [
                -89.5249209,
                30.8331039
              ],
              [
                -89.5249247,
                30.8333186
              ],
              [
                -89.5248125,
                30.8333201
              ],
              [
                -89.5248088,
                30.833105300000035
              ],
              [
                -89.5249209,
                30.8331039
              ]
            ]
          ],
          [
            [
              [
                -89.52465630000002,
                30.8333218
              ],
              [
                -89.5246526,
                30.833107
              ],
              [
                -89.5247647,
                30.8331056
              ],
              [
                -89.5247685,
                30.8333203
              ],
              [
                -89.52465630000002,
                30.8333218
              ]
            ]
          ],
          [
            [
              [
                -89.513499,
                30.8449265
              ],
              [
                -89.5136874,
                30.8450362
              ],
              [
                -89.5137802,
                30.845121699999982
              ],
              [
                -89.5138381,
                30.84522689999998
              ],
              [
                -89.5138798,
                30.8453967
              ],
              [
                -89.51328980000001,
                30.8454982
              ],
              [
                -89.5131109,
                30.8454023
              ],
              [
                -89.5130899,
                30.8449022
              ],
              [
                -89.5133187,
                30.84489069999998
              ],
              [
                -89.513499,
                30.8449265
              ]
            ]
          ],
          [
            [
              [
                -89.5510183,
                30.846390099999986
              ],
              [
                -89.5510565,
                30.8464546
              ],
              [
                -89.551074,
                30.846504099999986
              ],
              [
                -89.5510854,
                30.8465553
              ],
              [
                -89.5510921,
                30.846608800000013
              ],
              [
                -89.5510954,
                30.8466658
              ],
              [
                -89.5510894,
                30.846724599999973
              ],
              [
                -89.5510767,
                30.8467856
              ],
              [
                -89.5510545,
                30.846842
              ],
              [
                -89.551021,
                30.846899
              ],
              [
                -89.5509801,
                30.846960599999978
              ],
              [
                -89.55093520000001,
                30.8470141
              ],
              [
                -89.55088220000002,
                30.847060199999987
              ],
              [
                -89.5508259,
                30.847095899999964
              ],
              [
                -89.5507588,
                30.8471321
              ],
              [
                -89.5506589,
                30.84716609999999
              ],
              [
                -89.5503565,
                30.846649699999986
              ],
              [
                -89.550386,
                30.846595
              ],
              [
                -89.5510183,
                30.846390099999986
              ]
            ]
          ],
          [
            [
              [
                -89.5432821,
                30.8476324
              ],
              [
                -89.5438092,
                30.84762679999998
              ],
              [
                -89.5438241,
                30.848646799999987
              ],
              [
                -89.5432969,
                30.84865249999998
              ],
              [
                -89.5432821,
                30.8476324
              ]
            ]
          ],
          [
            [
              [
                -89.5452101,
                30.8498762
              ],
              [
                -89.5441345,
                30.8498187
              ],
              [
                -89.54413180000002,
                30.8495446
              ],
              [
                -89.544164,
                30.8493604
              ],
              [
                -89.5442901,
                30.849139399999984
              ],
              [
                -89.5443893,
                30.8490427
              ],
              [
                -89.5447246,
                30.848893
              ],
              [
                -89.5451779,
                30.8488699
              ],
              [
                -89.5452932,
                30.849777199999973
              ],
              [
                -89.5452101,
                30.8498762
              ]
            ]
          ],
          [
            [
              [
                -89.5424335,
                30.8499659
              ],
              [
                -89.5425944,
                30.8499774
              ],
              [
                -89.5425619,
                30.850309699999976
              ],
              [
                -89.5425295,
                30.850640899999988
              ],
              [
                -89.5423686,
                30.8506293
              ],
              [
                -89.5422077,
                30.8506177
              ],
              [
                -89.5420468,
                30.85060610000001
              ],
              [
                -89.5420793,
                30.8502748
              ],
              [
                -89.54211170000002,
                30.849942800000015
              ],
              [
                -89.5422726,
                30.8499544
              ],
              [
                -89.5424335,
                30.8499659
              ]
            ]
          ],
          [
            [
              [
                -89.5130301,
                30.8454959
              ],
              [
                -89.5130059,
                30.845553599999974
              ],
              [
                -89.51295479999999,
                30.8455952
              ],
              [
                -89.5120996,
                30.8456774
              ],
              [
                -89.5120458,
                30.8454891
              ],
              [
                -89.5120714,
                30.84532970000001
              ],
              [
                -89.5121346,
                30.845186399999985
              ],
              [
                -89.512257,
                30.845017799999983
              ],
              [
                -89.5124454,
                30.8448549
              ],
              [
                -89.5126351,
                30.844774
              ],
              [
                -89.5128935,
                30.844729
              ],
              [
                -89.5130301,
                30.8454959
              ]
            ]
          ],
          [
            [
              [
                -89.5128141,
                30.846312799999982
              ],
              [
                -89.5125894,
                30.8462411
              ],
              [
                -89.5124535,
                30.846138299999968
              ],
              [
                -89.5123485,
                30.8459858
              ],
              [
                -89.5123068,
                30.8457941
              ],
              [
                -89.51287270000002,
                30.845696899999986
              ],
              [
                -89.5130032,
                30.845758099999976
              ],
              [
                -89.5130517,
                30.8459672
              ],
              [
                -89.5130657,
                30.846307
              ],
              [
                -89.5128141,
                30.846312799999982
              ]
            ]
          ],
          [
            [
              [
                -89.5142754,
                30.84599049999999
              ],
              [
                -89.5142659,
                30.846119899999987
              ],
              [
                -89.5142081,
                30.8462204
              ],
              [
                -89.5141247,
                30.8462954
              ],
              [
                -89.513978,
                30.8463752
              ],
              [
                -89.5132622,
                30.8464941
              ],
              [
                -89.5131109,
                30.845683
              ],
              [
                -89.5131889,
                30.845601
              ],
              [
                -89.5141879,
                30.845515700000014
              ],
              [
                -89.5142754,
                30.84599049999999
              ]
            ]
          ],
          [
            [
              [
                -89.4582478,
                30.996612199999962
              ],
              [
                -89.4583859,
                30.9966897
              ],
              [
                -89.4584827,
                30.996805299999966
              ],
              [
                -89.4585525,
                30.9969277
              ],
              [
                -89.4585699,
                30.9970597
              ],
              [
                -89.4585604,
                30.997184799999975
              ],
              [
                -89.4579273,
                30.997119500000014
              ],
              [
                -89.457886,
                30.997076
              ],
              [
                -89.4579527,
                30.9965428
              ],
              [
                -89.4581193,
                30.99657
              ],
              [
                -89.4582478,
                30.996612199999962
              ]
            ]
          ],
          [
            [
              [
                -89.4586398,
                30.997703
              ],
              [
                -89.4586366,
                30.99783230000002
              ],
              [
                -89.4580241,
                30.997844500000014
              ],
              [
                -89.4579495,
                30.9977955
              ],
              [
                -89.4579527,
                30.997255599999967
              ],
              [
                -89.45806850000001,
                30.997254199999976
              ],
              [
                -89.4582367,
                30.99728549999998
              ],
              [
                -89.458397,
                30.997353499999985
              ],
              [
                -89.4585065,
                30.997446
              ],
              [
                -89.4585858,
                30.99756159999998
              ],
              [
                -89.4586398,
                30.997703
              ]
            ]
          ],
          [
            [
              [
                -89.4502683,
                31.0015784
              ],
              [
                -89.4497787,
                31.0024982
              ],
              [
                -89.4493353,
                31.002324799999972
              ],
              [
                -89.449825,
                31.001405
              ],
              [
                -89.4502683,
                31.0015784
              ]
            ]
          ],
          [
            [
              [
                -89.4533563,
                31.0019594
              ],
              [
                -89.4536487,
                31.002074
              ],
              [
                -89.4534837,
                31.0023832
              ],
              [
                -89.4532838,
                31.0023048
              ],
              [
                -89.4533175,
                31.002241699999985
              ],
              [
                -89.4532251,
                31.002205499999985
              ],
              [
                -89.4533563,
                31.0019594
              ]
            ]
          ],
          [
            [
              [
                -89.4058489,
                31.1378361
              ],
              [
                -89.4056353,
                31.1369364
              ],
              [
                -89.4061129,
                31.13692
              ],
              [
                -89.4062137,
                31.1369323
              ],
              [
                -89.4065736,
                31.137076099999984
              ],
              [
                -89.4066168,
                31.1371151
              ],
              [
                -89.40692160000002,
                31.1375198
              ],
              [
                -89.40683280000002,
                31.1376081
              ],
              [
                -89.4059425,
                31.137883299999984
              ],
              [
                -89.4058489,
                31.1378361
              ]
            ]
          ],
          [
            [
              [
                -89.5467007,
                30.849987199999983
              ],
              [
                -89.5469431,
                30.8509886
              ],
              [
                -89.5461866,
                30.851123599999976
              ],
              [
                -89.5459442,
                30.8501222
              ],
              [
                -89.5467007,
                30.849987199999983
              ]
            ]
          ],
          [
            [
              [
                -89.54558170000001,
                30.85031929999997
              ],
              [
                -89.54564130000001,
                30.850358100000015
              ],
              [
                -89.545738,
                30.85092119999998
              ],
              [
                -89.54557139999999,
                30.8509477
              ],
              [
                -89.5454296,
                30.850931799999984
              ],
              [
                -89.5452795,
                30.8508877
              ],
              [
                -89.5451129,
                30.8507888
              ],
              [
                -89.5450039,
                30.850658200000016
              ],
              [
                -89.5449587,
                30.8505488
              ],
              [
                -89.5449381,
                30.8504393
              ],
              [
                -89.54558170000001,
                30.85031929999997
              ]
            ]
          ],
          [
            [
              [
                -89.7456976,
                31.4949228
              ],
              [
                -89.7467887,
                31.495253
              ],
              [
                -89.7466202,
                31.4956578
              ],
              [
                -89.7455291,
                31.495327499999984
              ],
              [
                -89.7456976,
                31.4949228
              ]
            ]
          ],
          [
            [
              [
                -89.8709126,
                31.5911034
              ],
              [
                -89.8706983,
                31.5912613
              ],
              [
                -89.8706103,
                31.5911747
              ],
              [
                -89.8708247,
                31.5910168
              ],
              [
                -89.8709126,
                31.5911034
              ]
            ]
          ],
          [
            [
              [
                -89.4065749,
                31.1378954
              ],
              [
                -89.4077899,
                31.1378867
              ],
              [
                -89.40779160000001,
                31.1383877
              ],
              [
                -89.40658,
                31.1383892
              ],
              [
                -89.4065749,
                31.1378954
              ]
            ]
          ],
          [
            [
              [
                -89.4124182,
                31.142846699999982
              ],
              [
                -89.4124638,
                31.1427595
              ],
              [
                -89.4125107,
                31.14263890000002
              ],
              [
                -89.4125671,
                31.1424886
              ],
              [
                -89.4125952,
                31.14243
              ],
              [
                -89.4126489,
                31.1423841
              ],
              [
                -89.4131115,
                31.1425012
              ],
              [
                -89.4128098,
                31.1432496
              ],
              [
                -89.4126945,
                31.143250699999978
              ],
              [
                -89.4125161,
                31.143245
              ],
              [
                -89.4122707,
                31.143235799999985
              ],
              [
                -89.41220760000002,
                31.1432209
              ],
              [
                -89.4121768,
                31.14319790000002
              ],
              [
                -89.41216740000002,
                31.143173799999968
              ],
              [
                -89.4121728,
                31.14314859999999
              ],
              [
                -89.4122009,
                31.143118699999988
              ],
              [
                -89.4122452,
                31.1431084
              ],
              [
                -89.4123015,
                31.1431038
              ],
              [
                -89.4123243,
                31.143082
              ],
              [
                -89.4123163,
                31.1430499
              ],
              [
                -89.4123297,
                31.143010799999953
              ],
              [
                -89.4124182,
                31.142846699999982
              ]
            ]
          ],
          [
            [
              [
                -89.26578192709293,
                31.336930709597144
              ],
              [
                -89.2654784736083,
                31.336930709597134
              ],
              [
                -89.26545024475531,
                31.33689038165395
              ],
              [
                -89.265312,
                31.3368889
              ],
              [
                -89.26519407194907,
                31.336895352843385
              ],
              [
                -89.26518342105493,
                31.336959262102713
              ],
              [
                -89.26508824185562,
                31.336940226076916
              ],
              [
                -89.26499153770115,
                31.336932490842127
              ],
              [
                -89.2649311,
                31.336943899999984
              ],
              [
                -89.264915,
                31.336382599999986
              ],
              [
                -89.26491947047191,
                31.336137013798375
              ],
              [
                -89.2649026427314,
                31.335779050379973
              ],
              [
                -89.2649502318819,
                31.33575049674903
              ],
              [
                -89.26686614032245,
                31.33574619086117
              ],
              [
                -89.2671305,
                31.3357412
              ],
              [
                -89.2671439,
                31.3369874
              ],
              [
                -89.26713170576788,
                31.336987914304423
              ],
              [
                -89.26713457892002,
                31.33704968278889
              ],
              [
                -89.2657735261617,
                31.337040164785584
              ],
              [
                -89.26578225962974,
                31.33693973735553
              ],
              [
                -89.26578192709293,
                31.336930709597144
              ]
            ]
          ],
          [
            [
              [
                -89.263906,
                31.336408100000014
              ],
              [
                -89.2642402,
                31.336407699999985
              ],
              [
                -89.2642402,
                31.3363467
              ],
              [
                -89.2645189,
                31.336346499999983
              ],
              [
                -89.2645189,
                31.33639859999997
              ],
              [
                -89.2648464,
                31.336398199999987
              ],
              [
                -89.264849,
                31.3365189
              ],
              [
                -89.2645276,
                31.336518499999972
              ],
              [
                -89.2645275,
                31.33655269999998
              ],
              [
                -89.2642422,
                31.33655240000002
              ],
              [
                -89.2642422,
                31.336510799999985
              ],
              [
                -89.2639031,
                31.336510400000012
              ],
              [
                -89.263906,
                31.336408100000014
              ]
            ]
          ],
          [
            [
              [
                -89.2538239,
                31.3557729
              ],
              [
                -89.2545191,
                31.3557764
              ],
              [
                -89.2545516,
                31.3576094
              ],
              [
                -89.25452198433149,
                31.3576091744835
              ],
              [
                -89.25452248116432,
                31.35763020638031
              ],
              [
                -89.25270199763035,
                31.35763699984975
              ],
              [
                -89.25273596203292,
                31.355021753998244
              ],
              [
                -89.25274189703622,
                31.355022155014105
              ],
              [
                -89.2527424,
                31.3549397
              ],
              [
                -89.2536246,
                31.354957
              ],
              [
                -89.25383610000002,
                31.355071599999984
              ],
              [
                -89.2538239,
                31.3557729
              ]
            ]
          ],
          [
            [
              [
                -89.28387,
                31.49562650000002
              ],
              [
                -89.2828995,
                31.4956241
              ],
              [
                -89.2829006,
                31.4951834
              ],
              [
                -89.283871,
                31.4951857
              ],
              [
                -89.28387,
                31.49562650000002
              ]
            ]
          ],
          [
            [
              [
                -89.8704349,
                31.5914915
              ],
              [
                -89.8703469,
                31.591404899999986
              ],
              [
                -89.8705613,
                31.591247
              ],
              [
                -89.8706492,
                31.591333599999977
              ],
              [
                -89.8704349,
                31.5914915
              ]
            ]
          ],
          [
            [
              [
                -89.8792798,
                31.59614220000002
              ],
              [
                -89.8794743,
                31.5961493
              ],
              [
                -89.8796687,
                31.59620609999998
              ],
              [
                -89.8798576,
                31.5963149
              ],
              [
                -89.8799715,
                31.59642610000002
              ],
              [
                -89.88005479999998,
                31.5965515
              ],
              [
                -89.8800965,
                31.596712400000012
              ],
              [
                -89.8800854,
                31.5968496
              ],
              [
                -89.8793326,
                31.596859
              ],
              [
                -89.879277,
                31.5968094
              ],
              [
                -89.8792798,
                31.59614220000002
              ]
            ]
          ],
          [
            [
              [
                -88.9437281,
                31.354397699999968
              ],
              [
                -88.9437206,
                31.353799199999976
              ],
              [
                -88.9438026,
                31.353740799999983
              ],
              [
                -88.9445002,
                31.353737599999985
              ],
              [
                -88.9445165,
                31.3538088
              ],
              [
                -88.94452020000001,
                31.353882
              ],
              [
                -88.9445126,
                31.35396390000001
              ],
              [
                -88.9444905,
                31.3540498
              ],
              [
                -88.9444601,
                31.35412329999997
              ],
              [
                -88.944421,
                31.35419219999997
              ],
              [
                -88.9443761,
                31.3542496
              ],
              [
                -88.9443238,
                31.354295199999978
              ],
              [
                -88.9442663,
                31.3543304
              ],
              [
                -88.944196,
                31.3543621
              ],
              [
                -88.9441217,
                31.354385899999986
              ],
              [
                -88.94404720000001,
                31.3544024
              ],
              [
                -88.9439603,
                31.3544141
              ],
              [
                -88.9438864,
                31.3544186
              ],
              [
                -88.9438037,
                31.354413
              ],
              [
                -88.9437281,
                31.354397699999968
              ]
            ]
          ],
          [
            [
              [
                -88.9471086,
                31.3556857
              ],
              [
                -88.9470063,
                31.3556869
              ],
              [
                -88.9470029,
                31.355477
              ],
              [
                -88.9471051,
                31.3554758
              ],
              [
                -88.9471086,
                31.3556857
              ]
            ]
          ],
          [
            [
              [
                -89.2071215,
                31.3552318
              ],
              [
                -89.2069345,
                31.355238699999987
              ],
              [
                -89.206902,
                31.3545096
              ],
              [
                -89.20695890000002,
                31.35446450000001
              ],
              [
                -89.2073858,
                31.3544645
              ],
              [
                -89.2076663,
                31.3544819
              ],
              [
                -89.2077964,
                31.3545096
              ],
              [
                -89.2077232,
                31.3548499
              ],
              [
                -89.2075646,
                31.355037399999983
              ],
              [
                -89.207341,
                31.355176200000013
              ],
              [
                -89.2071215,
                31.3552318
              ]
            ]
          ],
          [
            [
              [
                -89.20639790000001,
                31.3556831
              ],
              [
                -89.2063613,
                31.3556831
              ],
              [
                -89.2060482,
                31.35572130000001
              ],
              [
                -89.2057962,
                31.35567619999997
              ],
              [
                -89.205597,
                31.355572
              ],
              [
                -89.2054303,
                31.3554401
              ],
              [
                -89.2053205,
                31.3552734
              ],
              [
                -89.2052636,
                31.355082500000016
              ],
              [
                -89.2052636,
                31.35491239999999
              ],
              [
                -89.2053083,
                31.354797800000014
              ],
              [
                -89.205292,
                31.35472839999998
              ],
              [
                -89.20605230000001,
                31.3546207
              ],
              [
                -89.20641820000002,
                31.3546277
              ],
              [
                -89.2065198,
                31.3547214
              ],
              [
                -89.2065401,
                31.35505470000001
              ],
              [
                -89.20639790000001,
                31.3556831
              ]
            ]
          ],
          [
            [
              [
                -89.0298128,
                31.4837783
              ],
              [
                -89.0298705,
                31.483715399999987
              ],
              [
                -89.029955,
                31.483646799999985
              ],
              [
                -89.0300301,
                31.4835907
              ],
              [
                -89.0301253,
                31.4835473
              ],
              [
                -89.0302111,
                31.4835107
              ],
              [
                -89.0303157,
                31.483481
              ],
              [
                -89.03043369999999,
                31.48346269999998
              ],
              [
                -89.0305679,
                31.4834558
              ],
              [
                -89.0306805,
                31.4834566
              ],
              [
                -89.0306658,
                31.484257499999984
              ],
              [
                -89.030592,
                31.4843204
              ],
              [
                -89.0303198,
                31.4843238
              ],
              [
                -89.0303198,
                31.484311800000015
              ],
              [
                -89.02965720000002,
                31.4843193
              ],
              [
                -89.0296546,
                31.4842072
              ],
              [
                -89.0296599,
                31.484115700000018
              ],
              [
                -89.0296733,
                31.4840288
              ],
              [
                -89.0297069,
                31.4839396
              ],
              [
                -89.0297551,
                31.4838526
              ],
              [
                -89.0298128,
                31.4837783
              ]
            ]
          ],
          [
            [
              [
                -89.2255099,
                31.5909905
              ],
              [
                -89.2255109,
                31.591085
              ],
              [
                -89.22537,
                31.591086599999986
              ],
              [
                -89.2253689,
                31.590992
              ],
              [
                -89.2255099,
                31.5909905
              ]
            ]
          ],
          [
            [
              [
                -89.1980596,
                31.590509
              ],
              [
                -89.198922,
                31.5905184
              ],
              [
                -89.198905,
                31.5916447
              ],
              [
                -89.1980426,
                31.5916353
              ],
              [
                -89.1980596,
                31.590509
              ]
            ]
          ],
          [
            [
              [
                -89.2039279,
                31.59059280000001
              ],
              [
                -89.2044393,
                31.59063679999998
              ],
              [
                -89.2043223,
                31.591622699999988
              ],
              [
                -89.2038108,
                31.5915787
              ],
              [
                -89.2039279,
                31.59059280000001
              ]
            ]
          ],
          [
            [
              [
                -89.202636,
                31.5912706
              ],
              [
                -89.2025207,
                31.5912599
              ],
              [
                -89.2025484,
                31.591044599999954
              ],
              [
                -89.2026637,
                31.5910553
              ],
              [
                -89.202636,
                31.5912706
              ]
            ]
          ],
          [
            [
              [
                -89.2028007,
                31.591288
              ],
              [
                -89.2026854,
                31.591277300000012
              ],
              [
                -89.202713,
                31.5910619
              ],
              [
                -89.2028284,
                31.59107270000002
              ],
              [
                -89.2028007,
                31.591288
              ]
            ]
          ],
          [
            [
              [
                -89.2029844,
                31.5910864
              ],
              [
                -89.2029567,
                31.5913017
              ],
              [
                -89.2028414,
                31.591290899999976
              ],
              [
                -89.202869,
                31.5910756
              ],
              [
                -89.2029844,
                31.5910864
              ]
            ]
          ],
          [
            [
              [
                -89.20314530000002,
                31.5911006
              ],
              [
                -89.2031176,
                31.5913159
              ],
              [
                -89.2030023,
                31.5913051
              ],
              [
                -89.2030299,
                31.59108980000001
              ],
              [
                -89.20314530000002,
                31.5911006
              ]
            ]
          ],
          [
            [
              [
                -89.20262,
                31.591442599999983
              ],
              [
                -89.2025923,
                31.591658
              ],
              [
                -89.202477,
                31.591647199999976
              ],
              [
                -89.2025046,
                31.59143189999999
              ],
              [
                -89.20262,
                31.591442599999983
              ]
            ]
          ],
          [
            [
              [
                -89.2027541,
                31.5916704
              ],
              [
                -89.2026388,
                31.591659599999982
              ],
              [
                -89.2026664,
                31.591444299999985
              ],
              [
                -89.2027818,
                31.591455099999987
              ],
              [
                -89.2027541,
                31.5916704
              ]
            ]
          ],
          [
            [
              [
                -89.20291,
                31.591689
              ],
              [
                -89.2027947,
                31.5916782
              ],
              [
                -89.20282240000002,
                31.5914629
              ],
              [
                -89.2029377,
                31.591473699999984
              ],
              [
                -89.20291,
                31.591689
              ]
            ]
          ],
          [
            [
              [
                -89.2030995,
                31.5914861
              ],
              [
                -89.2030718,
                31.5917014
              ],
              [
                -89.2029565,
                31.5916907
              ],
              [
                -89.2029841,
                31.5914753
              ],
              [
                -89.2030995,
                31.5914861
              ]
            ]
          ],
          [
            [
              [
                -89.20108820000002,
                31.593687600000013
              ],
              [
                -89.2005737,
                31.5936678
              ],
              [
                -89.2005941,
                31.5926709
              ],
              [
                -89.2011159,
                31.59269079999999
              ],
              [
                -89.20108820000002,
                31.593687600000013
              ]
            ]
          ],
          [
            [
              [
                -89.2028163,
                31.5937526
              ],
              [
                -89.20271130000002,
                31.593471
              ],
              [
                -89.2025645,
                31.593077200000014
              ],
              [
                -89.2024116,
                31.592691
              ],
              [
                -89.2023754,
                31.59260140000001
              ],
              [
                -89.20265319999999,
                31.5924684
              ],
              [
                -89.2028375,
                31.59247979999999
              ],
              [
                -89.2038116,
                31.592540299999985
              ],
              [
                -89.2041519,
                31.59288109999997
              ],
              [
                -89.2045426,
                31.592908300000012
              ],
              [
                -89.2052574,
                31.5929552
              ],
              [
                -89.20520920000001,
                31.593688399999984
              ],
              [
                -89.2051877,
                31.5938816
              ],
              [
                -89.2050938,
                31.594021
              ],
              [
                -89.2048539,
                31.594124
              ],
              [
                -89.2045837,
                31.5940899
              ],
              [
                -89.2039817,
                31.5940113
              ],
              [
                -89.2034645,
                31.59394569999999
              ],
              [
                -89.2028843,
                31.5938948
              ],
              [
                -89.2028163,
                31.5937526
              ]
            ]
          ],
          [
            [
              [
                -89.1997908,
                31.5957705
              ],
              [
                -89.199465,
                31.5957814
              ],
              [
                -89.1993764,
                31.595775699999983
              ],
              [
                -89.1992946,
                31.59577169999997
              ],
              [
                -89.1990257,
                31.5957705
              ],
              [
                -89.199019,
                31.5957665
              ],
              [
                -89.1990164,
                31.595758499999967
              ],
              [
                -89.1990257,
                31.5953576
              ],
              [
                -89.19903710000001,
                31.5953507
              ],
              [
                -89.19907130000001,
                31.5953519
              ],
              [
                -89.1990908,
                31.595347299999986
              ],
              [
                -89.1990982,
                31.595036
              ],
              [
                -89.1991029,
                31.594695600000016
              ],
              [
                -89.2002643,
                31.59469160000002
              ],
              [
                -89.2002683,
                31.595469
              ],
              [
                -89.2001939,
                31.5954707
              ],
              [
                -89.200165,
                31.5957585
              ],
              [
                -89.1997908,
                31.5957705
              ]
            ]
          ],
          [
            [
              [
                -89.1985297,
                31.5951653
              ],
              [
                -89.1987438,
                31.5951555
              ],
              [
                -89.19877189999998,
                31.5956045
              ],
              [
                -89.19813419999998,
                31.595633499999987
              ],
              [
                -89.198104,
                31.595152
              ],
              [
                -89.19852769999999,
                31.595132700000036
              ],
              [
                -89.1985297,
                31.5951653
              ]
            ]
          ],
          [
            [
              [
                -89.200807,
                31.59560159999994
              ],
              [
                -89.2007536,
                31.595602499999973
              ],
              [
                -89.20074649999998,
                31.595290399999975
              ],
              [
                -89.20082580000002,
                31.59528909999997
              ],
              [
                -89.2010694,
                31.59528469999996
              ],
              [
                -89.20121960000002,
                31.595282300000026
              ],
              [
                -89.2012266,
                31.595588599999985
              ],
              [
                -89.2011779,
                31.595589399999987
              ],
              [
                -89.20118020000001,
                31.595690699999967
              ],
              [
                -89.2008092,
                31.59569689999996
              ],
              [
                -89.200807,
                31.59560159999994
              ]
            ]
          ],
          [
            [
              [
                -89.20526948727323,
                31.60083635329926
              ],
              [
                -89.20611206119565,
                31.600810559059568
              ],
              [
                -89.20610346342006,
                31.60165313250849
              ],
              [
                -89.20535976436602,
                31.601674627386753
              ],
              [
                -89.20526948727323,
                31.60083635329926
              ]
            ]
          ],
          [
            [
              [
                -89.1944448,
                31.6015697
              ],
              [
                -89.194387,
                31.601653799999987
              ],
              [
                -89.1942559,
                31.601588499999984
              ],
              [
                -89.1943214,
                31.6014931
              ],
              [
                -89.1943696,
                31.601517
              ],
              [
                -89.1943617,
                31.601528499999986
              ],
              [
                -89.1944448,
                31.6015697
              ]
            ]
          ],
          [
            [
              [
                -89.1964544,
                31.603612
              ],
              [
                -89.1965657,
                31.6034573
              ],
              [
                -89.1965731,
                31.6034521
              ],
              [
                -89.1965832,
                31.603451
              ],
              [
                -89.1966093,
                31.6034624
              ],
              [
                -89.1969024,
                31.603613199999987
              ],
              [
                -89.1969097,
                31.60362119999999
              ],
              [
                -89.1968876,
                31.6036606
              ],
              [
                -89.1968534,
                31.6037074
              ],
              [
                -89.1968199,
                31.6037594
              ],
              [
                -89.1967904,
                31.6037919
              ],
              [
                -89.1964685,
                31.6036417
              ],
              [
                -89.19645040000002,
                31.603629699999985
              ],
              [
                -89.1964544,
                31.603612
              ]
            ]
          ],
          [
            [
              [
                -89.1979594,
                31.608789899999977
              ],
              [
                -89.19805057365974,
                31.608602547182034
              ],
              [
                -89.19805057335942,
                31.60860254716376
              ],
              [
                -89.1981652,
                31.608367
              ],
              [
                -89.1982853,
                31.60834039999997
              ],
              [
                -89.1988743840413,
                31.60865271293451
              ],
              [
                -89.1988743810411,
                31.608652712751827
              ],
              [
                -89.1991654,
                31.608807
              ],
              [
                -89.1990751,
                31.608913
              ],
              [
                -89.1989579,
                31.60904519999998
              ],
              [
                -89.1988859,
                31.60913049999999
              ],
              [
                -89.19877670000001,
                31.609198800000016
              ],
              [
                -89.1985947,
                31.6092982
              ],
              [
                -89.1984822,
                31.6093452
              ],
              [
                -89.198351,
                31.6093629
              ],
              [
                -89.198149,
                31.6093427
              ],
              [
                -89.1979498,
                31.6092744
              ],
              [
                -89.1977612,
                31.609173899999973
              ],
              [
                -89.1979594,
                31.608789899999977
              ]
            ]
          ],
          [
            [
              [
                -89.1997384,
                31.6092938
              ],
              [
                -89.1996302,
                31.609215
              ],
              [
                -89.1995429,
                31.609126800000013
              ],
              [
                -89.199492,
                31.60905389999999
              ],
              [
                -89.1994558,
                31.6089774
              ],
              [
                -89.1994317,
                31.6089009
              ],
              [
                -89.1994293,
                31.608825899999978
              ],
              [
                -89.1998109,
                31.608786
              ],
              [
                -89.2000943,
                31.6087321
              ],
              [
                -89.2002052,
                31.608797
              ],
              [
                -89.2002476,
                31.609047299999983
              ],
              [
                -89.2002309,
                31.6093968
              ],
              [
                -89.1999777,
                31.609383799999968
              ],
              [
                -89.1998944,
                31.6093692
              ],
              [
                -89.1998327,
                31.6093475
              ],
              [
                -89.1997384,
                31.6092938
              ]
            ]
          ],
          [
            [
              [
                -89.2001708,
                31.610831
              ],
              [
                -89.2001518,
                31.611879200000015
              ],
              [
                -89.199645,
                31.611872599999977
              ],
              [
                -89.199664,
                31.610824299999987
              ],
              [
                -89.2001708,
                31.610831
              ]
            ]
          ],
          [
            [
              [
                -89.19749040000002,
                31.6117235
              ],
              [
                -89.1974041,
                31.6121678
              ],
              [
                -89.1962066,
                31.61199920000001
              ],
              [
                -89.1962929,
                31.6115548
              ],
              [
                -89.19749040000002,
                31.6117235
              ]
            ]
          ],
          [
            [
              [
                -88.52182218926957,
                30.341031880038383
              ],
              [
                -88.52192658890533,
                30.341047180732513
              ],
              [
                -88.5218858885803,
                30.341253180470225
              ],
              [
                -88.52178148894406,
                30.341237779776108
              ],
              [
                -88.52182218926957,
                30.341031880038383
              ]
            ]
          ],
          [
            [
              [
                -88.52196438875838,
                30.34105958098414
              ],
              [
                -88.52206878839407,
                30.341074981678258
              ],
              [
                -88.52202808807003,
                30.34128098141589
              ],
              [
                -88.52192368843359,
                30.34126558072181
              ],
              [
                -88.52196438875838,
                30.34105958098414
              ]
            ]
          ],
          [
            [
              [
                -88.52184348845893,
                30.341368980193085
              ],
              [
                -88.5218027881331,
                30.341574879930818
              ],
              [
                -88.52169838849554,
                30.34155957923672
              ],
              [
                -88.5217390888223,
                30.341353579499007
              ],
              [
                -88.52184348845893,
                30.341368980193085
              ]
            ]
          ],
          [
            [
              [
                -88.5219949879251,
                30.341394381200455
              ],
              [
                -88.5219542876001,
                30.341600380938136
              ],
              [
                -88.52184988796255,
                30.341584980244065
              ],
              [
                -88.52189058828807,
                30.341379080506368
              ],
              [
                -88.5219949879251,
                30.341394381200455
              ]
            ]
          ],
          [
            [
              [
                -88.5214119895188,
                30.341504777332133
              ],
              [
                -88.52152878911366,
                30.34152157810864
              ],
              [
                -88.52148808877362,
                30.341732777846644
              ],
              [
                -88.52136358920482,
                30.34171477701894
              ],
              [
                -88.5214119895188,
                30.341504777332133
              ]
            ]
          ],
          [
            [
              [
                -88.5215634889915,
                30.341527378339375
              ],
              [
                -88.52167868858582,
                30.34154677910536
              ],
              [
                -88.52163028827371,
                30.341756778792114
              ],
              [
                -88.52151038869025,
                30.341738777994994
              ],
              [
                -88.5215634889915,
                30.341527378339375
              ]
            ]
          ],
          [
            [
              [
                -88.52166798831998,
                30.341682279039585
              ],
              [
                -88.52177238795774,
                30.34169767973368
              ],
              [
                -88.52173168763096,
                30.341903579471403
              ],
              [
                -88.52162728799226,
                30.341888278777386
              ],
              [
                -88.52166798831998,
                30.341682279039585
              ]
            ]
          ],
          [
            [
              [
                -88.52181008782975,
                30.341701979984254
              ],
              [
                -88.52191458746735,
                30.341717380679004
              ],
              [
                -88.52187388714154,
                30.34192328041672
              ],
              [
                -88.52176938750321,
                30.341907879722008
              ],
              [
                -88.52181008782975,
                30.341701979984254
              ]
            ]
          ],
          [
            [
              [
                -88.52249866125099,
                30.35288968498921
              ],
              [
                -88.5224999610366,
                30.352986285001567
              ],
              [
                -88.5223336614913,
                30.352987983898693
              ],
              [
                -88.52233236170623,
                30.352891383886323
              ],
              [
                -88.52249866125099,
                30.35288968498921
              ]
            ]
          ],
          [
            [
              [
                -88.51574227367482,
                30.35677674781315
              ],
              [
                -88.51688782119426,
                30.356771083619613
              ],
              [
                -88.5168991597888,
                30.358625517317407
              ],
              [
                -88.51574793935012,
                30.358631179817547
              ],
              [
                -88.51574227367482,
                30.35677674781315
              ]
            ]
          ],
          [
            [
              [
                -88.50494567907997,
                30.369585710717537
              ],
              [
                -88.50493714613978,
                30.3694278426815
              ],
              [
                -88.50492886369037,
                30.369428369362506
              ],
              [
                -88.5048687672476,
                30.368199068897784
              ],
              [
                -88.5048707260158,
                30.36819900311448
              ],
              [
                -88.50486835086613,
                30.368155060440152
              ],
              [
                -88.50692539053853,
                30.36808547347992
              ],
              [
                -88.50694085366453,
                30.369570258561733
              ],
              [
                -88.50494567907997,
                30.369585710717537
              ]
            ]
          ],
          [
            [
              [
                -88.51184804972792,
                30.36895281512568
              ],
              [
                -88.51191394989002,
                30.36883191555597
              ],
              [
                -88.51201604955854,
                30.36887341623363
              ],
              [
                -88.51188404923438,
                30.369115415371763
              ],
              [
                -88.51178194956519,
                30.369073914694106
              ],
              [
                -88.51184804972792,
                30.36895281512568
              ]
            ]
          ],
          [
            [
              [
                -88.5028691793151,
                30.400563557487146
              ],
              [
                -88.50290547971656,
                30.400408557717586
              ],
              [
                -88.50289737997004,
                30.40032295765939
              ],
              [
                -88.50280348112085,
                30.399957457020054
              ],
              [
                -88.50278478186964,
                30.399702956882468
              ],
              [
                -88.50284848257364,
                30.39943065728692
              ],
              [
                -88.50285368402308,
                30.39892095729247
              ],
              [
                -88.50285178422351,
                30.398851557276025
              ],
              [
                -88.50498148170722,
                30.398849271311875
              ],
              [
                -88.50498124695854,
                30.39889263760595
              ],
              [
                -88.50498563356156,
                30.398892697522097
              ],
              [
                -88.50498562881444,
                30.400598771540473
              ],
              [
                -88.5039647699428,
                30.40058778719213
              ],
              [
                -88.5029080791988,
                30.400588957744862
              ],
              [
                -88.5028691793151,
                30.400563557487146
              ]
            ]
          ],
          [
            [
              [
                -88.50494656823227,
                30.403704571346147
              ],
              [
                -88.50491906803471,
                30.403785571169433
              ],
              [
                -88.50487416783872,
                30.40387227087847
              ],
              [
                -88.50480446767224,
                30.403957270424055
              ],
              [
                -88.50473536758207,
                30.404014569972084
              ],
              [
                -88.50465486754361,
                30.404057369444253
              ],
              [
                -88.50453556752935,
                30.404105368661213
              ],
              [
                -88.50445036756143,
                30.40412446810112
              ],
              [
                -88.50432366766418,
                30.404133167267208
              ],
              [
                -88.50428476926308,
                30.40357736698043
              ],
              [
                -88.50430956930114,
                30.403554767142516
              ],
              [
                -88.50436056925709,
                30.403551867478267
              ],
              [
                -88.50495996859048,
                30.40357097142714
              ],
              [
                -88.50495736841279,
                30.40363577141354
              ],
              [
                -88.50494656823227,
                30.403704571346147
              ]
            ]
          ],
          [
            [
              [
                -88.42281927052052,
                33.50817680995272
              ],
              [
                -88.42289681758741,
                33.50805154198951
              ],
              [
                -88.42293260826494,
                33.507437135215525
              ],
              [
                -88.42298629338296,
                33.50727011079531
              ],
              [
                -88.42317717819434,
                33.50730590316069
              ],
              [
                -88.42339788617478,
                33.50741923943633
              ],
              [
                -88.42367228286652,
                33.50760415781533
              ],
              [
                -88.42382141128851,
                33.50773539091589
              ],
              [
                -88.42402422482854,
                33.50698975161018
              ],
              [
                -88.4241972134028,
                33.506751146424556
              ],
              [
                -88.42655343420593,
                33.507067298097674
              ],
              [
                -88.42638044563166,
                33.507508716048186
              ],
              [
                -88.42635658547941,
                33.50778907729719
              ],
              [
                -88.42637448081818,
                33.50826032207719
              ],
              [
                -88.42644009735979,
                33.50871963469938
              ],
              [
                -88.42638044473334,
                33.50893437908039
              ],
              [
                -88.42556919057331,
                33.508152949865995
              ],
              [
                -88.42389895745711,
                33.507848729625124
              ],
              [
                -88.42382141128851,
                33.508105228174635
              ],
              [
                -88.42351122481756,
                33.50831400813281
              ],
              [
                -88.42314735233026,
                33.50863015859058
              ],
              [
                -88.4228371667576,
                33.50891648435982
              ],
              [
                -88.42267014299684,
                33.50904771696833
              ],
              [
                -88.42148904884104,
                33.50917298348952
              ],
              [
                -88.42170975771982,
                33.508152949866
              ],
              [
                -88.42281927052052,
                33.50817680995272
              ]
            ]
          ],
          [
            [
              [
                -88.4241097,
                33.52309260000001
              ],
              [
                -88.4239781,
                33.5230523
              ],
              [
                -88.4238285,
                33.52297519999998
              ],
              [
                -88.42369870000002,
                33.5228293
              ],
              [
                -88.4236353,
                33.5226633
              ],
              [
                -88.4236264,
                33.5225727
              ],
              [
                -88.4236367,
                33.5225048
              ],
              [
                -88.4242992,
                33.5225182
              ],
              [
                -88.4243464,
                33.52257169999998
              ],
              [
                -88.4242123,
                33.52310939999998
              ],
              [
                -88.4241097,
                33.52309260000001
              ]
            ]
          ],
          [
            [
              [
                -88.41750330000002,
                33.48788119999998
              ],
              [
                -88.417414,
                33.48776320000002
              ],
              [
                -88.41736,
                33.4876422
              ],
              [
                -88.4173303,
                33.48753039999997
              ],
              [
                -88.4173284,
                33.4874311
              ],
              [
                -88.4173228,
                33.487337899999986
              ],
              [
                -88.4183036,
                33.4873317
              ],
              [
                -88.4183427,
                33.48734729999999
              ],
              [
                -88.41837250000002,
                33.487383
              ],
              [
                -88.418326,
                33.4877663
              ],
              [
                -88.4182646,
                33.488201
              ],
              [
                -88.4181436,
                33.4881994
              ],
              [
                -88.4179854,
                33.4881746
              ],
              [
                -88.4178049,
                33.488112499999986
              ],
              [
                -88.4176336,
                33.4879976
              ],
              [
                -88.41750330000002,
                33.48788119999998
              ]
            ]
          ],
          [
            [
              [
                -88.4165707,
                33.4884538
              ],
              [
                -88.4166357,
                33.48852
              ],
              [
                -88.4162675,
                33.48883150000001
              ],
              [
                -88.4161691,
                33.4889166
              ],
              [
                -88.4161185,
                33.48894180000001
              ],
              [
                -88.4160669,
                33.488934800000024
              ],
              [
                -88.4155727,
                33.4885215
              ],
              [
                -88.4156792,
                33.4884206
              ],
              [
                -88.4158308,
                33.48834689999998
              ],
              [
                -88.4160077,
                33.488306299999984
              ],
              [
                -88.4161304,
                33.48829869999997
              ],
              [
                -88.4162928,
                33.48831979999998
              ],
              [
                -88.416466,
                33.48838
              ],
              [
                -88.4165707,
                33.4884538
              ]
            ]
          ],
          [
            [
              [
                -88.421092,
                33.48852380000001
              ],
              [
                -88.4211123,
                33.4888515
              ],
              [
                -88.4201534,
                33.48889279999998
              ],
              [
                -88.4201331,
                33.4885651
              ],
              [
                -88.421092,
                33.48852380000001
              ]
            ]
          ],
          [
            [
              [
                -88.4146547,
                33.4885893
              ],
              [
                -88.4147469,
                33.4885164
              ],
              [
                -88.4148411,
                33.4884723
              ],
              [
                -88.4149362,
                33.4884467
              ],
              [
                -88.4150591,
                33.4884392
              ],
              [
                -88.4151691,
                33.4884566
              ],
              [
                -88.4152614,
                33.4884872
              ],
              [
                -88.4152939,
                33.48901259999999
              ],
              [
                -88.4152538,
                33.4890483
              ],
              [
                -88.4146365,
                33.4890799
              ],
              [
                -88.4145912,
                33.489008399999975
              ],
              [
                -88.41455890000002,
                33.48892369999999
              ],
              [
                -88.414552,
                33.4888399
              ],
              [
                -88.4145683,
                33.48874619999998
              ],
              [
                -88.4145996,
                33.48866309999997
              ],
              [
                -88.4146547,
                33.4885893
              ]
            ]
          ],
          [
            [
              [
                -88.3752045,
                33.5045309
              ],
              [
                -88.3763034,
                33.50452520000001
              ],
              [
                -88.3763074,
                33.50506180000002
              ],
              [
                -88.3752086,
                33.5050676
              ],
              [
                -88.3752045,
                33.5045309
              ]
            ]
          ],
          [
            [
              [
                -88.374307,
                33.5045687
              ],
              [
                -88.3743174,
                33.5055392
              ],
              [
                -88.373802,
                33.5055431
              ],
              [
                -88.3737914,
                33.50457259999998
              ],
              [
                -88.374307,
                33.5045687
              ]
            ]
          ],
          [
            [
              [
                -88.413410613577,
                33.50575814342081
              ],
              [
                -88.41131961676825,
                33.505836418331555
              ],
              [
                -88.41131402655223,
                33.50437719232094
              ],
              [
                -88.41269645180594,
                33.5043334946015
              ],
              [
                -88.4126964,
                33.504332
              ],
              [
                -88.41289429331151,
                33.504327240937805
              ],
              [
                -88.41325965888002,
                33.504315691928504
              ],
              [
                -88.413410613577,
                33.50575814342081
              ]
            ]
          ],
          [
            [
              [
                -88.3800867,
                33.5054635
              ],
              [
                -88.3802076,
                33.5054618
              ],
              [
                -88.3802122,
                33.5056779
              ],
              [
                -88.3800911,
                33.505679700000016
              ],
              [
                -88.3800867,
                33.5054635
              ]
            ]
          ],
          [
            [
              [
                -88.3799289,
                33.50546579999999
              ],
              [
                -88.3800498,
                33.5054641
              ],
              [
                -88.3800542,
                33.5056802
              ],
              [
                -88.3799332,
                33.505682
              ],
              [
                -88.3799289,
                33.50546579999999
              ]
            ]
          ],
          [
            [
              [
                -88.3797709,
                33.50546820000001
              ],
              [
                -88.3798919,
                33.50546640000001
              ],
              [
                -88.3798963,
                33.5056825
              ],
              [
                -88.3797753,
                33.50568429999997
              ],
              [
                -88.3797709,
                33.50546820000001
              ]
            ]
          ],
          [
            [
              [
                -88.3797348,
                33.50546869999999
              ],
              [
                -88.3797391,
                33.50568479999998
              ],
              [
                -88.3796182,
                33.505686599999976
              ],
              [
                -88.3796138,
                33.5054705
              ],
              [
                -88.3797348,
                33.50546869999999
              ]
            ]
          ],
          [
            [
              [
                -88.37958,
                33.505470899999985
              ],
              [
                -88.3795844,
                33.505687099999975
              ],
              [
                -88.3794634,
                33.5056889
              ],
              [
                -88.3794591,
                33.50547269999998
              ],
              [
                -88.37958,
                33.505470899999985
              ]
            ]
          ],
          [
            [
              [
                -88.3793011,
                33.505475
              ],
              [
                -88.3794221,
                33.5054733
              ],
              [
                -88.3794266,
                33.5056894
              ],
              [
                -88.3793056,
                33.5056912
              ],
              [
                -88.3793011,
                33.505475
              ]
            ]
          ],
          [
            [
              [
                -88.3754303,
                33.50564330000002
              ],
              [
                -88.3754501,
                33.5055999
              ],
              [
                -88.3754897,
                33.5055669
              ],
              [
                -88.3755417,
                33.50555449999998
              ],
              [
                -88.3758435,
                33.5055504
              ],
              [
                -88.3762172,
                33.5055607
              ],
              [
                -88.37620970000002,
                33.5057155
              ],
              [
                -88.3761578,
                33.5058785
              ],
              [
                -88.3760341,
                33.5060353
              ],
              [
                -88.3758881,
                33.50613430000002
              ],
              [
                -88.3757,
                33.5061962
              ],
              [
                -88.3754798,
                33.50620859999998
              ],
              [
                -88.3754303,
                33.50564330000002
              ]
            ]
          ],
          [
            [
              [
                -88.3824997,
                33.5072334
              ],
              [
                -88.3819606,
                33.507263400000014
              ],
              [
                -88.3818786,
                33.5062407
              ],
              [
                -88.3824179,
                33.50621069999998
              ],
              [
                -88.3824997,
                33.5072334
              ]
            ]
          ],
          [
            [
              [
                -88.383207,
                33.506859
              ],
              [
                -88.3833284,
                33.506856
              ],
              [
                -88.383336,
                33.5070699
              ],
              [
                -88.38321460000002,
                33.50707289999998
              ],
              [
                -88.383207,
                33.506859
              ]
            ]
          ],
          [
            [
              [
                -88.3830475,
                33.5068624
              ],
              [
                -88.3831689,
                33.50685940000001
              ],
              [
                -88.3831765,
                33.50707329999998
              ],
              [
                -88.383055,
                33.5070763
              ],
              [
                -88.3830475,
                33.5068624
              ]
            ]
          ],
          [
            [
              [
                -88.383021,
                33.5070776
              ],
              [
                -88.3828995,
                33.5070806
              ],
              [
                -88.382892,
                33.50686659999998
              ],
              [
                -88.3830134,
                33.50686360000001
              ],
              [
                -88.383021,
                33.5070776
              ]
            ]
          ],
          [
            [
              [
                -88.3753832,
                33.5065471
              ],
              [
                -88.3753972,
                33.50662509999998
              ],
              [
                -88.3753921,
                33.50670069999999
              ],
              [
                -88.3753959,
                33.506963499999976
              ],
              [
                -88.3753289,
                33.507481499999976
              ],
              [
                -88.375219,
                33.507468
              ],
              [
                -88.3750789,
                33.50751
              ],
              [
                -88.3749177,
                33.50753020000001
              ],
              [
                -88.3747776,
                33.507517599999986
              ],
              [
                -88.3746305,
                33.5074983
              ],
              [
                -88.3744904,
                33.5074504
              ],
              [
                -88.3743453,
                33.50735959999997
              ],
              [
                -88.3742436,
                33.507263
              ],
              [
                -88.3741881,
                33.5071698
              ],
              [
                -88.3741388,
                33.50702189999997
              ],
              [
                -88.37412060000001,
                33.5068883
              ],
              [
                -88.37411860000002,
                33.50679
              ],
              [
                -88.3741448,
                33.5067101
              ],
              [
                -88.3741791,
                33.506634499999976
              ],
              [
                -88.37417,
                33.5065656
              ],
              [
                -88.3748439,
                33.5064561
              ],
              [
                -88.3752069,
                33.5064505
              ],
              [
                -88.3752784,
                33.50646479999998
              ],
              [
                -88.375347,
                33.50649759999999
              ],
              [
                -88.3753832,
                33.5065471
              ]
            ]
          ],
          [
            [
              [
                -88.3833452,
                33.5073996
              ],
              [
                -88.3832237,
                33.50740259999998
              ],
              [
                -88.3832162,
                33.5071886
              ],
              [
                -88.3833376,
                33.5071856
              ],
              [
                -88.3833452,
                33.5073996
              ]
            ]
          ],
          [
            [
              [
                -88.3831917,
                33.507403
              ],
              [
                -88.3830703,
                33.507406
              ],
              [
                -88.3830627,
                33.507192
              ],
              [
                -88.3831841,
                33.507189
              ],
              [
                -88.3831917,
                33.507403
              ]
            ]
          ],
          [
            [
              [
                -88.3829066,
                33.5074111
              ],
              [
                -88.3828991,
                33.5071971
              ],
              [
                -88.38302050000001,
                33.507194100000014
              ],
              [
                -88.3830281,
                33.507408099999985
              ],
              [
                -88.3829066,
                33.5074111
              ]
            ]
          ],
          [
            [
              [
                -88.4211924,
                33.5235885
              ],
              [
                -88.4210721,
                33.52358870000002
              ],
              [
                -88.4210715,
                33.523375799999975
              ],
              [
                -88.42119190000001,
                33.52337559999999
              ],
              [
                -88.4211924,
                33.5235885
              ]
            ]
          ],
          [
            [
              [
                -88.4213467,
                33.523376
              ],
              [
                -88.4213465,
                33.5235893
              ],
              [
                -88.4212292,
                33.52358919999998
              ],
              [
                -88.4212294,
                33.5233759
              ],
              [
                -88.4213467,
                33.523376
              ]
            ]
          ],
          [
            [
              [
                -88.4228721,
                33.52319859999998
              ],
              [
                -88.4228812,
                33.52341179999998
              ],
              [
                -88.4227639,
                33.52341530000002
              ],
              [
                -88.4227549,
                33.5232021
              ],
              [
                -88.4228721,
                33.52319859999998
              ]
            ]
          ],
          [
            [
              [
                -88.4227164,
                33.5232038
              ],
              [
                -88.4227255,
                33.523417
              ],
              [
                -88.4226082,
                33.52342039999998
              ],
              [
                -88.4225992,
                33.5232072
              ],
              [
                -88.4227164,
                33.5232038
              ]
            ]
          ],
          [
            [
              [
                -88.4217513,
                33.5232099
              ],
              [
                -88.4217511,
                33.52342320000001
              ],
              [
                -88.4216338,
                33.52342319999999
              ],
              [
                -88.421634,
                33.52320979999998
              ],
              [
                -88.4217513,
                33.5232099
              ]
            ]
          ],
          [
            [
              [
                -88.4215963,
                33.52342469999997
              ],
              [
                -88.421479,
                33.5234246
              ],
              [
                -88.4214792,
                33.52321129999998
              ],
              [
                -88.4215965,
                33.52321139999999
              ],
              [
                -88.4215963,
                33.52342469999997
              ]
            ]
          ],
          [
            [
              [
                -88.4225246,
                33.5234258
              ],
              [
                -88.4224074,
                33.52342929999999
              ],
              [
                -88.4223983,
                33.523216099999985
              ],
              [
                -88.4225155,
                33.52321259999999
              ],
              [
                -88.4225246,
                33.5234258
              ]
            ]
          ],
          [
            [
              [
                -88.4223689,
                33.523431
              ],
              [
                -88.4222517,
                33.5234345
              ],
              [
                -88.4222426,
                33.5232213
              ],
              [
                -88.4223598,
                33.5232178
              ],
              [
                -88.4223689,
                33.523431
              ]
            ]
          ],
          [
            [
              [
                -88.4221634,
                33.5232259
              ],
              [
                -88.4221725,
                33.5234391
              ],
              [
                -88.4220552,
                33.52344260000003
              ],
              [
                -88.4220462,
                33.523229399999984
              ],
              [
                -88.4221634,
                33.5232259
              ]
            ]
          ],
          [
            [
              [
                -88.4220094,
                33.5232311
              ],
              [
                -88.4220185,
                33.5234443
              ],
              [
                -88.4219013,
                33.52344769999997
              ],
              [
                -88.4218922,
                33.52323450000002
              ],
              [
                -88.4220094,
                33.5232311
              ]
            ]
          ],
          [
            [
              [
                -88.4077642,
                33.524594399999984
              ],
              [
                -88.4077656,
                33.5242666
              ],
              [
                -88.408129,
                33.5242677
              ],
              [
                -88.40812760000001,
                33.52459549999998
              ],
              [
                -88.4077642,
                33.524594399999984
              ]
            ]
          ],
          [
            [
              [
                -88.4216332,
                33.523541
              ],
              [
                -88.4217504,
                33.52354110000001
              ],
              [
                -88.4217502,
                33.52375439999998
              ],
              [
                -88.4216329,
                33.5237544
              ],
              [
                -88.4216332,
                33.523541
              ]
            ]
          ],
          [
            [
              [
                -88.4214774,
                33.523541
              ],
              [
                -88.4215947,
                33.5235411
              ],
              [
                -88.4215945,
                33.5237544
              ],
              [
                -88.4214772,
                33.5237544
              ],
              [
                -88.4214774,
                33.523541
              ]
            ]
          ],
          [
            [
              [
                -88.4231591,
                33.52499369999999
              ],
              [
                -88.4231167,
                33.52400469999998
              ],
              [
                -88.4236911,
                33.5239875
              ],
              [
                -88.4237338,
                33.5249765
              ],
              [
                -88.4231591,
                33.52499369999999
              ]
            ]
          ],
          [
            [
              [
                -88.4232621,
                33.5256828
              ],
              [
                -88.4231596,
                33.5255855
              ],
              [
                -88.423103,
                33.5252877
              ],
              [
                -88.4230872,
                33.5250967
              ],
              [
                -88.4231158,
                33.52509259999999
              ],
              [
                -88.42380760000002,
                33.5249931
              ],
              [
                -88.4239618,
                33.52499
              ],
              [
                -88.4241174,
                33.5249869
              ],
              [
                -88.424199,
                33.52504350000001
              ],
              [
                -88.4242129,
                33.525195
              ],
              [
                -88.4242246,
                33.5253223
              ],
              [
                -88.4242081,
                33.5259567
              ],
              [
                -88.4239713,
                33.525978
              ],
              [
                -88.42376620000002,
                33.52596229999998
              ],
              [
                -88.4235302,
                33.52587579999998
              ],
              [
                -88.4232621,
                33.5256828
              ]
            ]
          ],
          [
            [
              [
                -88.444916,
                33.53784359999998
              ],
              [
                -88.4446803,
                33.53775
              ],
              [
                -88.4447324,
                33.53765869999999
              ],
              [
                -88.4449682,
                33.5377523
              ],
              [
                -88.444916,
                33.53784359999998
              ]
            ]
          ],
          [
            [
              [
                -88.4392217,
                33.54014019999999
              ],
              [
                -88.4390934,
                33.540125299999985
              ],
              [
                -88.4391298,
                33.5399078
              ],
              [
                -88.4392581,
                33.5399227
              ],
              [
                -88.4392217,
                33.54014019999999
              ]
            ]
          ]
        ]
      }
    }
  ]
}