{
  "type": "FeatureCollection",
  "name": "Augusta-Richmond County consolidated government (balance)",
  "crs": {
    "type": "name",
    "properties": {
      "name": "urn:ogc:def:crs:OGC:1.3:CRS84"
    }
  },
  "features": [
    {
      "type": "Feature",
      "properties": {
        "largest_city": "Augusta-Richmond County consolidated government (balance)",
        "all_cities": "Augusta-Richmond County consolidated government (balance), Epworth, Lavonia, Morganton, Royston, Sky Valley",
        "total_area_ft2": 19963472.32938931
      },
      "geometry": {
        "type": "MultiPolygon",
        "coordinates": [
          [
            [
              [
                -82.09384129999998,
                33.4752033
              ],
              [
                -82.09392449999999,
                33.4754126
              ],
              [
                -82.09381719999999,
                33.47544230000001
              ],
              [
                -82.093734,
                33.4752329
              ],
              [
                -82.09384129999998,
                33.4752033
              ]
            ]
          ],
          [
            [
              [
                -82.12195044690583,
                33.474403889382536
              ],
              [
                -82.12207396351374,
                33.4748112748248
              ],
              [
                -82.12215349999998,
                33.4748654
              ],
              [
                -82.12235798002973,
                33.474893044684855
              ],
              [
                -82.12300893450005,
                33.47471138324332
              ],
              [
                -82.12333121139642,
                33.47541802797645
              ],
              [
                -82.12202732023626,
                33.475891093673326
              ],
              [
                -82.12114031923315,
                33.47624885041563
              ],
              [
                -82.12107231676613,
                33.47620745694473
              ],
              [
                -82.12070864639978,
                33.474800082155184
              ],
              [
                -82.12195044690583,
                33.474403889382536
              ]
            ]
          ],
          [
            [
              [
                -82.0488389,
                33.46532619999997
              ],
              [
                -82.0487502,
                33.46542
              ],
              [
                -82.0488175,
                33.4654643
              ],
              [
                -82.0485105,
                33.4657891
              ],
              [
                -82.0484474,
                33.4657475
              ],
              [
                -82.0482893,
                33.465914799999986
              ],
              [
                -82.04800529999999,
                33.465728
              ],
              [
                -82.0485591,
                33.4651421
              ],
              [
                -82.0488389,
                33.46532619999997
              ]
            ]
          ],
          [
            [
              [
                -82.05875167596403,
                33.46768404342159
              ],
              [
                -82.05816347348905,
                33.4678134853322
              ],
              [
                -82.05827388092904,
                33.46819039329049
              ],
              [
                -82.05799024955616,
                33.4682436920397
              ],
              [
                -82.05792743126666,
                33.4680495285664
              ],
              [
                -82.05803403164647,
                33.46797338667312
              ],
              [
                -82.0578132176648,
                33.467562214947314
              ],
              [
                -82.0580473563571,
                33.46737756925279
              ],
              [
                -82.05823581032729,
                33.467274776734264
              ],
              [
                -82.05845852783906,
                33.46722909029873
              ],
              [
                -82.05875548392252,
                33.46722718688407
              ],
              [
                -82.05875167596403,
                33.46768404342159
              ]
            ]
          ],
          [
            [
              [
                -82.05541539999999,
                33.4681856
              ],
              [
                -82.05532949999998,
                33.46824939999998
              ],
              [
                -82.05515339999998,
                33.46808459999997
              ],
              [
                -82.0552394,
                33.4680207
              ],
              [
                -82.05541539999999,
                33.4681856
              ]
            ]
          ],
          [
            [
              [
                -82.04784463069328,
                33.47165965620314
              ],
              [
                -82.04735275316744,
                33.47167186754751
              ],
              [
                -82.04728789999999,
                33.47169259999997
              ],
              [
                -82.0472792134516,
                33.47167369324342
              ],
              [
                -82.0467788373308,
                33.47168611557381
              ],
              [
                -82.04681638870632,
                33.47043764469038
              ],
              [
                -82.04892460442242,
                33.47045106926055
              ],
              [
                -82.0489085102058,
                33.470549515545294
              ],
              [
                -82.04861883317109,
                33.47066138700517
              ],
              [
                -82.0487851301948,
                33.47114914104605
              ],
              [
                -82.04918209661716,
                33.47102832156226
              ],
              [
                -82.04925183373098,
                33.471090968861844
              ],
              [
                -82.04871059028575,
                33.47153522915615
              ],
              [
                -82.0487224,
                33.471560099999984
              ],
              [
                -82.0486519398831,
                33.47158337023829
              ],
              [
                -82.04858128089725,
                33.47164136813578
              ],
              [
                -82.04846779696994,
                33.47164418548611
              ],
              [
                -82.0483969,
                33.4716676
              ],
              [
                -82.04838673027749,
                33.47164619804665
              ],
              [
                -82.04798717890493,
                33.471656117303276
              ],
              [
                -82.0478625,
                33.47169729999999
              ],
              [
                -82.04784463069328,
                33.47165965620314
              ]
            ]
          ],
          [
            [
              [
                -82.07334009999998,
                33.476192
              ],
              [
                -82.0729894,
                33.47625469999998
              ],
              [
                -82.0729101,
                33.47594609999998
              ],
              [
                -82.0732609,
                33.4758835
              ],
              [
                -82.07334009999998,
                33.476192
              ]
            ]
          ],
          [
            [
              [
                -82.0703666,
                33.477504299999985
              ],
              [
                -82.0704555,
                33.477823
              ],
              [
                -82.06984690000002,
                33.4779305
              ],
              [
                -82.0697624,
                33.4776081
              ],
              [
                -82.0703666,
                33.477504299999985
              ]
            ]
          ],
          [
            [
              [
                -82.06999149999999,
                33.47793319999998
              ],
              [
                -82.07005569999998,
                33.4779223
              ],
              [
                -82.07008519999998,
                33.478043
              ],
              [
                -82.0700209,
                33.4780539
              ],
              [
                -82.06999149999999,
                33.47793319999998
              ]
            ]
          ],
          [
            [
              [
                -82.07031459999999,
                33.47791179999999
              ],
              [
                -82.070431,
                33.4778916
              ],
              [
                -82.07048359999999,
                33.478102399999976
              ],
              [
                -82.07036709999998,
                33.4781226
              ],
              [
                -82.07031459999999,
                33.47791179999999
              ]
            ]
          ],
          [
            [
              [
                -82.06982309999998,
                33.4779629
              ],
              [
                -82.0698874,
                33.477952
              ],
              [
                -82.0699169,
                33.4780726
              ],
              [
                -82.0698526,
                33.47808349999998
              ],
              [
                -82.06982309999998,
                33.4779629
              ]
            ]
          ],
          [
            [
              [
                -82.07019659999999,
                33.47815449999998
              ],
              [
                -82.07014409999998,
                33.477943699999976
              ],
              [
                -82.07026049999999,
                33.4779235
              ],
              [
                -82.0703131,
                33.4781343
              ],
              [
                -82.07019659999999,
                33.47815449999998
              ]
            ]
          ],
          [
            [
              [
                -82.07002979999999,
                33.478093500000014
              ],
              [
                -82.0700941,
                33.4780826
              ],
              [
                -82.0701236,
                33.47820320000001
              ],
              [
                -82.0700593,
                33.478214099999974
              ],
              [
                -82.07002979999999,
                33.478093500000014
              ]
            ]
          ],
          [
            [
              [
                -82.069567,
                33.4779916
              ],
              [
                -82.0696558,
                33.4783029
              ],
              [
                -82.0693226,
                33.4783622
              ],
              [
                -82.0692338,
                33.47805649999998
              ],
              [
                -82.069567,
                33.4779916
              ]
            ]
          ],
          [
            [
              [
                -82.0698935,
                33.47824459999999
              ],
              [
                -82.0698641,
                33.478124
              ],
              [
                -82.06992829999999,
                33.478113
              ],
              [
                -82.0699578,
                33.4782337
              ],
              [
                -82.0698935,
                33.47824459999999
              ]
            ]
          ],
          [
            [
              [
                -82.06927059999998,
                33.478352899999955
              ],
              [
                -82.06893189999998,
                33.4784182
              ],
              [
                -82.0688458,
                33.4781079
              ],
              [
                -82.0691846,
                33.4780425
              ],
              [
                -82.06927059999998,
                33.478352899999955
              ]
            ]
          ],
          [
            [
              [
                -82.0757467,
                33.484303899999986
              ],
              [
                -82.07543569999999,
                33.4835165
              ],
              [
                -82.0756578,
                33.4834832
              ],
              [
                -82.0761465,
                33.48345909999998
              ],
              [
                -82.0763398,
                33.483516499999986
              ],
              [
                -82.0768218,
                33.4838982
              ],
              [
                -82.0759222,
                33.484361299999975
              ],
              [
                -82.0757467,
                33.484303899999986
              ]
            ]
          ],
          [
            [
              [
                -82.07642060000002,
                33.4849778
              ],
              [
                -82.0761017,
                33.48455460000001
              ],
              [
                -82.0771525,
                33.48400380000001
              ],
              [
                -82.0774714,
                33.484427
              ],
              [
                -82.07642060000002,
                33.4849778
              ]
            ]
          ],
          [
            [
              [
                -82.0253882,
                33.46333369999998
              ],
              [
                -82.0250612,
                33.46323070000001
              ],
              [
                -82.0252011,
                33.4629109
              ],
              [
                -82.0255258,
                33.46302749999998
              ],
              [
                -82.0256833,
                33.4630768
              ],
              [
                -82.0255456,
                33.463382899999985
              ],
              [
                -82.0253882,
                33.46333369999998
              ]
            ]
          ],
          [
            [
              [
                -82.01154157409822,
                33.46390368769481
              ],
              [
                -82.01145440248138,
                33.46388243008155
              ],
              [
                -82.01132968128564,
                33.46379404523716
              ],
              [
                -82.01095685349325,
                33.463127240357565
              ],
              [
                -82.01094880728327,
                33.46301536067162
              ],
              [
                -82.01107487146035,
                33.463100389695796
              ],
              [
                -82.011718601498,
                33.46333086266421
              ],
              [
                -82.01190367241283,
                33.46344498117574
              ],
              [
                -82.0120887451243,
                33.46364636425781
              ],
              [
                -82.01216787142948,
                33.463839915588736
              ],
              [
                -82.01208606365317,
                33.46384550914854
              ],
              [
                -82.01154157409822,
                33.46390368769481
              ]
            ]
          ],
          [
            [
              [
                -82.0050067,
                33.4716387
              ],
              [
                -82.0046401,
                33.47163639999997
              ],
              [
                -82.00464309999998,
                33.47130649999998
              ],
              [
                -82.0050097,
                33.47130879999998
              ],
              [
                -82.0050067,
                33.4716387
              ]
            ]
          ],
          [
            [
              [
                -82.0107466,
                33.4730298
              ],
              [
                -82.0113573456481,
                33.473255979701975
              ],
              [
                -82.01141958557758,
                33.47327703848281
              ],
              [
                -82.01141876287383,
                33.47327872457106
              ],
              [
                -82.01145379999998,
                33.4732917
              ],
              [
                -82.011076,
                33.4740291
              ],
              [
                -82.01045331247715,
                33.47381263871747
              ],
              [
                -82.01037218319398,
                33.47379162590879
              ],
              [
                -82.01037531069966,
                33.47378552340814
              ],
              [
                -82.0103436,
                33.4737745
              ],
              [
                -82.0107466,
                33.4730298
              ]
            ]
          ],
          [
            [
              [
                -82.02578549999998,
                33.4634742
              ],
              [
                -82.0264453,
                33.4628947
              ],
              [
                -82.0265231,
                33.4628924
              ],
              [
                -82.0272312,
                33.4634608
              ],
              [
                -82.02710519999998,
                33.46355479999996
              ],
              [
                -82.0268879,
                33.463673399999976
              ],
              [
                -82.0266841,
                33.463722599999976
              ],
              [
                -82.02646139999999,
                33.46373830000002
              ],
              [
                -82.026263,
                33.46370469999999
              ],
              [
                -82.02600809999998,
                33.46361970000001
              ],
              [
                -82.02578549999998,
                33.4634742
              ]
            ]
          ],
          [
            [
              [
                -82.03645371194791,
                33.46295539642792
              ],
              [
                -82.03673190042848,
                33.463511771438384
              ],
              [
                -82.03624900925085,
                33.46375846495358
              ],
              [
                -82.03541444830078,
                33.46425185287531
              ],
              [
                -82.03527797893776,
                33.46414162782281
              ],
              [
                -82.03607054993653,
                33.46328082157679
              ],
              [
                -82.03555616562168,
                33.46288191272556
              ],
              [
                -82.03596557281243,
                33.46241476760529
              ],
              [
                -82.03647995622894,
                33.46244626186852
              ],
              [
                -82.0368736186477,
                33.46251449702645
              ],
              [
                -82.03645371194791,
                33.46295539642792
              ]
            ]
          ],
          [
            [
              [
                -82.03382063227448,
                33.469878841007585
              ],
              [
                -82.03362896772549,
                33.4698788410076
              ],
              [
                -82.03362896772549,
                33.469718958918655
              ],
              [
                -82.03382063227448,
                33.46971895891868
              ],
              [
                -82.03382063227448,
                33.469878841007585
              ]
            ]
          ],
          [
            [
              [
                -82.03524119999999,
                33.48542680000001
              ],
              [
                -82.03522779999999,
                33.48537870000001
              ],
              [
                -82.0352305,
                33.485278
              ],
              [
                -82.0352466,
                33.485270199999974
              ],
              [
                -82.03526669999998,
                33.4852646
              ],
              [
                -82.0356475,
                33.485287
              ],
              [
                -82.03606190000002,
                33.485344
              ],
              [
                -82.0363798,
                33.48542339999999
              ],
              [
                -82.0359547,
                33.48616950000001
              ],
              [
                -82.035724,
                33.4862232
              ],
              [
                -82.0354719,
                33.486251099999954
              ],
              [
                -82.03524119999999,
                33.48542680000001
              ]
            ]
          ],
          [
            [
              [
                -82.0421483,
                33.4889709
              ],
              [
                -82.042221,
                33.4889143
              ],
              [
                -82.04230819999998,
                33.4889922
              ],
              [
                -82.0422355,
                33.4890488
              ],
              [
                -82.0421483,
                33.4889709
              ]
            ]
          ],
          [
            [
              [
                -82.0423077,
                33.48920269999998
              ],
              [
                -82.04233829999998,
                33.48922869999998
              ],
              [
                -82.04220069999998,
                33.4893409
              ],
              [
                -82.0419824,
                33.489154599999985
              ],
              [
                -82.04212,
                33.4890424
              ],
              [
                -82.0423077,
                33.48920269999998
              ]
            ]
          ],
          [
            [
              [
                -82.0356925,
                33.489466299999975
              ],
              [
                -82.0356018,
                33.48940339999997
              ],
              [
                -82.03576669999998,
                33.48923810000003
              ],
              [
                -82.0358573,
                33.48930090000001
              ],
              [
                -82.0356925,
                33.489466299999975
              ]
            ]
          ],
          [
            [
              [
                -82.0358137,
                33.489553299999976
              ],
              [
                -82.035723,
                33.4894905
              ],
              [
                -82.03588790000002,
                33.489325100000016
              ],
              [
                -82.0359785,
                33.489388
              ],
              [
                -82.0358137,
                33.489553299999976
              ]
            ]
          ],
          [
            [
              [
                -82.01281535247803,
                33.48184631078939
              ],
              [
                -82.01281535237914,
                33.48184631078939
              ],
              [
                -82.01284350000002,
                33.481782
              ],
              [
                -82.01305485240594,
                33.48184631078939
              ],
              [
                -82.01305485193888,
                33.48184631078939
              ],
              [
                -82.0131751,
                33.4818829
              ],
              [
                -82.01303929999999,
                33.4821934
              ],
              [
                -82.01270759999998,
                33.4820925
              ],
              [
                -82.01281535247803,
                33.48184631078939
              ]
            ]
          ],
          [
            [
              [
                -82.02306793117063,
                33.48218589430043
              ],
              [
                -82.02277288760041,
                33.48215904879425
              ],
              [
                -82.02277288849871,
                33.48193981143088
              ],
              [
                -82.02408716957343,
                33.48203824466255
              ],
              [
                -82.02401743245962,
                33.48267805869161
              ],
              [
                -82.02306793117063,
                33.48259304812666
              ],
              [
                -82.02271924290656,
                33.482566203495885
              ],
              [
                -82.02271924290656,
                33.48245882189256
              ],
              [
                -82.0230679302723,
                33.482472244600274
              ],
              [
                -82.02306793117063,
                33.48218589430043
              ]
            ]
          ],
          [
            [
              [
                -82.0061335,
                33.48912510000001
              ],
              [
                -82.00631619999999,
                33.488829399999986
              ],
              [
                -82.00673249999997,
                33.4890018
              ],
              [
                -82.00655209999996,
                33.4893044
              ],
              [
                -82.0061335,
                33.48912510000001
              ]
            ]
          ],
          [
            [
              [
                -82.01577812150461,
                33.49736538219238
              ],
              [
                -82.01581034838819,
                33.49737183808706
              ],
              [
                -82.01627640000001,
                33.49745510000001
              ],
              [
                -82.01609059999998,
                33.4981662
              ],
              [
                -82.015563,
                33.49807469999999
              ],
              [
                -82.01575639999999,
                33.49736220000002
              ],
              [
                -82.01577793176641,
                33.49736604673291
              ],
              [
                -82.01577812150461,
                33.49736538219238
              ]
            ]
          ],
          [
            [
              [
                -81.9971293,
                33.4874769
              ],
              [
                -81.9973058,
                33.487768899999985
              ],
              [
                -81.9971651,
                33.487828
              ],
              [
                -81.99698859999998,
                33.487536
              ],
              [
                -81.9971293,
                33.4874769
              ]
            ]
          ],
          [
            [
              [
                -82.0014719,
                33.4901536
              ],
              [
                -82.0009652,
                33.49112969999998
              ],
              [
                -82.0003038,
                33.4908909
              ],
              [
                -82.0008103,
                33.48991479999998
              ],
              [
                -82.0014719,
                33.4901536
              ]
            ]
          ],
          [
            [
              [
                -81.99955187229048,
                33.49528791630138
              ],
              [
                -81.9992940468208,
                33.495077836636426
              ],
              [
                -81.99884046587428,
                33.494800912458516
              ],
              [
                -81.99991951231209,
                33.49321099164109
              ],
              [
                -82.00001500412512,
                33.493602502376945
              ],
              [
                -82.00052110417641,
                33.49409905555024
              ],
              [
                -82.00090784238095,
                33.4942279695556
              ],
              [
                -82.0010701751393,
                33.49419932085008
              ],
              [
                -82.00141871787629,
                33.49456696028851
              ],
              [
                -82.00241182159256,
                33.49511125853755
              ],
              [
                -82.00196301519176,
                33.49545502527253
              ],
              [
                -82.00138052151041,
                33.49566032981738
              ],
              [
                -82.00090784238095,
                33.49571762400463
              ],
              [
                -82.00032057415385,
                33.495646007201046
              ],
              [
                -81.99990996232232,
                33.49551231884653
              ],
              [
                -81.99955187229048,
                33.49528791630138
              ]
            ]
          ],
          [
            [
              [
                -81.9967938,
                33.49810109999996
              ],
              [
                -81.99654489999999,
                33.4972995
              ],
              [
                -81.99634939999999,
                33.4967954
              ],
              [
                -81.9962617,
                33.49656939999997
              ],
              [
                -81.9960025,
                33.495999
              ],
              [
                -81.9959527,
                33.4958894
              ],
              [
                -81.9968672,
                33.49581889999999
              ],
              [
                -81.9973631,
                33.4960258
              ],
              [
                -81.99751759999998,
                33.49644809999999
              ],
              [
                -81.99751759999998,
                33.4967702
              ],
              [
                -81.9975121,
                33.49729
              ],
              [
                -81.9974907,
                33.4977072
              ],
              [
                -81.9974833,
                33.4980965
              ],
              [
                -81.997482,
                33.49845919999998
              ],
              [
                -81.9971457,
                33.498129800000015
              ],
              [
                -81.99694829999999,
                33.4981298
              ],
              [
                -81.9967938,
                33.49810109999996
              ]
            ]
          ],
          [
            [
              [
                -82.0403773,
                33.49010759999999
              ],
              [
                -82.04048969999998,
                33.4899307
              ],
              [
                -82.0407374,
                33.4896858
              ],
              [
                -82.0412946,
                33.4900778
              ],
              [
                -82.0413406,
                33.4901694
              ],
              [
                -82.0413431,
                33.4902504
              ],
              [
                -82.04127159999999,
                33.4903441
              ],
              [
                -82.04076560000001,
                33.490668
              ],
              [
                -82.04054849999999,
                33.4905444
              ],
              [
                -82.0404284,
                33.49036539999998
              ],
              [
                -82.0403773,
                33.49010759999999
              ]
            ]
          ],
          [
            [
              [
                -82.04190289999998,
                33.4907626
              ],
              [
                -82.0420487,
                33.49058509999998
              ],
              [
                -82.0421459,
                33.49064069999998
              ],
              [
                -82.0420002,
                33.4908181
              ],
              [
                -82.04190289999998,
                33.4907626
              ]
            ]
          ],
          [
            [
              [
                -82.0421273,
                33.49089009999999
              ],
              [
                -82.0420301,
                33.4908346
              ],
              [
                -82.0421759,
                33.4906571
              ],
              [
                -82.0422731,
                33.49071259999999
              ],
              [
                -82.0421273,
                33.49089009999999
              ]
            ]
          ],
          [
            [
              [
                -82.0421561,
                33.4909132
              ],
              [
                -82.0423019,
                33.4907357
              ],
              [
                -82.0423991,
                33.4907913
              ],
              [
                -82.0422534,
                33.49096870000002
              ],
              [
                -82.0421561,
                33.4909132
              ]
            ]
          ],
          [
            [
              [
                -82.04227459999998,
                33.491087599999986
              ],
              [
                -82.0416784,
                33.49184180000001
              ],
              [
                -82.04080649999999,
                33.4912519
              ],
              [
                -82.0408193,
                33.4912072
              ],
              [
                -82.0409425,
                33.491072
              ],
              [
                -82.0411167,
                33.4909434
              ],
              [
                -82.0413061,
                33.4908759
              ],
              [
                -82.0414836,
                33.490821499999974
              ],
              [
                -82.04172259999999,
                33.4908108
              ],
              [
                -82.0419564,
                33.49088969999998
              ],
              [
                -82.04227459999998,
                33.491087599999986
              ]
            ]
          ],
          [
            [
              [
                -82.0431178,
                33.4914037
              ],
              [
                -82.0424118,
                33.49226659999997
              ],
              [
                -82.0417684,
                33.49190059999998
              ],
              [
                -82.04247419999999,
                33.491037599999984
              ],
              [
                -82.0431178,
                33.4914037
              ]
            ]
          ],
          [
            [
              [
                -82.04187039999998,
                33.5077488
              ],
              [
                -82.04185929999998,
                33.5074453
              ],
              [
                -82.0420661,
                33.5074401
              ],
              [
                -82.0420773,
                33.5077435
              ],
              [
                -82.04187039999998,
                33.5077488
              ]
            ]
          ],
          [
            [
              [
                -82.03869609495081,
                33.51294129881085
              ],
              [
                -82.0386689,
                33.5130829
              ],
              [
                -82.03853886772549,
                33.513065505097714
              ],
              [
                -82.03853886772549,
                33.51294129881086
              ],
              [
                -82.03869609494731,
                33.512941298810844
              ],
              [
                -82.03869609495081,
                33.51294129881085
              ]
            ]
          ],
          [
            [
              [
                -82.00492799551685,
                33.50223862354696
              ],
              [
                -82.00497510945856,
                33.50223862429604
              ],
              [
                -82.0052946572731,
                33.50233489810156
              ],
              [
                -82.00552202895636,
                33.50239020358058
              ],
              [
                -82.00581904522696,
                33.502496720760995
              ],
              [
                -82.00609967443015,
                33.50262167166825
              ],
              [
                -82.006105819805,
                33.50318702717531
              ],
              [
                -82.00500993175223,
                33.503092801513894
              ],
              [
                -82.0049218510403,
                33.50227139773199
              ],
              [
                -82.00492799551685,
                33.50223862354696
              ]
            ]
          ],
          [
            [
              [
                -82.0173079,
                33.5055767
              ],
              [
                -82.017307,
                33.50542079999999
              ],
              [
                -82.0175539,
                33.50555669999997
              ],
              [
                -82.0175935,
                33.5056043
              ],
              [
                -82.0176027,
                33.5056543
              ],
              [
                -82.01760910000002,
                33.50568040000001
              ],
              [
                -82.0176571,
                33.5057421
              ],
              [
                -82.0177551,
                33.505809399999976
              ],
              [
                -82.0178728,
                33.50586389999999
              ],
              [
                -82.0179098,
                33.505929299999984
              ],
              [
                -82.01790979999998,
                33.5059838
              ],
              [
                -82.0178118,
                33.5060764
              ],
              [
                -82.0177174,
                33.5061265
              ],
              [
                -82.01762509999999,
                33.506136699999985
              ],
              [
                -82.0175428,
                33.5061235
              ],
              [
                -82.01747930000002,
                33.5060936
              ],
              [
                -82.01740929999998,
                33.5060298
              ],
              [
                -82.01734479999999,
                33.50591159999997
              ],
              [
                -82.01733369999998,
                33.5057603
              ],
              [
                -82.0173347,
                33.50570649999998
              ],
              [
                -82.0173079,
                33.5055767
              ]
            ]
          ],
          [
            [
              [
                -82.02369129999998,
                33.5060206
              ],
              [
                -82.0237343,
                33.50601889999998
              ],
              [
                -82.0238202,
                33.5060394
              ],
              [
                -82.0239369,
                33.5060394
              ],
              [
                -82.0240044,
                33.506039399999985
              ],
              [
                -82.0240986,
                33.5060684
              ],
              [
                -82.0241661,
                33.5061025
              ],
              [
                -82.02431759999999,
                33.5062561
              ],
              [
                -82.0244752,
                33.50645069999999
              ],
              [
                -82.02451,
                33.5065446
              ],
              [
                -82.0245203,
                33.50664869999998
              ],
              [
                -82.02448949999999,
                33.50669479999996
              ],
              [
                -82.0244445,
                33.506705
              ],
              [
                -82.024334,
                33.506664
              ],
              [
                -82.0239451,
                33.5064763
              ],
              [
                -82.0236483,
                33.5063688
              ],
              [
                -82.0234927,
                33.506261199999976
              ],
              [
                -82.0234497,
                33.50622029999999
              ],
              [
                -82.0234497,
                33.50617759999998
              ],
              [
                -82.02369129999998,
                33.5060206
              ]
            ]
          ],
          [
            [
              [
                -82.0241295,
                33.51555480000002
              ],
              [
                -82.02412849999999,
                33.5156543
              ],
              [
                -82.0238749,
                33.5156526
              ],
              [
                -82.0238759,
                33.515553
              ],
              [
                -82.0241295,
                33.51555480000002
              ]
            ]
          ],
          [
            [
              [
                -82.0454434,
                33.51735949999998
              ],
              [
                -82.0453307,
                33.5173935
              ],
              [
                -82.0452422,
                33.51718989999998
              ],
              [
                -82.0453549,
                33.51715590000002
              ],
              [
                -82.0454434,
                33.51735949999998
              ]
            ]
          ],
          [
            [
              [
                -82.04531289999998,
                33.51740409999998
              ],
              [
                -82.0451579,
                33.5174508
              ],
              [
                -82.0450648,
                33.51723629999998
              ],
              [
                -82.0452199,
                33.5171896
              ],
              [
                -82.04531289999998,
                33.51740409999998
              ]
            ]
          ],
          [
            [
              [
                -82.03439219999998,
                33.518576099999976
              ],
              [
                -82.0342416,
                33.51846279999999
              ],
              [
                -82.03450789999998,
                33.518217
              ],
              [
                -82.03465849999998,
                33.51833029999998
              ],
              [
                -82.03439219999998,
                33.518576099999976
              ]
            ]
          ],
          [
            [
              [
                -82.0418793,
                33.5188893
              ],
              [
                -82.04200410000001,
                33.51884549999998
              ],
              [
                -82.0421026,
                33.5190408
              ],
              [
                -82.0419778,
                33.51908459999998
              ],
              [
                -82.0418793,
                33.5188893
              ]
            ]
          ],
          [
            [
              [
                -82.02387320000001,
                33.5156854
              ],
              [
                -82.02412680000002,
                33.5156872
              ],
              [
                -82.02412579999998,
                33.5157867
              ],
              [
                -82.02387219999999,
                33.515785
              ],
              [
                -82.02387320000001,
                33.5156854
              ]
            ]
          ],
          [
            [
              [
                -82.0236365,
                33.5156858
              ],
              [
                -82.02377920000002,
                33.51568229999997
              ],
              [
                -82.0237837,
                33.51580929999998
              ],
              [
                -82.023641,
                33.5158129
              ],
              [
                -82.0236365,
                33.5156858
              ]
            ]
          ],
          [
            [
              [
                -82.0111593,
                33.5241489
              ],
              [
                -82.0112116,
                33.52395059999998
              ],
              [
                -82.0110252,
                33.52289
              ],
              [
                -82.0111059,
                33.522685
              ],
              [
                -82.0111571,
                33.5225075
              ],
              [
                -82.011024,
                33.5224049
              ],
              [
                -82.0112255,
                33.5223614
              ],
              [
                -82.0114297,
                33.5225119
              ],
              [
                -82.011598,
                33.5227168
              ],
              [
                -82.011819,
                33.5233875
              ],
              [
                -82.0118417,
                33.52389079999998
              ],
              [
                -82.01159069999999,
                33.5239011
              ],
              [
                -82.0111593,
                33.5241489
              ]
            ]
          ],
          [
            [
              [
                -82.01472309999998,
                33.52610449999999
              ],
              [
                -82.0146009,
                33.526055700000015
              ],
              [
                -82.01444509999999,
                33.52599340000002
              ],
              [
                -82.0142191,
                33.525903
              ],
              [
                -82.0143478,
                33.525687599999976
              ],
              [
                -82.01532669999999,
                33.5246484
              ],
              [
                -82.01544607575907,
                33.524735324200925
              ],
              [
                -82.01544607575907,
                33.52473532409641
              ],
              [
                -82.0155224,
                33.524790899999985
              ],
              [
                -82.0157619,
                33.52499989999998
              ],
              [
                -82.0159564,
                33.52522440000001
              ],
              [
                -82.01634439104316,
                33.52561471541348
              ],
              [
                -82.01634439104316,
                33.525614715733816
              ],
              [
                -82.0163904,
                33.525661
              ],
              [
                -82.016944,
                33.5262161
              ],
              [
                -82.01715049999999,
                33.5264664
              ],
              [
                -82.01678139999999,
                33.5267955
              ],
              [
                -82.0165497,
                33.52673830000003
              ],
              [
                -82.01626530000001,
                33.52663779999999
              ],
              [
                -82.0157671,
                33.52646189999999
              ],
              [
                -82.0152551,
                33.526281
              ],
              [
                -82.0148377,
                33.52615039999998
              ],
              [
                -82.01472309999998,
                33.52610449999999
              ]
            ]
          ],
          [
            [
              [
                -82.0419542,
                33.5190882
              ],
              [
                -82.0418293,
                33.519132
              ],
              [
                -82.0417308,
                33.5189367
              ],
              [
                -82.0418556,
                33.51889289999998
              ],
              [
                -82.0419542,
                33.5190882
              ]
            ]
          ],
          [
            [
              [
                -82.0413059,
                33.5219171
              ],
              [
                -82.0414978,
                33.52190849999998
              ],
              [
                -82.0415194,
                33.5222413
              ],
              [
                -82.0413275,
                33.52225
              ],
              [
                -82.0413059,
                33.5219171
              ]
            ]
          ],
          [
            [
              [
                -82.0285412,
                33.52596459999998
              ],
              [
                -82.0282361,
                33.5258596
              ],
              [
                -82.0283299,
                33.5256703
              ],
              [
                -82.028635,
                33.5257753
              ],
              [
                -82.0285412,
                33.52596459999998
              ]
            ]
          ],
          [
            [
              [
                -82.0283106,
                33.5267728
              ],
              [
                -82.0282815,
                33.526784
              ],
              [
                -82.02825009999998,
                33.52682249999998
              ],
              [
                -82.028227,
                33.5268374
              ],
              [
                -82.02818919999999,
                33.5268406
              ],
              [
                -82.0281073,
                33.5268201
              ],
              [
                -82.02807460000001,
                33.526913899999975
              ],
              [
                -82.0280328,
                33.5270694
              ],
              [
                -82.02798339999998,
                33.5272441
              ],
              [
                -82.02788259999998,
                33.5273369
              ],
              [
                -82.02770649999998,
                33.52754239999999
              ],
              [
                -82.0275415,
                33.527723
              ],
              [
                -82.0272036,
                33.5277449
              ],
              [
                -82.02706649999999,
                33.5276393
              ],
              [
                -82.0269428,
                33.5275078
              ],
              [
                -82.0269404,
                33.527329600000016
              ],
              [
                -82.0279865,
                33.525698599999984
              ],
              [
                -82.02824909999998,
                33.52578139999997
              ],
              [
                -82.0280933,
                33.5261245
              ],
              [
                -82.02833969999999,
                33.5262147
              ],
              [
                -82.0286462,
                33.5261897
              ],
              [
                -82.0291124,
                33.5263502
              ],
              [
                -82.0287156,
                33.526972599999986
              ],
              [
                -82.0284493,
                33.526818899999974
              ],
              [
                -82.0283106,
                33.5267728
              ]
            ]
          ],
          [
            [
              [
                -82.0576467,
                33.4713431
              ],
              [
                -82.057827,
                33.471469099999986
              ],
              [
                -82.057949,
                33.4716777
              ],
              [
                -82.05735029999998,
                33.4719443
              ],
              [
                -82.0572108,
                33.471910399999985
              ],
              [
                -82.0569492,
                33.47136729999998
              ],
              [
                -82.05712359999998,
                33.47129459999997
              ],
              [
                -82.05736189999999,
                33.4712849
              ],
              [
                -82.0576467,
                33.4713431
              ]
            ]
          ],
          [
            [
              [
                -82.0567082,
                33.4716497
              ],
              [
                -82.0569023,
                33.47167789999999
              ],
              [
                -82.05735980000001,
                33.47228059999998
              ],
              [
                -82.05621429999998,
                33.4728964
              ],
              [
                -82.0556171,
                33.4723403
              ],
              [
                -82.0567082,
                33.4716497
              ]
            ]
          ],
          [
            [
              [
                -82.05753629999998,
                33.4723323
              ],
              [
                -82.0576577,
                33.4723373
              ],
              [
                -82.0581583,
                33.47319049999999
              ],
              [
                -82.05753049999998,
                33.47353479999999
              ],
              [
                -82.0572224,
                33.473496
              ],
              [
                -82.0570189,
                33.473399
              ],
              [
                -82.0566469,
                33.47290439999998
              ],
              [
                -82.05753629999998,
                33.4723323
              ]
            ]
          ],
          [
            [
              [
                -82.049966,
                33.498747
              ],
              [
                -82.0500853,
                33.4989369
              ],
              [
                -82.04998019999998,
                33.4989829
              ],
              [
                -82.0498607,
                33.4987931
              ],
              [
                -82.049966,
                33.498747
              ]
            ]
          ],
          [
            [
              [
                -82.07569113227449,
                33.49020747208136
              ],
              [
                -82.07559618228814,
                33.49025702220509
              ],
              [
                -82.07554291515251,
                33.490257022205085
              ],
              [
                -82.07549946772549,
                33.49019909808025
              ],
              [
                -82.07549946772549,
                33.49009717772113
              ],
              [
                -82.07568405819971,
                33.49009717772114
              ],
              [
                -82.07569113227449,
                33.49010660981075
              ],
              [
                -82.07569113227449,
                33.49020747208136
              ]
            ]
          ],
          [
            [
              [
                -82.08318839999998,
                33.49623660000001
              ],
              [
                -82.0831449,
                33.49657789999998
              ],
              [
                -82.0827909,
                33.49654650000002
              ],
              [
                -82.0828344,
                33.496205199999984
              ],
              [
                -82.08318839999998,
                33.49623660000001
              ]
            ]
          ],
          [
            [
              [
                -82.0691049,
                33.5063757
              ],
              [
                -82.0690057,
                33.5063041
              ],
              [
                -82.0688957,
                33.5062393
              ],
              [
                -82.0688045,
                33.50619009999998
              ],
              [
                -82.0687804,
                33.5061766
              ],
              [
                -82.0692042,
                33.5054319
              ],
              [
                -82.069636,
                33.50560189999998
              ],
              [
                -82.0699713,
                33.5058367
              ],
              [
                -82.070151,
                33.5059754
              ],
              [
                -82.07029319999998,
                33.5061006
              ],
              [
                -82.06942950000001,
                33.50664409999999
              ],
              [
                -82.06935169999998,
                33.5065747
              ],
              [
                -82.069231,
                33.5064719
              ],
              [
                -82.0691049,
                33.5063757
              ]
            ]
          ],
          [
            [
              [
                -82.0665497,
                33.5133971
              ],
              [
                -82.0660162,
                33.51328929999998
              ],
              [
                -82.0661095,
                33.5129759
              ],
              [
                -82.066647,
                33.5130826
              ],
              [
                -82.0665497,
                33.5133971
              ]
            ]
          ],
          [
            [
              [
                -82.04902739999999,
                33.49884070000002
              ],
              [
                -82.04934069999999,
                33.4987019
              ],
              [
                -82.04953229999998,
                33.4990027
              ],
              [
                -82.04921909999999,
                33.499141500000015
              ],
              [
                -82.04902739999999,
                33.49884070000002
              ]
            ]
          ],
          [
            [
              [
                -82.04982409999998,
                33.4988072
              ],
              [
                -82.0499435,
                33.498997
              ],
              [
                -82.0498383,
                33.499043
              ],
              [
                -82.0497189,
                33.4988533
              ],
              [
                -82.04982409999998,
                33.4988072
              ]
            ]
          ],
          [
            [
              [
                -82.0548926,
                33.5019017
              ],
              [
                -82.05503,
                33.50197319999999
              ],
              [
                -82.0551673,
                33.50208769999998
              ],
              [
                -82.055236,
                33.50219510000003
              ],
              [
                -82.055339,
                33.5023382
              ],
              [
                -82.0544291,
                33.502631700000016
              ],
              [
                -82.05404289999998,
                33.501880199999974
              ],
              [
                -82.0542747,
                33.5018229
              ],
              [
                -82.0544892,
                33.501801499999985
              ],
              [
                -82.0546094,
                33.50182289999998
              ],
              [
                -82.0547553,
                33.501858699999985
              ],
              [
                -82.0548926,
                33.5019017
              ]
            ]
          ],
          [
            [
              [
                -82.05786010000001,
                33.5067112
              ],
              [
                -82.0577575,
                33.506722099999976
              ],
              [
                -82.05756239999998,
                33.5067052
              ],
              [
                -82.05742009999999,
                33.5066475
              ],
              [
                -82.0572372,
                33.50657289999999
              ],
              [
                -82.0570786,
                33.50649160000002
              ],
              [
                -82.05703230353392,
                33.50644509958474
              ],
              [
                -82.05690496701365,
                33.5064857348249
              ],
              [
                -82.05694251659253,
                33.506150260313454
              ],
              [
                -82.05696028986604,
                33.50615113225691
              ],
              [
                -82.0571406,
                33.5046979
              ],
              [
                -82.05718989999998,
                33.5046627
              ],
              [
                -82.05730219999998,
                33.504644099999965
              ],
              [
                -82.0577248,
                33.504576
              ],
              [
                -82.05850409999998,
                33.50464450000001
              ],
              [
                -82.0598385,
                33.5047617
              ],
              [
                -82.05996279999998,
                33.50478269999998
              ],
              [
                -82.06007310000001,
                33.504815500000014
              ],
              [
                -82.06008939999998,
                33.50483579999999
              ],
              [
                -82.060087,
                33.504861
              ],
              [
                -82.0600423,
                33.5049085
              ],
              [
                -82.05792569999998,
                33.5066747
              ],
              [
                -82.05786010000001,
                33.5067112
              ]
            ]
          ],
          [
            [
              [
                -82.0604708,
                33.5055161
              ],
              [
                -82.0606408,
                33.50544029999999
              ],
              [
                -82.06082269999999,
                33.50540070000002
              ],
              [
                -82.0610501,
                33.505405699999976
              ],
              [
                -82.06119049999998,
                33.50546169999998
              ],
              [
                -82.0613071,
                33.5055145
              ],
              [
                -82.0613724,
                33.505575499999985
              ],
              [
                -82.06089189999999,
                33.5060107
              ],
              [
                -82.0603541,
                33.50562159999998
              ],
              [
                -82.0604708,
                33.5055161
              ]
            ]
          ],
          [
            [
              [
                -82.0606527,
                33.506103299999985
              ],
              [
                -82.0605329,
                33.50619449999998
              ],
              [
                -82.06034920000002,
                33.506026599999984
              ],
              [
                -82.060469,
                33.5059354
              ],
              [
                -82.0606527,
                33.506103299999985
              ]
            ]
          ],
          [
            [
              [
                -82.0609812,
                33.5133739
              ],
              [
                -82.0608551,
                33.51387039999997
              ],
              [
                -82.06039649999998,
                33.51379879999998
              ],
              [
                -82.0604222712505,
                33.51358237285685
              ],
              [
                -82.06042227098997,
                33.51358237285686
              ],
              [
                -82.0605102811574,
                33.51284325550694
              ],
              [
                -82.06051145530348,
                33.512833394793034
              ],
              [
                -82.06051145530695,
                33.51283339479304
              ],
              [
                -82.06051179999999,
                33.5128305
              ],
              [
                -82.06061909999998,
                33.512805899999954
              ],
              [
                -82.0608525,
                33.5127522
              ],
              [
                -82.06107509999998,
                33.51265609999999
              ],
              [
                -82.0613487,
                33.5125197
              ],
              [
                -82.06161959999999,
                33.512383300000025
              ],
              [
                -82.0616973,
                33.5125018
              ],
              [
                -82.06173219999997,
                33.5126225
              ],
              [
                -82.0617054,
                33.5128216
              ],
              [
                -82.06160620000001,
                33.513465599999975
              ],
              [
                -82.0609812,
                33.5133739
              ]
            ]
          ],
          [
            [
              [
                -82.0627481,
                33.51658040000002
              ],
              [
                -82.0626437,
                33.51641660000002
              ],
              [
                -82.06262239999998,
                33.5162292
              ],
              [
                -82.0631834,
                33.5162484
              ],
              [
                -82.0631639,
                33.516710199999984
              ],
              [
                -82.0629533,
                33.516691
              ],
              [
                -82.0627481,
                33.51658040000002
              ]
            ]
          ],
          [
            [
              [
                -82.0625835,
                33.51641369999999
              ],
              [
                -82.0626437,
                33.5165184
              ],
              [
                -82.0626507,
                33.516617299999986
              ],
              [
                -82.06236049999998,
                33.51661429999997
              ],
              [
                -82.0623428,
                33.51636349999997
              ],
              [
                -82.06248789999998,
                33.516367899999985
              ],
              [
                -82.0625835,
                33.51641369999999
              ]
            ]
          ],
          [
            [
              [
                -82.06294629999998,
                33.51679869999998
              ],
              [
                -82.0630701,
                33.5167677
              ],
              [
                -82.06316949999999,
                33.51677090000001
              ],
              [
                -82.0631366,
                33.5170185
              ],
              [
                -82.0628504,
                33.5169768
              ],
              [
                -82.0628684,
                33.5168917
              ],
              [
                -82.06294629999998,
                33.51679869999998
              ]
            ]
          ],
          [
            [
              [
                -82.0501505,
                33.5188684
              ],
              [
                -82.0497823,
                33.51877079999998
              ],
              [
                -82.05014859999999,
                33.518224
              ],
              [
                -82.05078719999999,
                33.5185678
              ],
              [
                -82.0506491,
                33.5187069
              ],
              [
                -82.05050919999998,
                33.518806
              ],
              [
                -82.0501505,
                33.5188684
              ]
            ]
          ],
          [
            [
              [
                -82.0462617,
                33.5195458
              ],
              [
                -82.04596259999998,
                33.51939629999998
              ],
              [
                -82.0461414,
                33.51906979999998
              ],
              [
                -82.0462927,
                33.518857900000015
              ],
              [
                -82.0464235,
                33.51867409999997
              ],
              [
                -82.0465606,
                33.51856789999999
              ],
              [
                -82.0467219,
                33.5186379
              ],
              [
                -82.0469568,
                33.518780199999966
              ],
              [
                -82.0473898,
                33.51915239999997
              ],
              [
                -82.0473049,
                33.519285199999985
              ],
              [
                -82.04709779999999,
                33.51945209999998
              ],
              [
                -82.046939,
                33.51951970000001
              ],
              [
                -82.0467145,
                33.5195827
              ],
              [
                -82.04648160000002,
                33.519583
              ],
              [
                -82.0462617,
                33.5195458
              ]
            ]
          ],
          [
            [
              [
                -82.04774559999998,
                33.5193312
              ],
              [
                -82.0476283,
                33.5193264
              ],
              [
                -82.04764079999998,
                33.519115100000015
              ],
              [
                -82.0477581,
                33.51911989999998
              ],
              [
                -82.04774559999998,
                33.5193312
              ]
            ]
          ],
          [
            [
              [
                -82.0479228,
                33.51933689999996
              ],
              [
                -82.0478054,
                33.51933209999997
              ],
              [
                -82.04781789999998,
                33.5191207
              ],
              [
                -82.04793519999998,
                33.51912549999999
              ],
              [
                -82.0479228,
                33.51933689999996
              ]
            ]
          ],
          [
            [
              [
                -82.0481114,
                33.51913349999998
              ],
              [
                -82.0480989,
                33.5193449
              ],
              [
                -82.04798159999999,
                33.5193401
              ],
              [
                -82.0479941,
                33.5191287
              ],
              [
                -82.0481114,
                33.51913349999998
              ]
            ]
          ],
          [
            [
              [
                -82.05385592146634,
                33.52022570908425
              ],
              [
                -82.05385592146634,
                33.52022571343854
              ],
              [
                -82.054615,
                33.51992989999998
              ],
              [
                -82.05464119360158,
                33.519960276530284
              ],
              [
                -82.05467083893573,
                33.51994867617891
              ],
              [
                -82.05493245669878,
                33.520298052237166
              ],
              [
                -82.0554873,
                33.5209415
              ],
              [
                -82.05515564900666,
                33.52114291030962
              ],
              [
                -82.05431484467347,
                33.521690158338075
              ],
              [
                -82.05429508547364,
                33.521665527069786
              ],
              [
                -82.054251,
                33.5216923
              ],
              [
                -82.05389021067407,
                33.52129586642739
              ],
              [
                -82.05348633285517,
                33.52153496119367
              ],
              [
                -82.0532895,
                33.52166229999998
              ],
              [
                -82.0525267,
                33.5207437
              ],
              [
                -82.05295760618219,
                33.52057578050122
              ],
              [
                -82.05295760618219,
                33.520575778029446
              ],
              [
                -82.05328289716323,
                33.52044901653827
              ],
              [
                -82.05385592146634,
                33.52022570908425
              ]
            ]
          ],
          [
            [
              [
                -82.0937698,
                33.4754546
              ],
              [
                -82.09366239999999,
                33.4754843
              ],
              [
                -82.0935793,
                33.475275
              ],
              [
                -82.0936866,
                33.4752453
              ],
              [
                -82.0937698,
                33.4754546
              ]
            ]
          ],
          [
            [
              [
                -82.1098145,
                33.477004199999975
              ],
              [
                -82.11034640000001,
                33.4766906
              ],
              [
                -82.1110636,
                33.477536899999976
              ],
              [
                -82.1105317,
                33.4778505
              ],
              [
                -82.1098145,
                33.477004199999975
              ]
            ]
          ],
          [
            [
              [
                -82.0831132,
                33.48079379999999
              ],
              [
                -82.0830602,
                33.480826299999954
              ],
              [
                -82.0829961,
                33.48075340000001
              ],
              [
                -82.08297389999998,
                33.48072819999999
              ],
              [
                -82.083027,
                33.4806957
              ],
              [
                -82.0830904,
                33.480767799999974
              ],
              [
                -82.0831132,
                33.48079379999999
              ]
            ]
          ],
          [
            [
              [
                -82.0853453,
                33.4863411
              ],
              [
                -82.08550359999998,
                33.4863165
              ],
              [
                -82.0855652,
                33.486529
              ],
              [
                -82.0854097,
                33.48654239999997
              ],
              [
                -82.0853453,
                33.4863411
              ]
            ]
          ],
          [
            [
              [
                -82.08953329999999,
                33.4891836
              ],
              [
                -82.08963749999998,
                33.4888614
              ],
              [
                -82.0897292,
                33.4888405
              ],
              [
                -82.089846,
                33.48918229999998
              ],
              [
                -82.0897143,
                33.48922819999998
              ],
              [
                -82.08980859999998,
                33.489356299999955
              ],
              [
                -82.0901057,
                33.4897664
              ],
              [
                -82.0901194,
                33.4900232
              ],
              [
                -82.0883507,
                33.4904575
              ],
              [
                -82.08831369999999,
                33.49031819999997
              ],
              [
                -82.089017,
                33.49010459999999
              ],
              [
                -82.0895112,
                33.489959
              ],
              [
                -82.0894199,
                33.489716499999986
              ],
              [
                -82.0894426,
                33.4896938
              ],
              [
                -82.0894827,
                33.4896537
              ],
              [
                -82.0894743,
                33.48941630000002
              ],
              [
                -82.08950919999998,
                33.489258499999984
              ],
              [
                -82.08953329999999,
                33.4891836
              ]
            ]
          ],
          [
            [
              [
                -82.08707569999999,
                33.490869
              ],
              [
                -82.0869023,
                33.49093269999998
              ],
              [
                -82.08674609999998,
                33.49063680000002
              ],
              [
                -82.08691959999999,
                33.4905731
              ],
              [
                -82.08707569999999,
                33.490869
              ]
            ]
          ],
          [
            [
              [
                -82.0838645,
                33.4972286
              ],
              [
                -82.0838399,
                33.4973151
              ],
              [
                -82.0836207,
                33.4972719
              ],
              [
                -82.0837147,
                33.49694039999997
              ],
              [
                -82.08412,
                33.4970203
              ],
              [
                -82.08405060000001,
                33.4972652
              ],
              [
                -82.0838645,
                33.4972286
              ]
            ]
          ],
          [
            [
              [
                -82.08571246772549,
                33.503065889692316
              ],
              [
                -82.08585194234927,
                33.50306588969231
              ],
              [
                -82.0858957,
                33.503172
              ],
              [
                -82.0858517,
                33.5031847
              ],
              [
                -82.08586864810512,
                33.5032257102339
              ],
              [
                -82.08571246772549,
                33.50322571023392
              ],
              [
                -82.08571246772549,
                33.503065889692316
              ]
            ]
          ],
          [
            [
              [
                -82.16329869999998,
                33.423058
              ],
              [
                -82.16335239999998,
                33.423034
              ],
              [
                -82.1634067,
                33.423025
              ],
              [
                -82.1648249,
                33.423048
              ],
              [
                -82.1648765,
                33.4230619
              ],
              [
                -82.16492009999999,
                33.423091
              ],
              [
                -82.164949,
                33.4231246
              ],
              [
                -82.1649598,
                33.42317110000001
              ],
              [
                -82.1649117,
                33.4254975
              ],
              [
                -82.1649062,
                33.42555009999999
              ],
              [
                -82.1648773,
                33.425593399999975
              ],
              [
                -82.1648356,
                33.42561769999999
              ],
              [
                -82.1647746,
                33.4256314
              ],
              [
                -82.16337989999998,
                33.4256136
              ],
              [
                -82.1633168,
                33.425596
              ],
              [
                -82.1632619,
                33.4255662
              ],
              [
                -82.1632256,
                33.4255155
              ],
              [
                -82.1632043,
                33.4254481
              ],
              [
                -82.1632599,
                33.4231421
              ],
              [
                -82.1632692,
                33.423095
              ],
              [
                -82.16329869999998,
                33.423058
              ]
            ]
          ],
          [
            [
              [
                -82.15054139999998,
                33.44396889999999
              ],
              [
                -82.15001759999998,
                33.4438685
              ],
              [
                -82.14996279999998,
                33.443335499999975
              ],
              [
                -82.1508356,
                33.4433227
              ],
              [
                -82.1507963,
                33.4436499
              ],
              [
                -82.15067589999998,
                33.4436736
              ],
              [
                -82.15054139999998,
                33.44396889999999
              ]
            ]
          ],
          [
            [
              [
                -83.10960447601175,
                34.28620568707601
              ],
              [
                -83.10961581364897,
                34.286232141226435
              ],
              [
                -83.10957424321087,
                34.286885915775194
              ],
              [
                -83.10954023209591,
                34.286897252329275
              ],
              [
                -83.1092719205919,
                34.28687457847742
              ],
              [
                -83.1092530245299,
                34.28685190536168
              ],
              [
                -83.10924924621581,
                34.28682923001321
              ],
              [
                -83.10924546610511,
                34.28674987032747
              ],
              [
                -83.1092530245299,
                34.28648911686461
              ],
              [
                -83.10926813958287,
                34.286201908441114
              ],
              [
                -83.1092870374415,
                34.28618679167329
              ],
              [
                -83.10930593170687,
                34.2861867916733
              ],
              [
                -83.10935506056975,
                34.28618679167328
              ],
              [
                -83.10959313927289,
                34.28619435042865
              ],
              [
                -83.10960447601175,
                34.28620568707601
              ]
            ]
          ],
          [
            [
              [
                -83.1128048391958,
                34.28937151180409
              ],
              [
                -83.11423823418227,
                34.2895633834455
              ],
              [
                -83.1142389106137,
                34.289559584922564
              ],
              [
                -83.115506163985,
                34.2897137099663
              ],
              [
                -83.11544622659261,
                34.290283116585904
              ],
              [
                -83.1153434763921,
                34.29085252528424
              ],
              [
                -83.114038237759,
                34.29068999641079
              ],
              [
                -83.1126229671817,
                34.29054230637671
              ],
              [
                -83.112662751769,
                34.2900705782382
              ],
              [
                -83.1128048391958,
                34.28937151180409
              ]
            ]
          ],
          [
            [
              [
                -83.10737330033824,
                34.428776365554775
              ],
              [
                -83.10734910022325,
                34.42858076563897
              ],
              [
                -83.10732490013518,
                34.4284330657054
              ],
              [
                -83.1070417998108,
                34.42795996601784
              ],
              [
                -83.10696899973624,
                34.427854066092316
              ],
              [
                -83.10692029967814,
                34.427768566147506
              ],
              [
                -83.10701519964363,
                34.42767256613698
              ],
              [
                -83.10728619956245,
                34.4274290660957
              ],
              [
                -83.10735639947919,
                34.427255366126005
              ],
              [
                -83.107557199369,
                34.42698596612854
              ],
              [
                -83.10784279948949,
                34.427095665949686
              ],
              [
                -83.10808479960781,
                34.42721746578735
              ],
              [
                -83.10825659970945,
                34.427335265660446
              ],
              [
                -83.10844289989593,
                34.4275986654723
              ],
              [
                -83.10857120007388,
                34.42786816530991
              ],
              [
                -83.10867520021655,
                34.428083765179295
              ],
              [
                -83.10869700032426,
                34.428267365100396
              ],
              [
                -83.10867280039113,
                34.42839506506465
              ],
              [
                -83.10843330040923,
                34.428514865136506
              ],
              [
                -83.1078331004272,
                34.4287663653349
              ],
              [
                -83.10737330033824,
                34.428776365554775
              ]
            ]
          ],
          [
            [
              [
                -84.24761868705434,
                34.88082983030254
              ],
              [
                -84.24743228627642,
                34.880550331643995
              ],
              [
                -84.24773538648226,
                34.88041833128789
              ],
              [
                -84.24791368725828,
                34.88070332994941
              ],
              [
                -84.24761868705434,
                34.88082983030254
              ]
            ]
          ],
          [
            [
              [
                -84.2457577864769,
                34.882022331317486
              ],
              [
                -84.24567578631618,
                34.88199993159515
              ],
              [
                -84.24519748532461,
                34.88183923330744
              ],
              [
                -84.24528408520254,
                34.88170103351572
              ],
              [
                -84.24541618505957,
                34.88151423375923
              ],
              [
                -84.24551178511216,
                34.88146563366737
              ],
              [
                -84.24577148544584,
                34.881439433089966
              ],
              [
                -84.24602648583335,
                34.881446932420026
              ],
              [
                -84.24605388593416,
                34.88148053224629
              ],
              [
                -84.24585338648916,
                34.88195133129484
              ],
              [
                -84.24581698653026,
                34.8820037312248
              ],
              [
                -84.2457577864769,
                34.882022331317486
              ]
            ]
          ],
          [
            [
              [
                -84.38619321737248,
                34.949612647018185
              ],
              [
                -84.38614491733634,
                34.94966094663203
              ],
              [
                -84.38608591733536,
                34.94966094648571
              ],
              [
                -84.3860591173253,
                34.94967414634649
              ],
              [
                -84.38592761732791,
                34.949667546056894
              ],
              [
                -84.38586331734273,
                34.949645646018105
              ],
              [
                -84.38527591737986,
                34.94957964492442
              ],
              [
                -84.38536971758785,
                34.94929164674134
              ],
              [
                -84.38545831772095,
                34.949109147965785
              ],
              [
                -84.38558431782728,
                34.948966249066
              ],
              [
                -84.38575601789435,
                34.948880549965814
              ],
              [
                -84.38602421793323,
                34.94883875086488
              ],
              [
                -84.38622271794281,
                34.94883435138419
              ],
              [
                -84.38619321737248,
                34.949612647018185
              ]
            ]
          ],
          [
            [
              [
                -84.38701041727754,
                34.949759148235024
              ],
              [
                -84.38703321729842,
                34.94973164844361
              ],
              [
                -84.387517417394,
                34.949615150288786
              ],
              [
                -84.38755361734975,
                34.94967445005011
              ],
              [
                -84.38756831731416,
                34.94972174982454
              ],
              [
                -84.38756701727584,
                34.94977234954102
              ],
              [
                -84.38755361722494,
                34.949839349136745
              ],
              [
                -84.38751201715208,
                34.94993494850425
              ],
              [
                -84.3874289170714,
                34.95004054771391
              ],
              [
                -84.38734971701356,
                34.95011634709846
              ],
              [
                -84.38724111698292,
                34.95015594661094
              ],
              [
                -84.38701041727754,
                34.949759148235024
              ]
            ]
          ],
          [
            [
              [
                -83.3197214,
                34.98112740000001
              ],
              [
                -83.319726,
                34.981179800000014
              ],
              [
                -83.3195804,
                34.9811884
              ],
              [
                -83.3195758,
                34.98113590000001
              ],
              [
                -83.3197214,
                34.98112740000001
              ]
            ]
          ],
          [
            [
              [
                -83.31973,
                34.9812665
              ],
              [
                -83.31958429999999,
                34.9812751
              ],
              [
                -83.3195798,
                34.98122259999999
              ],
              [
                -83.31972539999998,
                34.981214
              ],
              [
                -83.31973,
                34.9812665
              ]
            ]
          ],
          [
            [
              [
                -83.32282609999999,
                34.9862325
              ],
              [
                -83.3227166,
                34.9861987
              ],
              [
                -83.32280739999999,
                34.986001299999984
              ],
              [
                -83.3229168,
                34.9860351
              ],
              [
                -83.32282609999999,
                34.9862325
              ]
            ]
          ],
          [
            [
              [
                -83.32297929999999,
                34.986276
              ],
              [
                -83.3228698,
                34.986242200000014
              ],
              [
                -83.32296059999999,
                34.9860448
              ],
              [
                -83.3230701,
                34.986078599999985
              ],
              [
                -83.32297929999999,
                34.986276
              ]
            ]
          ],
          [
            [
              [
                -83.3224093,
                34.9861654
              ],
              [
                -83.322517,
                34.98590619999998
              ],
              [
                -83.32256790000001,
                34.9858851
              ],
              [
                -83.3226946,
                34.98592479999997
              ],
              [
                -83.322712,
                34.98596709999999
              ],
              [
                -83.3225959,
                34.9862188
              ],
              [
                -83.3225565,
                34.98623309999998
              ],
              [
                -83.32256929999998,
                34.98627909999998
              ],
              [
                -83.32246259999998,
                34.986533600000016
              ],
              [
                -83.32242369999999,
                34.986548899999974
              ],
              [
                -83.32228659999998,
                34.9865156
              ],
              [
                -83.3222741,
                34.9864848
              ],
              [
                -83.3223722,
                34.9862231
              ],
              [
                -83.3224207,
                34.9861965
              ],
              [
                -83.3224093,
                34.9861654
              ]
            ]
          ],
          [
            [
              [
                -83.3226827,
                34.986548899999974
              ],
              [
                -83.3225732,
                34.9865151
              ],
              [
                -83.322664,
                34.9863177
              ],
              [
                -83.32277340000002,
                34.98635139999998
              ],
              [
                -83.3226827,
                34.986548899999974
              ]
            ]
          ],
          [
            [
              [
                -83.32283490000002,
                34.98659319999999
              ],
              [
                -83.32272539999998,
                34.98655939999997
              ],
              [
                -83.3228162,
                34.986362
              ],
              [
                -83.32292570000001,
                34.986395799999976
              ],
              [
                -83.32283490000002,
                34.98659319999999
              ]
            ]
          ]
        ]
      }
    }
  ]
}