{
  "type": "FeatureCollection",
  "name": "Douglas",
  "crs": {
    "type": "name",
    "properties": {
      "name": "urn:ogc:def:crs:OGC:1.3:CRS84"
    }
  },
  "features": [
    {
      "type": "Feature",
      "properties": {
        "largest_city": "Douglas",
        "all_cities": "Abbeville, Ambrose, Argyle, Avera, Blythe, Broxton, Cadwell, Chauncey, Douglas, Dublin, Dudley, East Dublin, Eastman, Echols County, Fitzgerald, Hannahs Mill, Hephzibah, Homerville, Kite, Mansfield, Metter, Milan, Millen, Ocilla, Pearson, Portal, Rebecca, Rhine, Rochelle, Rocky Ford, Sardis, Shady Dale, Sparta, Stapleton, Stillmore, Swainsboro, Tunnel Hill, Twin City, Watkinsville, Waynesboro, Wrens, Wrightsville",
        "total_area_ft2": 19969417.21893312
      },
      "geometry": {
        "type": "MultiPolygon",
        "coordinates": [
          [
            [
              [
                -82.0737155,
                32.415053399999984
              ],
              [
                -82.0738773,
                32.415069
              ],
              [
                -82.0738332,
                32.415395199999985
              ],
              [
                -82.07367159999998,
                32.41537959999998
              ],
              [
                -82.07350379999998,
                32.41536350000001
              ],
              [
                -82.0735478,
                32.41503729999999
              ],
              [
                -82.0737155,
                32.415053399999984
              ]
            ]
          ],
          [
            [
              [
                -81.9346318,
                32.53630759999999
              ],
              [
                -81.9348732,
                32.5362171
              ],
              [
                -81.93512,
                32.5362036
              ],
              [
                -81.9356243,
                32.5363121
              ],
              [
                -81.9354311,
                32.53678239999998
              ],
              [
                -81.9352434,
                32.53713519999999
              ],
              [
                -81.9350985,
                32.5371759
              ],
              [
                -81.9346318,
                32.53703119999999
              ],
              [
                -81.934192,
                32.53671459999999
              ],
              [
                -81.9344173,
                32.53648850000003
              ],
              [
                -81.9346318,
                32.53630759999999
              ]
            ]
          ],
          [
            [
              [
                -82.2109897,
                32.44480269999998
              ],
              [
                -82.2100155,
                32.4447846
              ],
              [
                -82.210082,
                32.4441689
              ],
              [
                -82.2102665,
                32.444015
              ],
              [
                -82.2109596,
                32.4440458
              ],
              [
                -82.21102609999998,
                32.4447701
              ],
              [
                -82.2109897,
                32.44480269999998
              ]
            ]
          ],
          [
            [
              [
                -82.2108359,
                32.445277699999984
              ],
              [
                -82.210873,
                32.445601099999976
              ],
              [
                -82.2107151,
                32.445614
              ],
              [
                -82.2105528,
                32.4456272
              ],
              [
                -82.2105157,
                32.44530389999997
              ],
              [
                -82.21067969999999,
                32.4452905
              ],
              [
                -82.2108359,
                32.445277699999984
              ]
            ]
          ],
          [
            [
              [
                -82.1661729,
                32.571726499999976
              ],
              [
                -82.16610169999998,
                32.57150239999998
              ],
              [
                -82.1662284,
                32.5714738
              ],
              [
                -82.1662996,
                32.57169790000001
              ],
              [
                -82.1661729,
                32.571726499999976
              ]
            ]
          ],
          [
            [
              [
                -82.16132010000001,
                32.5716195
              ],
              [
                -82.1614374,
                32.5716718
              ],
              [
                -82.1613093,
                32.5718759
              ],
              [
                -82.161192,
                32.5718236
              ],
              [
                -82.16132010000001,
                32.5716195
              ]
            ]
          ],
          [
            [
              [
                -81.9364718,
                32.5366739
              ],
              [
                -81.9360159,
                32.5377457
              ],
              [
                -81.9353882,
                32.5375513
              ],
              [
                -81.9358442,
                32.53647489999998
              ],
              [
                -81.9364718,
                32.5366739
              ]
            ]
          ],
          [
            [
              [
                -81.9367401,
                32.5372166
              ],
              [
                -81.9369546,
                32.53715780000002
              ],
              [
                -81.93696665170924,
                32.537157534033305
              ],
              [
                -81.9369171,
                32.5371171
              ],
              [
                -81.93685809999998,
                32.5369453
              ],
              [
                -81.9368259,
                32.5367734
              ],
              [
                -81.93689029999999,
                32.53661059999999
              ],
              [
                -81.93692239999999,
                32.5365518
              ],
              [
                -81.93749109999999,
                32.53675529999999
              ],
              [
                -81.937534,
                32.5368593
              ],
              [
                -81.93736845489022,
                32.53720976550388
              ],
              [
                -81.9374106,
                32.53722109999998
              ],
              [
                -81.93715849999998,
                32.5377864
              ],
              [
                -81.9370458,
                32.53780449999998
              ],
              [
                -81.9364182,
                32.53762809999998
              ],
              [
                -81.9365255,
                32.5374111
              ],
              [
                -81.9367401,
                32.5372166
              ]
            ]
          ],
          [
            [
              [
                -81.9346232,
                32.53801259999999
              ],
              [
                -81.9344387,
                32.5379402
              ],
              [
                -81.93431,
                32.5378271
              ],
              [
                -81.9342971,
                32.5377828
              ],
              [
                -81.93473909999999,
                32.5374237
              ],
              [
                -81.9348571,
                32.5374337
              ],
              [
                -81.93525839999998,
                32.537819899999974
              ],
              [
                -81.9352219,
                32.53785430000003
              ],
              [
                -81.93506209999998,
                32.5379564
              ],
              [
                -81.9349296,
                32.53800489999998
              ],
              [
                -81.93479709999998,
                32.5380352
              ],
              [
                -81.9346232,
                32.53801259999999
              ]
            ]
          ],
          [
            [
              [
                -81.9333249,
                32.538362399999976
              ],
              [
                -81.9335526,
                32.5380941
              ],
              [
                -81.93369879999999,
                32.5381815
              ],
              [
                -81.9338496,
                32.5382721
              ],
              [
                -81.9336223,
                32.5385412
              ],
              [
                -81.9334714,
                32.538450699999984
              ],
              [
                -81.9333249,
                32.538362399999976
              ]
            ]
          ],
          [
            [
              [
                -82.1613894,
                32.571914299999975
              ],
              [
                -82.16151629999999,
                32.5717121
              ],
              [
                -82.16163779999998,
                32.5717662
              ],
              [
                -82.1615109,
                32.57196839999998
              ],
              [
                -82.1613894,
                32.571914299999975
              ]
            ]
          ],
          [
            [
              [
                -82.1563892,
                32.5786699
              ],
              [
                -82.1564803,
                32.57871859999998
              ],
              [
                -82.15668159999998,
                32.578883
              ],
              [
                -82.156824,
                32.57904149999999
              ],
              [
                -82.1561366,
                32.5796124
              ],
              [
                -82.1560751,
                32.579608499999985
              ],
              [
                -82.15544060000002,
                32.579104
              ],
              [
                -82.1556367,
                32.5788847
              ],
              [
                -82.1558778,
                32.5787554
              ],
              [
                -82.1561408,
                32.5786572
              ],
              [
                -82.1562502,
                32.57864809999999
              ],
              [
                -82.1563892,
                32.5786699
              ]
            ]
          ],
          [
            [
              [
                -82.1529159,
                32.5809932
              ],
              [
                -82.1526645,
                32.5805242
              ],
              [
                -82.15380439999998,
                32.58009029999998
              ],
              [
                -82.1540558,
                32.5805593
              ],
              [
                -82.1529159,
                32.5809932
              ]
            ]
          ],
          [
            [
              [
                -82.1561099,
                32.581675799999985
              ],
              [
                -82.1559124,
                32.58149670000001
              ],
              [
                -82.1561818,
                32.5812857
              ],
              [
                -82.15637930000001,
                32.581464799999985
              ],
              [
                -82.1561099,
                32.581675799999985
              ]
            ]
          ],
          [
            [
              [
                -82.30501979999998,
                32.596258699999986
              ],
              [
                -82.304553,
                32.59655129999998
              ],
              [
                -82.30432089999998,
                32.59628839999997
              ],
              [
                -82.3047877,
                32.5959958
              ],
              [
                -82.30501979999998,
                32.596258699999986
              ]
            ]
          ],
          [
            [
              [
                -82.1714876,
                32.5968347
              ],
              [
                -82.1712859,
                32.59675519999998
              ],
              [
                -82.1707795,
                32.59664310000002
              ],
              [
                -82.17056489999999,
                32.5965382
              ],
              [
                -82.170346,
                32.5962815
              ],
              [
                -82.1702559,
                32.59599229999998
              ],
              [
                -82.1702817,
                32.5953523
              ],
              [
                -82.17235449999998,
                32.595659599999976
              ],
              [
                -82.1723416,
                32.595120899999976
              ],
              [
                -82.1724264,
                32.5951318
              ],
              [
                -82.1731087,
                32.5952113
              ],
              [
                -82.1730111,
                32.5977928
              ],
              [
                -82.1717923,
                32.597669899999985
              ],
              [
                -82.17161629999998,
                32.59700459999998
              ],
              [
                -82.1714876,
                32.5968347
              ]
            ]
          ],
          [
            [
              [
                -82.3344413498118,
                32.59666954778196
              ],
              [
                -82.33482609999999,
                32.5964631
              ],
              [
                -82.33504869999999,
                32.5967504
              ],
              [
                -82.33498958583169,
                32.59678221584573
              ],
              [
                -82.33501204493311,
                32.596814537990674
              ],
              [
                -82.33419763768643,
                32.597273904458895
              ],
              [
                -82.33395760874082,
                32.59690977248362
              ],
              [
                -82.3344413498118,
                32.59666954778196
              ]
            ]
          ],
          [
            [
              [
                -82.3049615,
                32.59693439999999
              ],
              [
                -82.30495389999999,
                32.596883
              ],
              [
                -82.3054913,
                32.596533
              ],
              [
                -82.3055637,
                32.596594
              ],
              [
                -82.30565139999999,
                32.5967129
              ],
              [
                -82.3056819,
                32.5968188
              ],
              [
                -82.3056933,
                32.596944
              ],
              [
                -82.3056475,
                32.597111
              ],
              [
                -82.3055942,
                32.597239499999986
              ],
              [
                -82.3055027,
                32.597319700000014
              ],
              [
                -82.305396,
                32.5973775
              ],
              [
                -82.3049615,
                32.59693439999999
              ]
            ]
          ],
          [
            [
              [
                -82.1404843,
                32.5812251
              ],
              [
                -82.1406134,
                32.5812463
              ],
              [
                -82.14077649999999,
                32.5813032
              ],
              [
                -82.1408865,
                32.5813694
              ],
              [
                -82.14101680000002,
                32.58146579999998
              ],
              [
                -82.1411209,
                32.581567
              ],
              [
                -82.1403833,
                32.58203479999998
              ],
              [
                -82.14030150000002,
                32.5820179
              ],
              [
                -82.1400145,
                32.581385
              ],
              [
                -82.1401084,
                32.58132139999998
              ],
              [
                -82.1401893,
                32.5812726
              ],
              [
                -82.14032509999998,
                32.58123890000002
              ],
              [
                -82.1404843,
                32.5812251
              ]
            ]
          ],
          [
            [
              [
                -81.8264085,
                32.6651749
              ],
              [
                -81.8256762,
                32.6646384
              ],
              [
                -81.8257865,
                32.66453
              ],
              [
                -81.82598259999999,
                32.66440359999998
              ],
              [
                -81.8262154,
                32.6643391
              ],
              [
                -81.8265065,
                32.6643159
              ],
              [
                -81.82674859999999,
                32.6643572
              ],
              [
                -81.8269569,
                32.6644526
              ],
              [
                -81.8271224,
                32.6645687
              ],
              [
                -81.8265218,
                32.6651671
              ],
              [
                -81.8264085,
                32.6651749
              ]
            ]
          ],
          [
            [
              [
                -81.945416662391,
                32.79497323002099
              ],
              [
                -81.9447344395434,
                32.79466044135331
              ],
              [
                -81.94312243432563,
                32.79366732358479
              ],
              [
                -81.943324338874,
                32.79339295611196
              ],
              [
                -81.94724606819081,
                32.79348720799887
              ],
              [
                -81.94752123262765,
                32.79349682789155
              ],
              [
                -81.94754543066249,
                32.793509390363646
              ],
              [
                -81.94729878615297,
                32.7940312162165
              ],
              [
                -81.94728509999999,
                32.794119100000025
              ],
              [
                -81.94715329999998,
                32.7943741
              ],
              [
                -81.94713967455127,
                32.79436784867357
              ],
              [
                -81.94709837328156,
                32.794455229780596
              ],
              [
                -81.94766300755676,
                32.794840723096925
              ],
              [
                -81.94755778788753,
                32.79488674117301
              ],
              [
                -81.94682911495325,
                32.79505339829811
              ],
              [
                -81.94613045203765,
                32.79509274313188
              ],
              [
                -81.945416662391,
                32.79497323002099
              ]
            ]
          ],
          [
            [
              [
                -81.94249279975308,
                32.79955368860288
              ],
              [
                -81.94255608786149,
                32.80073099276889
              ],
              [
                -81.94148070295677,
                32.800850059435376
              ],
              [
                -81.9413541168585,
                32.79969828967911
              ],
              [
                -81.94249279975308,
                32.79955368860288
              ]
            ]
          ],
          [
            [
              [
                -81.93729557332061,
                32.80261596672071
              ],
              [
                -81.93724949423812,
                32.80246237596196
              ],
              [
                -81.938378390886,
                32.8023702207753
              ],
              [
                -81.93838991177952,
                32.80247005505314
              ],
              [
                -81.93729557332061,
                32.80261596672071
              ]
            ]
          ],
          [
            [
              [
                -81.93885436772547,
                32.802703350996524
              ],
              [
                -81.93885436772547,
                32.802598602081
              ],
              [
                -81.93904603227448,
                32.80257557152166
              ],
              [
                -81.93904603227448,
                32.802703350996524
              ],
              [
                -81.93885436772547,
                32.802703350996524
              ]
            ]
          ],
          [
            [
              [
                -81.9355023931814,
                32.80251229306317
              ],
              [
                -81.93706902539252,
                32.80241245958777
              ],
              [
                -81.93713046207309,
                32.802704282872426
              ],
              [
                -81.93671192530412,
                32.80276187890382
              ],
              [
                -81.93627035034136,
                32.8028271554683
              ],
              [
                -81.9357404602064,
                32.802900111794
              ],
              [
                -81.93558686985239,
                32.80294618836954
              ],
              [
                -81.9355023931814,
                32.80251229306317
              ]
            ]
          ],
          [
            [
              [
                -81.9407138,
                32.8105079
              ],
              [
                -81.94070330000002,
                32.8108394
              ],
              [
                -81.9408966,
                32.810843699999964
              ],
              [
                -81.9408864,
                32.811167
              ],
              [
                -81.940693,
                32.8111627
              ],
              [
                -81.9404902,
                32.81115819999998
              ],
              [
                -81.9402905,
                32.8111537
              ],
              [
                -81.9403007,
                32.81083039999997
              ],
              [
                -81.9403112,
                32.8104989
              ],
              [
                -81.9405109,
                32.8105034
              ],
              [
                -81.9407138,
                32.8105079
              ]
            ]
          ],
          [
            [
              [
                -81.7553106,
                32.9754873
              ],
              [
                -81.75565389999998,
                32.9748483
              ],
              [
                -81.75605629999998,
                32.97498549999999
              ],
              [
                -81.7562172,
                32.9747313
              ],
              [
                -81.7565042,
                32.9748438
              ],
              [
                -81.75589259999998,
                32.9758833
              ],
              [
                -81.75578,
                32.975669600000025
              ],
              [
                -81.7556003,
                32.97559979999998
              ],
              [
                -81.7553106,
                32.9754873
              ]
            ]
          ],
          [
            [
              [
                -82.00076251592895,
                33.07598073208877
              ],
              [
                -82.00275999724455,
                33.07482977983387
              ],
              [
                -82.00321303887593,
                33.07555943888162
              ],
              [
                -82.00248884583998,
                33.0767018593298
              ],
              [
                -82.00076251592895,
                33.07598073208877
              ]
            ]
          ],
          [
            [
              [
                -81.99225557409319,
                33.077127478725934
              ],
              [
                -81.99229465766768,
                33.07708012106142
              ],
              [
                -81.9922990690883,
                33.07708241270401
              ],
              [
                -81.99488903730386,
                33.07831512584503
              ],
              [
                -81.99434535548136,
                33.079629857703985
              ],
              [
                -81.99171309802573,
                33.07815563885713
              ],
              [
                -81.99197276317055,
                33.077407182756104
              ],
              [
                -81.99225557409319,
                33.077127478725934
              ]
            ]
          ],
          [
            [
              [
                -81.99479439999999,
                33.082715199999974
              ],
              [
                -81.99454569999999,
                33.082580199999974
              ],
              [
                -81.9944138,
                33.0823983
              ],
              [
                -81.9951283,
                33.0817468
              ],
              [
                -81.9951984,
                33.0817429
              ],
              [
                -81.9960413,
                33.0823122
              ],
              [
                -81.99598289999999,
                33.0823963
              ],
              [
                -81.9958732,
                33.082521499999984
              ],
              [
                -81.995656,
                33.0827015
              ],
              [
                -81.9953758,
                33.0827798
              ],
              [
                -81.99508390000001,
                33.08278959999998
              ],
              [
                -81.99479439999999,
                33.082715199999974
              ]
            ]
          ],
          [
            [
              [
                -82.35793063375112,
                32.60149657238835
              ],
              [
                -82.35879738549775,
                32.60160100246315
              ],
              [
                -82.35965371877803,
                32.603013636770775
              ],
              [
                -82.3597445,
                32.6031014
              ],
              [
                -82.3585032,
                32.604021
              ],
              [
                -82.35626049259012,
                32.60190149566695
              ],
              [
                -82.35543354240674,
                32.60119571180526
              ],
              [
                -82.35552539253327,
                32.601206778313774
              ],
              [
                -82.3554505,
                32.601136
              ],
              [
                -82.3554891,
                32.601018
              ],
              [
                -82.3557161,
                32.601018
              ],
              [
                -82.3561509,
                32.6012256
              ],
              [
                -82.3564986,
                32.60128659999999
              ],
              [
                -82.3579042,
                32.60145749999998
              ],
              [
                -82.35793063375112,
                32.60149657238835
              ]
            ]
          ],
          [
            [
              [
                -82.3476018,
                32.6056544
              ],
              [
                -82.3480427,
                32.605171399999975
              ],
              [
                -82.3483929473619,
                32.60484836282352
              ],
              [
                -82.3483929473619,
                32.60484836377667
              ],
              [
                -82.3485653,
                32.60468939999998
              ],
              [
                -82.34758489999999,
                32.6041018
              ],
              [
                -82.3483929473619,
                32.60386987145001
              ],
              [
                -82.3483929473619,
                32.60386987149606
              ],
              [
                -82.3484033,
                32.603866899999986
              ],
              [
                -82.3484382,
                32.6034756
              ],
              [
                -82.34919079999999,
                32.6029053
              ],
              [
                -82.35030959999999,
                32.602577899999986
              ],
              [
                -82.3509702,
                32.60268039999998
              ],
              [
                -82.35129689999998,
                32.6029632
              ],
              [
                -82.3504017,
                32.60371739999998
              ],
              [
                -82.34951979999998,
                32.60419250000002
              ],
              [
                -82.34863308139326,
                32.60567423423287
              ],
              [
                -82.34864589637446,
                32.60568118174992
              ],
              [
                -82.34841450922188,
                32.60612292226313
              ],
              [
                -82.34768284579602,
                32.60575356086244
              ],
              [
                -82.34771496490019,
                32.60569861129238
              ],
              [
                -82.3476018,
                32.6056544
              ]
            ]
          ],
          [
            [
              [
                -82.33134258420266,
                32.608303079031025
              ],
              [
                -82.33067577375041,
                32.60814143716991
              ],
              [
                -82.33151847703023,
                32.60701902125734
              ],
              [
                -82.33188659854882,
                32.608248574150586
              ],
              [
                -82.33134258420266,
                32.608303079031025
              ]
            ]
          ],
          [
            [
              [
                -82.342063,
                32.61036709999998
              ],
              [
                -82.3424152,
                32.6101847
              ],
              [
                -82.3425771,
                32.61063309999997
              ],
              [
                -82.34251097889815,
                32.61066213006142
              ],
              [
                -82.34260488868381,
                32.61091591379912
              ],
              [
                -82.34210146740868,
                32.611148802470815
              ],
              [
                -82.34181074473499,
                32.610510910458196
              ],
              [
                -82.34207011383991,
                32.61038939795901
              ],
              [
                -82.342063,
                32.61036709999998
              ]
            ]
          ],
          [
            [
              [
                -82.81471019999998,
                32.564818
              ],
              [
                -82.8146136,
                32.5647728
              ],
              [
                -82.8144688,
                32.5646869
              ],
              [
                -82.8143668,
                32.56459189999999
              ],
              [
                -82.8143078,
                32.56448339999998
              ],
              [
                -82.814281,
                32.5643749
              ],
              [
                -82.8142595,
                32.564167
              ],
              [
                -82.814281,
                32.5638821
              ],
              [
                -82.814914,
                32.5638143
              ],
              [
                -82.81538070000002,
                32.56382339999998
              ],
              [
                -82.81546119999999,
                32.5638867
              ],
              [
                -82.81539679999999,
                32.56484060000001
              ],
              [
                -82.8148496,
                32.56483159999997
              ],
              [
                -82.81471019999998,
                32.564818
              ]
            ]
          ],
          [
            [
              [
                -82.819286,
                32.56512089999997
              ],
              [
                -82.8191036,
                32.56511189999998
              ],
              [
                -82.8189856,
                32.56506209999998
              ],
              [
                -82.8187978,
                32.5649717
              ],
              [
                -82.818712,
                32.564836100000015
              ],
              [
                -82.8186208,
                32.564655199999976
              ],
              [
                -82.8186047,
                32.5644834
              ],
              [
                -82.8186369,
                32.56441109999999
              ],
              [
                -82.81872269999998,
                32.5643749
              ],
              [
                -82.819404,
                32.5643749
              ],
              [
                -82.8194684,
                32.56443820000001
              ],
              [
                -82.8194899,
                32.5650169
              ],
              [
                -82.8194201,
                32.5651119
              ],
              [
                -82.819286,
                32.56512089999997
              ]
            ]
          ],
          [
            [
              [
                -82.51027769999999,
                32.68813909999999
              ],
              [
                -82.5101604,
                32.688181
              ],
              [
                -82.5100455,
                32.6879533
              ],
              [
                -82.51016279999999,
                32.6879114
              ],
              [
                -82.51027769999999,
                32.68813909999999
              ]
            ]
          ],
          [
            [
              [
                -82.50960879999998,
                32.6891796
              ],
              [
                -82.50860359999999,
                32.68930949999998
              ],
              [
                -82.5085746,
                32.6891885
              ],
              [
                -82.50858160000001,
                32.6890468
              ],
              [
                -82.5086154,
                32.6889042
              ],
              [
                -82.50869050000001,
                32.6887488
              ],
              [
                -82.5087639,
                32.68865
              ],
              [
                -82.50885449999998,
                32.6885611
              ],
              [
                -82.50902629999999,
                32.6884373
              ],
              [
                -82.5092108,
                32.688350599999985
              ],
              [
                -82.5094897,
                32.6883027
              ],
              [
                -82.5096423,
                32.6891434
              ],
              [
                -82.50960879999998,
                32.6891796
              ]
            ]
          ],
          [
            [
              [
                -82.72977539999998,
                32.7214946
              ],
              [
                -82.729829,
                32.7215082
              ],
              [
                -82.729888,
                32.7215352
              ],
              [
                -82.7304084,
                32.72206329999998
              ],
              [
                -82.7295796,
                32.722519100000014
              ],
              [
                -82.7290109,
                32.7217677
              ],
              [
                -82.7291316,
                32.721688700000016
              ],
              [
                -82.72925229999998,
                32.7216255
              ],
              [
                -82.729365,
                32.72157809999999
              ],
              [
                -82.72951250000001,
                32.7215375
              ],
              [
                -82.72977539999998,
                32.7214946
              ]
            ]
          ],
          [
            [
              [
                -82.73028229999998,
                32.723099
              ],
              [
                -82.7300677,
                32.723277299999985
              ],
              [
                -82.72968149999998,
                32.722817
              ],
              [
                -82.7296922,
                32.722769599999985
              ],
              [
                -82.730285,
                32.722413
              ],
              [
                -82.73037349999998,
                32.7225778
              ],
              [
                -82.7304084,
                32.7226658
              ],
              [
                -82.7304218,
                32.7227605
              ],
              [
                -82.7303976,
                32.7229275
              ],
              [
                -82.73035740000002,
                32.72302229999998
              ],
              [
                -82.73028229999998,
                32.723099
              ]
            ]
          ],
          [
            [
              [
                -82.730631,
                32.72341720000003
              ],
              [
                -82.7303842,
                32.7231532
              ],
              [
                -82.73069,
                32.7229433
              ],
              [
                -82.73089389999998,
                32.72323889999997
              ],
              [
                -82.730631,
                32.72341720000003
              ]
            ]
          ],
          [
            [
              [
                -82.73029569999999,
                32.72363379999999
              ],
              [
                -82.7300704,
                32.7233608
              ],
              [
                -82.730344,
                32.723178
              ],
              [
                -82.7305881,
                32.72343749999998
              ],
              [
                -82.73029569999999,
                32.72363379999999
              ]
            ]
          ],
          [
            [
              [
                -82.7299172,
                32.72384010000001
              ],
              [
                -82.7299133,
                32.7238187
              ],
              [
                -82.7299122,
                32.7238131
              ],
              [
                -82.7299866,
                32.7238035
              ],
              [
                -82.7299927,
                32.7238365
              ],
              [
                -82.72991829999998,
                32.72384619999998
              ],
              [
                -82.7299172,
                32.72384010000001
              ]
            ]
          ],
          [
            [
              [
                -82.7311147,
                32.7251318
              ],
              [
                -82.73182239999998,
                32.725925
              ],
              [
                -82.731339,
                32.7262302
              ],
              [
                -82.7306315,
                32.7254368
              ],
              [
                -82.7311147,
                32.7251318
              ]
            ]
          ],
          [
            [
              [
                -82.5276388,
                33.1933867
              ],
              [
                -82.52791779999998,
                33.1936191
              ],
              [
                -82.5275005,
                33.19392930000002
              ],
              [
                -82.5272108,
                33.1937069
              ],
              [
                -82.5276388,
                33.1933867
              ]
            ]
          ],
          [
            [
              [
                -82.4686194,
                33.2145838
              ],
              [
                -82.46992369999998,
                33.2146716
              ],
              [
                -82.4698641,
                33.2156916
              ],
              [
                -82.46859389999999,
                33.21562989999999
              ],
              [
                -82.4686194,
                33.2145838
              ]
            ]
          ],
          [
            [
              [
                -81.99701969999998,
                33.082924599999984
              ],
              [
                -81.99713869999998,
                33.08300479999997
              ],
              [
                -81.9971831,
                33.0830713
              ],
              [
                -81.9972065,
                33.0831457
              ],
              [
                -81.9971528,
                33.0832102
              ],
              [
                -81.997015,
                33.08331979999998
              ],
              [
                -81.9967955,
                33.0831417
              ],
              [
                -81.9968002,
                33.08309869999999
              ],
              [
                -81.99701969999998,
                33.082924599999984
              ]
            ]
          ],
          [
            [
              [
                -81.995511,
                33.08307329999999
              ],
              [
                -81.995955,
                33.0826929
              ],
              [
                -81.99690089999999,
                33.08346839999999
              ],
              [
                -81.996457,
                33.0838486
              ],
              [
                -81.995511,
                33.08307329999999
              ]
            ]
          ],
          [
            [
              [
                -82.0137941032664,
                33.08671004744341
              ],
              [
                -82.0138166779295,
                33.086701580891095
              ],
              [
                -82.0143952118371,
                33.08638550522056
              ],
              [
                -82.01508944605834,
                33.087288576948616
              ],
              [
                -82.01476772701575,
                33.08746919183705
              ],
              [
                -82.01454195972359,
                33.08712771939411
              ],
              [
                -82.01414686539029,
                33.08731679884904
              ],
              [
                -82.01377999252993,
                33.0867580228018
              ],
              [
                -82.01378845915148,
                33.0867326239088
              ],
              [
                -82.0137941032664,
                33.08671004744341
              ]
            ]
          ],
          [
            [
              [
                -82.01969701294843,
                33.088660520979154
              ],
              [
                -82.01945118986924,
                33.08830089131282
              ],
              [
                -82.0203115737905,
                33.087882079417554
              ],
              [
                -82.02055739686968,
                33.08827812859641
              ],
              [
                -82.01969701294843,
                33.088660520979154
              ]
            ]
          ],
          [
            [
              [
                -82.0093778,
                33.09156869999999
              ],
              [
                -82.0092854,
                33.0913601
              ],
              [
                -82.0094325,
                33.09131429999998
              ],
              [
                -82.0095249,
                33.091523
              ],
              [
                -82.0093778,
                33.09156869999999
              ]
            ]
          ],
          [
            [
              [
                -82.09486779999999,
                33.3010534
              ],
              [
                -82.0952541,
                33.3019546
              ],
              [
                -82.09469619999999,
                33.3021205
              ],
              [
                -82.09430459999999,
                33.301219299999985
              ],
              [
                -82.09486779999999,
                33.3010534
              ]
            ]
          ],
          [
            [
              [
                -82.09591919999998,
                33.3029096
              ],
              [
                -82.09591919999998,
                33.30355520000001
              ],
              [
                -82.0956296,
                33.303618
              ],
              [
                -82.09538279999998,
                33.30361349999996
              ],
              [
                -82.0952541,
                33.30358659999999
              ],
              [
                -82.09506089999998,
                33.3035014
              ],
              [
                -82.0948839,
                33.30338039999998
              ],
              [
                -82.09477659999999,
                33.3032503
              ],
              [
                -82.09469619999999,
                33.30308
              ],
              [
                -82.0946693,
                33.30295889999998
              ],
              [
                -82.0946693,
                33.3028558
              ],
              [
                -82.0953774,
                33.30260920000001
              ],
              [
                -82.09571,
                33.302555399999974
              ],
              [
                -82.0958281,
                33.3026227
              ],
              [
                -82.09591919999998,
                33.3029096
              ]
            ]
          ],
          [
            [
              [
                -82.0964907,
                33.3047922
              ],
              [
                -82.096429,
                33.30474739999998
              ],
              [
                -82.0963861,
                33.304442499999986
              ],
              [
                -82.09641829999998,
                33.30420040000001
              ],
              [
                -82.0965524,
                33.3042004
              ],
              [
                -82.096657,
                33.304207099999985
              ],
              [
                -82.09676159999998,
                33.3042385
              ],
              [
                -82.0968609,
                33.304283400000024
              ],
              [
                -82.0969655,
                33.3043528
              ],
              [
                -82.0970486,
                33.3044425
              ],
              [
                -82.0971103,
                33.304559099999985
              ],
              [
                -82.0971425,
                33.30469809999999
              ],
              [
                -82.0967858,
                33.304781
              ],
              [
                -82.0964907,
                33.3047922
              ]
            ]
          ],
          [
            [
              [
                -82.38018289999998,
                33.209452
              ],
              [
                -82.38017369999999,
                33.20952159999998
              ],
              [
                -82.3800227,
                33.21004230000001
              ],
              [
                -82.3799395,
                33.210109299999985
              ],
              [
                -82.3788858,
                33.2107692
              ],
              [
                -82.3780632,
                33.20987219999998
              ],
              [
                -82.37880869999998,
                33.20980990000001
              ],
              [
                -82.3787867,
                33.2095256
              ],
              [
                -82.38018289999998,
                33.209452
              ]
            ]
          ],
          [
            [
              [
                -82.3832895,
                33.2119603
              ],
              [
                -82.38359519999999,
                33.21240459999998
              ],
              [
                -82.38254919999999,
                33.2129073
              ],
              [
                -82.38224880000001,
                33.2124585
              ],
              [
                -82.3832895,
                33.2119603
              ]
            ]
          ],
          [
            [
              [
                -82.3833377,
                33.212678399999966
              ],
              [
                -82.3834826,
                33.21267839999999
              ],
              [
                -82.3836596,
                33.2127367
              ],
              [
                -82.3837133,
                33.2127592
              ],
              [
                -82.3834236,
                33.21327079999998
              ],
              [
                -82.3827959,
                33.2130688
              ],
              [
                -82.38285489999998,
                33.212943199999984
              ],
              [
                -82.382973,
                33.2128085
              ],
              [
                -82.38314459999998,
                33.21271429999999
              ],
              [
                -82.3833377,
                33.212678399999966
              ]
            ]
          ],
          [
            [
              [
                -82.1945121,
                33.28965249999998
              ],
              [
                -82.1944306,
                33.289518
              ],
              [
                -82.1953082,
                33.2892238
              ],
              [
                -82.1953554,
                33.2892382
              ],
              [
                -82.195688,
                33.2899754
              ],
              [
                -82.19552489999998,
                33.29002379999998
              ],
              [
                -82.1954455,
                33.2900328
              ],
              [
                -82.1952889,
                33.2900417
              ],
              [
                -82.195128,
                33.2900238
              ],
              [
                -82.1949821,
                33.28998789999998
              ],
              [
                -82.1948447,
                33.2899323
              ],
              [
                -82.194716,
                33.28985159999998
              ],
              [
                -82.1946001,
                33.28975830000001
              ],
              [
                -82.1945121,
                33.28965249999998
              ]
            ]
          ],
          [
            [
              [
                -82.92914649999999,
                32.5392913
              ],
              [
                -82.92866089999998,
                32.5396697
              ],
              [
                -82.928611,
                32.5396874
              ],
              [
                -82.92837739999999,
                32.5393688
              ],
              [
                -82.9279469,
                32.5389129
              ],
              [
                -82.92768179999999,
                32.53872369999997
              ],
              [
                -82.9274429,
                32.53860639999998
              ],
              [
                -82.9273734,
                32.5385566
              ],
              [
                -82.9271463,
                32.53808750000001
              ],
              [
                -82.9271621,
                32.5380588
              ],
              [
                -82.92746659999999,
                32.5380411
              ],
              [
                -82.9278026,
                32.53805429999997
              ],
              [
                -82.9298185,
                32.538404
              ],
              [
                -82.9298303,
                32.5384349
              ],
              [
                -82.9297712,
                32.5386275
              ],
              [
                -82.92971869999998,
                32.5387447
              ],
              [
                -82.9296216,
                32.5388797
              ],
              [
                -82.92914649999999,
                32.5392913
              ]
            ]
          ],
          [
            [
              [
                -82.91438352462998,
                32.54187170506976
              ],
              [
                -82.91372514935824,
                32.54160843984476
              ],
              [
                -82.91312103232967,
                32.541426965668464
              ],
              [
                -82.9115987659439,
                32.54164475369516
              ],
              [
                -82.9104233,
                32.54194
              ],
              [
                -82.91041216204987,
                32.54191992974305
              ],
              [
                -82.91038539459157,
                32.541926175338
              ],
              [
                -82.91006587821805,
                32.541365380426136
              ],
              [
                -82.91161892700373,
                32.541004925223824
              ],
              [
                -82.91236111605299,
                32.54084356374152
              ],
              [
                -82.91238501880166,
                32.540832194802746
              ],
              [
                -82.91275739609931,
                32.54055542575089
              ],
              [
                -82.91313360515039,
                32.540250987245024
              ],
              [
                -82.91364549753862,
                32.53997626091815
              ],
              [
                -82.91437801077076,
                32.53984434996792
              ],
              [
                -82.91473879754506,
                32.54128793308453
              ],
              [
                -82.91482554066552,
                32.54183955026191
              ],
              [
                -82.91438352462998,
                32.54187170506976
              ]
            ]
          ],
          [
            [
              [
                -82.9466538,
                32.5428247
              ],
              [
                -82.9465609,
                32.54275389999999
              ],
              [
                -82.9467326,
                32.542594
              ],
              [
                -82.94682539999998,
                32.54266469999998
              ],
              [
                -82.9466538,
                32.5428247
              ]
            ]
          ],
          [
            [
              [
                -82.94676313781225,
                32.54277375701829
              ],
              [
                -82.9468542,
                32.5426889
              ],
              [
                -82.946947,
                32.54275969999997
              ],
              [
                -82.9467754,
                32.54291969999995
              ],
              [
                -82.9466825,
                32.54284890000001
              ],
              [
                -82.94676313793853,
                32.54277375701829
              ],
              [
                -82.94676313781225,
                32.54277375701829
              ]
            ]
          ],
          [
            [
              [
                -82.94706589999998,
                32.5428636
              ],
              [
                -82.9471587,
                32.5429344
              ],
              [
                -82.9469871,
                32.54309440000002
              ],
              [
                -82.9468943,
                32.54302350000001
              ],
              [
                -82.94706589999998,
                32.5428636
              ]
            ]
          ],
          [
            [
              [
                -82.94702489999999,
                32.543128
              ],
              [
                -82.9471965,
                32.542968
              ],
              [
                -82.9472894,
                32.543038799999984
              ],
              [
                -82.94711779999999,
                32.54319879999998
              ],
              [
                -82.94702489999999,
                32.543128
              ]
            ]
          ],
          [
            [
              [
                -82.9473992,
                32.543127499999976
              ],
              [
                -82.9474921,
                32.5431983
              ],
              [
                -82.9473205,
                32.5433583
              ],
              [
                -82.9472276,
                32.5432875
              ],
              [
                -82.9473992,
                32.543127499999976
              ]
            ]
          ],
          [
            [
              [
                -82.9475276,
                32.5432319
              ],
              [
                -82.9476205,
                32.54330270000002
              ],
              [
                -82.94744889999998,
                32.5434627
              ],
              [
                -82.947356,
                32.54339189999998
              ],
              [
                -82.9475276,
                32.5432319
              ]
            ]
          ],
          [
            [
              [
                -82.9477348,
                32.543397100000014
              ],
              [
                -82.9478277,
                32.5434679
              ],
              [
                -82.9476561,
                32.54362789999998
              ],
              [
                -82.9475632,
                32.5435571
              ],
              [
                -82.9477348,
                32.543397100000014
              ]
            ]
          ],
          [
            [
              [
                -82.9478552,
                32.543496799999986
              ],
              [
                -82.947948,
                32.5435675
              ],
              [
                -82.9477764,
                32.5437275
              ],
              [
                -82.9476836,
                32.54365669999997
              ],
              [
                -82.9478552,
                32.543496799999986
              ]
            ]
          ],
          [
            [
              [
                -82.9486607,
                32.5449561
              ],
              [
                -82.9479998,
                32.5453721
              ],
              [
                -82.9479505,
                32.5453884
              ],
              [
                -82.9479183,
                32.5453902
              ],
              [
                -82.947869,
                32.545373900000016
              ],
              [
                -82.94719729999998,
                32.544995899999975
              ],
              [
                -82.94758359999999,
                32.544453199999985
              ],
              [
                -82.9478003,
                32.54425419999998
              ],
              [
                -82.9479677,
                32.544247
              ],
              [
                -82.94816939999998,
                32.5444044
              ],
              [
                -82.9486607,
                32.5449561
              ]
            ]
          ],
          [
            [
              [
                -83.06695249999999,
                32.54501049999999
              ],
              [
                -83.0663389,
                32.5454537
              ],
              [
                -83.06556849999998,
                32.5452891
              ],
              [
                -83.0660406,
                32.5445909
              ],
              [
                -83.0661372,
                32.5445782
              ],
              [
                -83.06695249999999,
                32.54501049999999
              ]
            ]
          ],
          [
            [
              [
                -82.86861359104788,
                32.53623998985427
              ],
              [
                -82.86841214384542,
                32.53635848857309
              ],
              [
                -82.86754117777012,
                32.536488837740606
              ],
              [
                -82.86723900516981,
                32.53670806001879
              ],
              [
                -82.86479200511565,
                32.53462840690222
              ],
              [
                -82.86479200511565,
                32.53452768219691
              ],
              [
                -82.86486310407544,
                32.53436770903658
              ],
              [
                -82.86532524955987,
                32.53359154169428
              ],
              [
                -82.86542004967012,
                32.53357969222175
              ],
              [
                -82.86553262204994,
                32.53362709161735
              ],
              [
                -82.86566297119093,
                32.533698191421166
              ],
              [
                -82.86589404393317,
                32.53387001445245
              ],
              [
                -82.86656948719528,
                32.53442695813598
              ],
              [
                -82.86861359104788,
                32.53623998985427
              ]
            ]
          ],
          [
            [
              [
                -82.89445339753195,
                32.54517266526481
              ],
              [
                -82.89466115270432,
                32.54538449604069
              ],
              [
                -82.89478765615758,
                32.54540749520027
              ],
              [
                -82.89490300972152,
                32.54547694244915
              ],
              [
                -82.89495702811449,
                32.54563701697933
              ],
              [
                -82.89493373569748,
                32.54573390210346
              ],
              [
                -82.8946814465449,
                32.545780609776784
              ],
              [
                -82.8943790170264,
                32.545751665576496
              ],
              [
                -82.89362342607464,
                32.54397693050367
              ],
              [
                -82.8938062898288,
                32.543906028152804
              ],
              [
                -82.89395184654924,
                32.54420416068848
              ],
              [
                -82.89428184177054,
                32.54484274796609
              ],
              [
                -82.89445339753195,
                32.54517266526481
              ]
            ]
          ],
          [
            [
              [
                -82.89818816758016,
                32.546783450927755
              ],
              [
                -82.89780356467107,
                32.546072332840545
              ],
              [
                -82.8987707178554,
                32.545703592573176
              ],
              [
                -82.89912961008277,
                32.54641041700037
              ],
              [
                -82.89818816758016,
                32.546783450927755
              ]
            ]
          ],
          [
            [
              [
                -82.89848639999998,
                32.5924819
              ],
              [
                -82.89850468877832,
                32.59245205530333
              ],
              [
                -82.89870605720382,
                32.59244216807533
              ],
              [
                -82.89891228620206,
                32.5924320418194
              ],
              [
                -82.8987911,
                32.59262289999998
              ],
              [
                -82.89863879999999,
                32.59255060000003
              ],
              [
                -82.89848639999998,
                32.5924819
              ]
            ]
          ],
          [
            [
              [
                -83.1807122,
                32.190996499999976
              ],
              [
                -83.1813005,
                32.19151020000001
              ],
              [
                -83.1802118,
                32.1924585
              ],
              [
                -83.1796445,
                32.1919343
              ],
              [
                -83.1807122,
                32.190996499999976
              ]
            ]
          ],
          [
            [
              [
                -83.1847115,
                32.20100239999998
              ],
              [
                -83.18502270000002,
                32.2012656
              ],
              [
                -83.18544119999999,
                32.2017004
              ],
              [
                -83.18531241312479,
                32.20176826446871
              ],
              [
                -83.18533633967664,
                32.20180037658302
              ],
              [
                -83.18454604770376,
                32.20217695947944
              ],
              [
                -83.1843805201479,
                32.202259327099775
              ],
              [
                -83.1841667,
                32.202372
              ],
              [
                -83.1834735,
                32.2027627
              ],
              [
                -83.18343960952647,
                32.20272753052632
              ],
              [
                -83.18343751496506,
                32.2027285727941
              ],
              [
                -83.18340818041607,
                32.20269491530567
              ],
              [
                -83.18291439999999,
                32.2021825
              ],
              [
                -83.18293644950894,
                32.20215366691119
              ],
              [
                -83.18293363644746,
                32.202150439297725
              ],
              [
                -83.18359133079622,
                32.20126467644536
              ],
              [
                -83.18364454969793,
                32.20122771887546
              ],
              [
                -83.1836815,
                32.2011794
              ],
              [
                -83.18384002411157,
                32.20109197275754
              ],
              [
                -83.18435510540023,
                32.20073427742526
              ],
              [
                -83.18461509151274,
                32.20098638751767
              ],
              [
                -83.1847115,
                32.20100239999998
              ]
            ]
          ],
          [
            [
              [
                -83.19074329999998,
                32.2025513
              ],
              [
                -83.19073849999998,
                32.2027649
              ],
              [
                -83.19062039999999,
                32.202763
              ],
              [
                -83.1906252,
                32.2025494
              ],
              [
                -83.19074329999998,
                32.2025513
              ]
            ]
          ],
          [
            [
              [
                -83.1909182,
                32.20255169999999
              ],
              [
                -83.19091339999999,
                32.2027653
              ],
              [
                -83.1907953,
                32.2027634
              ],
              [
                -83.1908001,
                32.202549799999986
              ],
              [
                -83.1909182,
                32.20255169999999
              ]
            ]
          ],
          [
            [
              [
                -83.19586769999998,
                32.202183
              ],
              [
                -83.1967568,
                32.20294339999999
              ],
              [
                -83.19629559999998,
                32.2033297
              ],
              [
                -83.1954063,
                32.20256939999997
              ],
              [
                -83.19586769999998,
                32.202183
              ]
            ]
          ],
          [
            [
              [
                -83.1902304,
                32.2031346
              ],
              [
                -83.19031579999998,
                32.2031516
              ],
              [
                -83.19038269999999,
                32.2031729
              ],
              [
                -83.1904564,
                32.2032012
              ],
              [
                -83.19053669999998,
                32.20324939999998
              ],
              [
                -83.1906188,
                32.20330889999999
              ],
              [
                -83.1901751,
                32.2037438
              ],
              [
                -83.1900764,
                32.20373809999997
              ],
              [
                -83.1896327,
                32.2033117
              ],
              [
                -83.18978,
                32.20321109999998
              ],
              [
                -83.1898704,
                32.20316720000001
              ],
              [
                -83.1899525,
                32.203146
              ],
              [
                -83.19004789999998,
                32.203129
              ],
              [
                -83.19016009999999,
                32.203126099999984
              ],
              [
                -83.1902304,
                32.2031346
              ]
            ]
          ],
          [
            [
              [
                -83.1905983,
                32.2038734
              ],
              [
                -83.19041649999998,
                32.2040209
              ],
              [
                -83.19033579999999,
                32.2039497
              ],
              [
                -83.1905176,
                32.2038022
              ],
              [
                -83.1905983,
                32.2038734
              ]
            ]
          ],
          [
            [
              [
                -83.19070309999998,
                32.2039693
              ],
              [
                -83.19052129999999,
                32.20411679999999
              ],
              [
                -83.19044059999999,
                32.204045600000015
              ],
              [
                -83.19062239999998,
                32.20389809999997
              ],
              [
                -83.19070309999998,
                32.2039693
              ]
            ]
          ],
          [
            [
              [
                -83.1907304,
                32.2039918
              ],
              [
                -83.1908111,
                32.204063
              ],
              [
                -83.1906293,
                32.2042105
              ],
              [
                -83.19054860000001,
                32.2041393
              ],
              [
                -83.1907304,
                32.2039918
              ]
            ]
          ],
          [
            [
              [
                -83.190329,
                32.20436239999999
              ],
              [
                -83.1899503,
                32.2046882
              ],
              [
                -83.1890466,
                32.2039361
              ],
              [
                -83.1894255,
                32.2036102
              ],
              [
                -83.190329,
                32.20436239999999
              ]
            ]
          ],
          [
            [
              [
                -83.19084089999998,
                32.204086
              ],
              [
                -83.19092159999998,
                32.204157299999984
              ],
              [
                -83.19073979999999,
                32.2043048
              ],
              [
                -83.1906591,
                32.2042335
              ],
              [
                -83.19084089999998,
                32.204086
              ]
            ]
          ],
          [
            [
              [
                -83.1916836,
                32.2049934
              ],
              [
                -83.1916812,
                32.2053869
              ],
              [
                -83.1912562,
                32.2057583
              ],
              [
                -83.1911045,
                32.20585509999999
              ],
              [
                -83.1904226,
                32.20524259999998
              ],
              [
                -83.1904203,
                32.205128
              ],
              [
                -83.19114,
                32.20457469999999
              ],
              [
                -83.1911781,
                32.2046045
              ],
              [
                -83.1916836,
                32.2049934
              ]
            ]
          ],
          [
            [
              [
                -83.3024212,
                31.9951894
              ],
              [
                -83.3022254,
                31.995187199999965
              ],
              [
                -83.30222,
                31.9949256
              ],
              [
                -83.30241039999999,
                31.9949256
              ],
              [
                -83.3024212,
                31.9951894
              ]
            ]
          ],
          [
            [
              [
                -84.3500106,
                32.945407
              ],
              [
                -84.3500448,
                32.9457254
              ],
              [
                -84.3498583,
                32.94573949999999
              ],
              [
                -84.3498241,
                32.94542109999998
              ],
              [
                -84.3500106,
                32.945407
              ]
            ]
          ],
          [
            [
              [
                -83.59390594345783,
                33.39473788016028
              ],
              [
                -83.59429444359247,
                33.39487977998927
              ],
              [
                -83.59390774313904,
                33.39561757982771
              ],
              [
                -83.5935191430044,
                33.39547557999893
              ],
              [
                -83.59390594345783,
                33.39473788016028
              ]
            ]
          ],
          [
            [
              [
                -83.71676093140265,
                33.52078640487416
              ],
              [
                -83.7167042788211,
                33.52083230282216
              ],
              [
                -83.7166308124502,
                33.52083459023272
              ],
              [
                -83.71777472080625,
                33.51996892222843
              ],
              [
                -83.71699929358685,
                33.52059329128341
              ],
              [
                -83.71699927892348,
                33.52059330309012
              ],
              [
                -83.71676093140265,
                33.52078640487416
              ]
            ]
          ],
          [
            [
              [
                -82.94759409999999,
                32.54614859999998
              ],
              [
                -82.9465884,
                32.54561989999998
              ],
              [
                -82.94691779999998,
                32.5451747
              ],
              [
                -82.94792349999999,
                32.5457035
              ],
              [
                -82.94759409999999,
                32.54614859999998
              ]
            ]
          ],
          [
            [
              [
                -82.9498946,
                32.5471176
              ],
              [
                -82.949195,
                32.5463543
              ],
              [
                -82.94962419999999,
                32.5460721
              ],
              [
                -82.95000755445035,
                32.54649276839479
              ],
              [
                -82.95000755445035,
                32.546492765873836
              ],
              [
                -82.950328,
                32.546844399999976
              ],
              [
                -82.9498946,
                32.5471176
              ]
            ]
          ],
          [
            [
              [
                -82.9494826,
                32.5473003
              ],
              [
                -82.9493388,
                32.5477814
              ],
              [
                -82.948414,
                32.5475282
              ],
              [
                -82.9485599,
                32.5470561
              ],
              [
                -82.9494826,
                32.5473003
              ]
            ]
          ],
          [
            [
              [
                -82.9760647,
                33.275544
              ],
              [
                -82.9765047,
                33.275483299999976
              ],
              [
                -82.9765729,
                33.27582909999999
              ],
              [
                -82.97637356073957,
                33.27585655445266
              ],
              [
                -82.97616291160875,
                33.27589275978629
              ],
              [
                -82.97616120493747,
                33.275885801638125
              ],
              [
                -82.97613289999998,
                33.275889699999965
              ],
              [
                -82.9760647,
                33.275544
              ]
            ]
          ],
          [
            [
              [
                -83.40864028171923,
                33.85742250419297
              ],
              [
                -83.40854588253983,
                33.856881904277216
              ],
              [
                -83.40865678313183,
                33.85652870422596
              ],
              [
                -83.40921918303562,
                33.85670550387073
              ],
              [
                -83.40927518258972,
                33.857000203822025
              ],
              [
                -83.4097608824864,
                33.85716570351466
              ],
              [
                -83.4106014827098,
                33.8571967029951
              ],
              [
                -83.41053918168805,
                33.857832703003034
              ],
              [
                -83.41007848092825,
                33.85822050326832
              ],
              [
                -83.40906158034898,
                33.8583794038872
              ],
              [
                -83.40864028171923,
                33.85742250419297
              ]
            ]
          ],
          [
            [
              [
                -83.40722808468622,
                33.86509342019974
              ],
              [
                -83.40719669757301,
                33.865072494238746
              ],
              [
                -83.4066657321145,
                33.86441859574937
              ],
              [
                -83.40664742272467,
                33.86436890007239
              ],
              [
                -83.40666834725936,
                33.86432443476515
              ],
              [
                -83.40767796845485,
                33.86386147409604
              ],
              [
                -83.40819585691939,
                33.86465138310153
              ],
              [
                -83.40725685506793,
                33.86507511088198
              ],
              [
                -83.40722808468622,
                33.86509342019974
              ]
            ]
          ],
          [
            [
              [
                -83.40697026921937,
                33.86501970485286
              ],
              [
                -83.40702886909328,
                33.86511180481239
              ],
              [
                -83.40686346892993,
                33.865181704910675
              ],
              [
                -83.4068018690456,
                33.865095604952714
              ],
              [
                -83.40697026921937,
                33.86501970485286
              ]
            ]
          ],
          [
            [
              [
                -85.04791643794618,
                34.84245943994936
              ],
              [
                -85.0479244378345,
                34.84252033990677
              ],
              [
                -85.04759893812452,
                34.84256433989905
              ],
              [
                -85.04758663813556,
                34.84256593989884
              ],
              [
                -85.04757203825672,
                34.84250373994276
              ],
              [
                -85.04791643794618,
                34.84245943994936
              ]
            ]
          ]
        ]
      }
    }
  ]
}