{
  "type": "FeatureCollection",
  "name": "College Station_1",
  "crs": {
    "type": "name",
    "properties": {
      "name": "urn:ogc:def:crs:OGC:1.3:CRS84"
    }
  },
  "features": [
    {
      "type": "Feature",
      "properties": {
        "largest_city": "College Station_1",
        "all_cities": "College Station_1",
        "total_area_ft2": 19962928.406897545
      },
      "geometry": {
        "type": "MultiPolygon",
        "coordinates": [
          [
            [
              [
                -96.3440244,
                30.594938499999984
              ],
              [
                -96.3444863,
                30.5952945
              ],
              [
                -96.3438132,
                30.5959042
              ],
              [
                -96.3433512,
                30.595552
              ],
              [
                -96.3440244,
                30.594938499999984
              ]
            ]
          ],
          [
            [
              [
                -96.3448331,
                30.59660840000001
              ],
              [
                -96.3446398,
                30.59680189999997
              ],
              [
                -96.3438193,
                30.5961097
              ],
              [
                -96.3445327,
                30.59542630000001
              ],
              [
                -96.3446722,
                30.5955141
              ],
              [
                -96.3448814,
                30.5956988
              ],
              [
                -96.3449887,
                30.595911200000014
              ],
              [
                -96.3450209,
                30.5961328
              ],
              [
                -96.344978,
                30.596396
              ],
              [
                -96.3448331,
                30.59660840000001
              ]
            ]
          ],
          [
            [
              [
                -96.3445971,
                30.596843899999982
              ],
              [
                -96.3444684,
                30.596950100000015
              ],
              [
                -96.3441572,
                30.5970656
              ],
              [
                -96.3438729,
                30.597107100000013
              ],
              [
                -96.3434974,
                30.597074799999984
              ],
              [
                -96.3431648,
                30.596843900000035
              ],
              [
                -96.34306290000002,
                30.5967239
              ],
              [
                -96.3437603,
                30.5961375
              ],
              [
                -96.3445971,
                30.596843899999982
              ]
            ]
          ],
          [
            [
              [
                -96.3457681,
                30.59734629999998
              ],
              [
                -96.34581018364194,
                30.597372750352346
              ],
              [
                -96.34590502801117,
                30.597260642449125
              ],
              [
                -96.3458629,
                30.597234199999985
              ],
              [
                -96.3464261,
                30.5965698
              ],
              [
                -96.3467354,
                30.596764
              ],
              [
                -96.3464879609119,
                30.597055954434296
              ],
              [
                -96.34652562768946,
                30.597079566938344
              ],
              [
                -96.3467726,
                30.596788
              ],
              [
                -96.3470797,
                30.5969808
              ],
              [
                -96.3465168,
                30.597645
              ],
              [
                -96.34647002732436,
                30.597615631938254
              ],
              [
                -96.34637496102722,
                30.59772797134412
              ],
              [
                -96.3464224,
                30.597757899999984
              ],
              [
                -96.3459126,
                30.5983565
              ],
              [
                -96.3456071,
                30.598163799999984
              ],
              [
                -96.34585282464582,
                30.597875170236772
              ],
              [
                -96.3458142363895,
                30.597850982623605
              ],
              [
                -96.3455697,
                30.5981393
              ],
              [
                -96.3452605,
                30.597945100000015
              ],
              [
                -96.3457681,
                30.59734629999998
              ]
            ]
          ],
          [
            [
              [
                -96.3472801,
                30.5983399
              ],
              [
                -96.3478136,
                30.5978736
              ],
              [
                -96.3484987,
                30.598454599999986
              ],
              [
                -96.3479653,
                30.598920800000016
              ],
              [
                -96.3472801,
                30.5983399
              ]
            ]
          ],
          [
            [
              [
                -96.3498689,
                30.600427799999977
              ],
              [
                -96.349296,
                30.6006745
              ],
              [
                -96.3487535,
                30.599741
              ],
              [
                -96.34882283702784,
                30.599711132172214
              ],
              [
                -96.34882283702677,
                30.59971113192857
              ],
              [
                -96.3493262,
                30.599494299999982
              ],
              [
                -96.3498689,
                30.600427799999977
              ]
            ]
          ],
          [
            [
              [
                -96.3479509,
                30.6001237
              ],
              [
                -96.3485236,
                30.5998771
              ],
              [
                -96.3488257600579,
                30.600396698241518
              ],
              [
                -96.34882576004424,
                30.60039669503554
              ],
              [
                -96.3490664,
                30.6008105
              ],
              [
                -96.3484935,
                30.6010572
              ],
              [
                -96.3479509,
                30.6001237
              ]
            ]
          ],
          [
            [
              [
                -96.3471061,
                30.600468599999985
              ],
              [
                -96.3477437,
                30.600189399999987
              ],
              [
                -96.3482646,
                30.6010708
              ],
              [
                -96.3476271,
                30.60135
              ],
              [
                -96.3471061,
                30.600468599999985
              ]
            ]
          ],
          [
            [
              [
                -96.3463855,
                30.600788
              ],
              [
                -96.3470219,
                30.600508799999986
              ],
              [
                -96.3475435,
                30.6013898
              ],
              [
                -96.3469071,
                30.601669
              ],
              [
                -96.3463855,
                30.600788
              ]
            ]
          ],
          [
            [
              [
                -96.3437377,
                30.6039213
              ],
              [
                -96.34365720000001,
                30.60383309999999
              ],
              [
                -96.3443063,
                30.603406
              ],
              [
                -96.3444353,
                30.603547799999987
              ],
              [
                -96.3448996,
                30.6040577
              ],
              [
                -96.3450251,
                30.604195599999983
              ],
              [
                -96.3443841,
                30.60462959999999
              ],
              [
                -96.3443137,
                30.6045525
              ],
              [
                -96.3437377,
                30.6039213
              ]
            ]
          ],
          [
            [
              [
                -96.34139720000002,
                30.6053635
              ],
              [
                -96.3414473,
                30.6053697
              ],
              [
                -96.3414901,
                30.6053859
              ],
              [
                -96.341522,
                30.6054085
              ],
              [
                -96.341582,
                30.6054733
              ],
              [
                -96.3417314,
                30.605646
              ],
              [
                -96.3418798,
                30.60594210000001
              ],
              [
                -96.3420979,
                30.6061759
              ],
              [
                -96.3416086,
                30.6065419
              ],
              [
                -96.3415469,
                30.606565
              ],
              [
                -96.3414959,
                30.606576499999978
              ],
              [
                -96.3414262,
                30.606588099999986
              ],
              [
                -96.3411499,
                30.6065673
              ],
              [
                -96.3410855,
                30.606548800000013
              ],
              [
                -96.3410319,
                30.606523399999976
              ],
              [
                -96.3409568,
                30.6064773
              ],
              [
                -96.3405634,
                30.6060244
              ],
              [
                -96.3408192,
                30.605837599999987
              ],
              [
                -96.3410441,
                30.605577199999985
              ],
              [
                -96.3412553,
                30.6054327
              ],
              [
                -96.3413323,
                30.6053804
              ],
              [
                -96.34139720000002,
                30.6053635
              ]
            ]
          ],
          [
            [
              [
                -96.3392404,
                30.6059005
              ],
              [
                -96.3400909,
                30.60676
              ],
              [
                -96.3390073,
                30.6075164
              ],
              [
                -96.3381756,
                30.6066814
              ],
              [
                -96.3392404,
                30.6059005
              ]
            ]
          ],
          [
            [
              [
                -96.32009487307226,
                30.608415160991438
              ],
              [
                -96.32010157333463,
                30.60840125269482
              ],
              [
                -96.32092808937928,
                30.60765142706067
              ],
              [
                -96.3210622,
                30.607528499999983
              ],
              [
                -96.32106292474782,
                30.607529102737526
              ],
              [
                -96.32107887388842,
                30.607514633478832
              ],
              [
                -96.32213171467278,
                30.608412721611057
              ],
              [
                -96.32257423645983,
                30.60878479651456
              ],
              [
                -96.32261848285873,
                30.608822784781122
              ],
              [
                -96.3230242,
                30.609160199999987
              ],
              [
                -96.32212220000001,
                30.61016020000001
              ],
              [
                -96.3219775266487,
                30.61004209845309
              ],
              [
                -96.32197481762017,
                30.610044477703056
              ],
              [
                -96.32171879197584,
                30.609830884951567
              ],
              [
                -96.3200429,
                30.60846279999998
              ],
              [
                -96.32009487307226,
                30.608415160991438
              ]
            ]
          ],
          [
            [
              [
                -96.334185,
                30.6104067
              ],
              [
                -96.3347018,
                30.610069199999987
              ],
              [
                -96.3354608,
                30.6109303
              ],
              [
                -96.3349441,
                30.611267699999985
              ],
              [
                -96.334185,
                30.6104067
              ]
            ]
          ],
          [
            [
              [
                -96.3257925,
                30.61171319999998
              ],
              [
                -96.3266118,
                30.612401299999988
              ],
              [
                -96.3262566,
                30.6127146
              ],
              [
                -96.3254373,
                30.6120264
              ],
              [
                -96.3257925,
                30.61171319999998
              ]
            ]
          ],
          [
            [
              [
                -96.3379778,
                30.6122479
              ],
              [
                -96.3380225,
                30.6122199
              ],
              [
                -96.338813,
                30.613078
              ],
              [
                -96.338782,
                30.613099299999988
              ],
              [
                -96.33884020000002,
                30.6131639
              ],
              [
                -96.3383768,
                30.613497699999986
              ],
              [
                -96.3374814,
                30.612500699999984
              ],
              [
                -96.337917,
                30.6122088
              ],
              [
                -96.3379305,
                30.6122058
              ],
              [
                -96.3379423,
                30.6122083
              ],
              [
                -96.3379778,
                30.6122479
              ]
            ]
          ],
          [
            [
              [
                -96.299104,
                30.5747208
              ],
              [
                -96.2998553,
                30.5754633
              ],
              [
                -96.2994731,
                30.57575
              ],
              [
                -96.2987218,
                30.575007500000012
              ],
              [
                -96.299104,
                30.5747208
              ]
            ]
          ],
          [
            [
              [
                -96.3066186,
                30.5741364
              ],
              [
                -96.30662052916126,
                30.574138113221615
              ],
              [
                -96.30663396861138,
                30.574129680935897
              ],
              [
                -96.30819332087539,
                30.57548464941339
              ],
              [
                -96.30770813180729,
                30.575921469944372
              ],
              [
                -96.30677228221566,
                30.576765455927056
              ],
              [
                -96.30676166600885,
                30.5767528096796
              ],
              [
                -96.3066657,
                30.5768392
              ],
              [
                -96.3049924,
                30.57512159999998
              ],
              [
                -96.3058124,
                30.5746338
              ],
              [
                -96.3066186,
                30.5741364
              ]
            ]
          ],
          [
            [
              [
                -96.31997057022012,
                30.583218951977333
              ],
              [
                -96.31997040762506,
                30.58321912443473
              ],
              [
                -96.31997024233505,
                30.5832192999855
              ],
              [
                -96.3199211691677,
                30.583273945768426
              ],
              [
                -96.31987484484513,
                30.58333094173345
              ],
              [
                -96.31984097746061,
                30.583376631283354
              ],
              [
                -96.319838286108,
                30.58338042069999
              ],
              [
                -96.31983434969044,
                30.58338601666279
              ],
              [
                -96.3198277704293,
                30.583395426788627
              ],
              [
                -96.31981891124396,
                30.583408093490792
              ],
              [
                -96.31981884117538,
                30.58340819170632
              ],
              [
                -96.31973478671256,
                30.5835283756517
              ],
              [
                -96.31970989978592,
                30.583563960532842
              ],
              [
                -96.31962743534116,
                30.583681868322255
              ],
              [
                -96.319600583799,
                30.583720260398902
              ],
              [
                -96.31960025232065,
                30.58372073678104
              ],
              [
                -96.31948320363577,
                30.583888089833373
              ],
              [
                -96.31944671137398,
                30.583940269812686
              ],
              [
                -96.31938116040938,
                30.584033991552335
              ],
              [
                -96.31935211787625,
                30.58407551708271
              ],
              [
                -96.31935178280465,
                30.58407599500972
              ],
              [
                -96.31921682800119,
                30.584268955940136
              ],
              [
                -96.31919639402342,
                30.584298170523294
              ],
              [
                -96.31917920386215,
                30.58432275122769
              ],
              [
                -96.31917847532846,
                30.584323792147075
              ],
              [
                -96.3190600423397,
                30.58449312236577
              ],
              [
                -96.31905346218025,
                30.584502529290706
              ],
              [
                -96.31904683351176,
                30.584511912241148
              ],
              [
                -96.31900033042446,
                30.584573180959772
              ],
              [
                -96.31895030594124,
                30.584631608387248
              ],
              [
                -96.31889514489121,
                30.584688875769636
              ],
              [
                -96.3188368038051,
                30.584742895092543
              ],
              [
                -96.31877547132906,
                30.584793489266758
              ],
              [
                -96.31877532670029,
                30.584793485400063
              ],
              [
                -96.31877532220874,
                30.584793608360975
              ],
              [
                -96.31874851198907,
                30.5848140059497
              ],
              [
                -96.31874830357994,
                30.584814160617523
              ],
              [
                -96.31867595506358,
                30.58486458771342
              ],
              [
                -96.31860075888778,
                30.584910660889538
              ],
              [
                -96.31859013630954,
                30.584916701433404
              ],
              [
                -96.31857948049364,
                30.584922698669956
              ],
              [
                -96.31848474236715,
                30.584976028818776
              ],
              [
                -96.31845721080032,
                30.584991528049716
              ],
              [
                -96.31819378613145,
                30.5851398123038
              ],
              [
                -96.31816391086005,
                30.58515663082005
              ],
              [
                -96.31804736702836,
                30.58522223445082
              ],
              [
                -96.31803669773771,
                30.58522823940181
              ],
              [
                -96.31803688099404,
                30.585217235609136
              ],
              [
                -96.31803721337069,
                30.585195864475367
              ],
              [
                -96.31803983914627,
                30.58502705594016
              ],
              [
                -96.31804207954458,
                30.584882971514183
              ],
              [
                -96.31804358560115,
                30.58478496054472
              ],
              [
                -96.3176319,
                30.5851681
              ],
              [
                -96.31763041508155,
                30.58516718360861
              ],
              [
                -96.31758545061432,
                30.58520930350478
              ],
              [
                -96.31721918073838,
                30.58491339754269
              ],
              [
                -96.3171918,
                30.584896499999978
              ],
              [
                -96.3190339,
                30.582066799999964
              ],
              [
                -96.3190653128292,
                30.582081342841068
              ],
              [
                -96.31909139354313,
                30.58204044511439
              ],
              [
                -96.31890357019027,
                30.58195078391674
              ],
              [
                -96.3190954763861,
                30.581649848292525
              ],
              [
                -96.31914997447944,
                30.581603195090043
              ],
              [
                -96.32005219145532,
                30.58253822684083
              ],
              [
                -96.320323,
                30.58266359999999
              ],
              [
                -96.319908000689,
                30.58304982339357
              ],
              [
                -96.31995521801193,
                30.58308748211354
              ],
              [
                -96.3200116582629,
                30.583132496641596
              ],
              [
                -96.32002432899998,
                30.583142605129044
              ],
              [
                -96.32003699973706,
                30.583152712068767
              ],
              [
                -96.32003274890914,
                30.583156713392643
              ],
              [
                -96.32003133136764,
                30.583158047425073
              ],
              [
                -96.32002010691814,
                30.5831688039788
              ],
              [
                -96.32001991467868,
                30.583168991903374
              ],
              [
                -96.31997057022012,
                30.583218951977333
              ]
            ]
          ],
          [
            [
              [
                -96.3202133,
                30.59106039999998
              ],
              [
                -96.319711,
                30.591129199999976
              ],
              [
                -96.3195306,
                30.5901529
              ],
              [
                -96.3200329,
                30.590084099999984
              ],
              [
                -96.3202133,
                30.59106039999998
              ]
            ]
          ],
          [
            [
              [
                -96.32072940000002,
                30.5916074
              ],
              [
                -96.3206584,
                30.59117959999998
              ],
              [
                -96.3206748,
                30.5906953
              ],
              [
                -96.3208769,
                30.590601299999985
              ],
              [
                -96.3210845,
                30.5905683
              ],
              [
                -96.3213466,
                30.59061540000001
              ],
              [
                -96.3216088,
                30.590775200000014
              ],
              [
                -96.321729,
                30.5909022
              ],
              [
                -96.3218819,
                30.5910714
              ],
              [
                -96.3218819,
                30.591226599999988
              ],
              [
                -96.3218437,
                30.59141
              ],
              [
                -96.3212647,
                30.591583899999986
              ],
              [
                -96.3208223,
                30.5916545
              ],
              [
                -96.32072940000002,
                30.5916074
              ]
            ]
          ],
          [
            [
              [
                -96.32398855122966,
                30.59886735575082
              ],
              [
                -96.3240769373688,
                30.598941138566452
              ],
              [
                -96.32406395222135,
                30.59895331997076
              ],
              [
                -96.32404622666418,
                30.598979741875244
              ],
              [
                -96.32403453778569,
                30.599010844107312
              ],
              [
                -96.32403111161119,
                30.59904310462093
              ],
              [
                -96.32403279507793,
                30.599052788474083
              ],
              [
                -96.324771,
                30.59973
              ],
              [
                -96.325412,
                30.60065139999997
              ],
              [
                -96.32468080000001,
                30.6010429
              ],
              [
                -96.3234573,
                30.6014757
              ],
              [
                -96.3221956,
                30.600411900000015
              ],
              [
                -96.3224531,
                30.6001755
              ],
              [
                -96.322968,
                30.5996288
              ],
              [
                -96.32351610571799,
                30.599284064318372
              ],
              [
                -96.32398855122966,
                30.59886735575082
              ]
            ]
          ],
          [
            [
              [
                -96.3329146,
                30.60335689999998
              ],
              [
                -96.33291386755971,
                30.60335630772081
              ],
              [
                -96.3328821222741,
                30.603381056908674
              ],
              [
                -96.33228505522386,
                30.602860175468095
              ],
              [
                -96.33229245935462,
                30.60285381332073
              ],
              [
                -96.332264,
                30.6028308
              ],
              [
                -96.3328314,
                30.6023613
              ],
              [
                -96.3334864,
                30.6029044
              ],
              [
                -96.33347888482007,
                30.60291034721741
              ],
              [
                -96.33348226515585,
                30.6029131748706
              ],
              [
                -96.33301366455812,
                30.603278504210284
              ],
              [
                -96.3329146,
                30.60335689999998
              ]
            ]
          ],
          [
            [
              [
                -96.33270880850971,
                30.606618528691623
              ],
              [
                -96.33316975025167,
                30.60699973302496
              ],
              [
                -96.33327098598645,
                30.607083308322313
              ],
              [
                -96.33339975101684,
                30.60718311624503
              ],
              [
                -96.33343295303665,
                30.607203103757563
              ],
              [
                -96.33346728035862,
                30.607217599737503
              ],
              [
                -96.33351052345975,
                30.607230934428987
              ],
              [
                -96.33351349499351,
                30.607231867720547
              ],
              [
                -96.3338589,
                30.6072872
              ],
              [
                -96.33385875672673,
                30.60728845815598
              ],
              [
                -96.33392888954882,
                30.607289506693547
              ],
              [
                -96.33401675466506,
                30.607283129673505
              ],
              [
                -96.3340942559179,
                30.607272592280907
              ],
              [
                -96.33416798334821,
                30.607259542117955
              ],
              [
                -96.33404192456102,
                30.607624398620576
              ],
              [
                -96.33421265836392,
                30.6077184275929
              ],
              [
                -96.33455336419836,
                30.608071426834965
              ],
              [
                -96.33455752339813,
                30.6084647925146
              ],
              [
                -96.3341865551184,
                30.608266226476893
              ],
              [
                -96.3342620809759,
                30.60818321391241
              ],
              [
                -96.33389507336827,
                30.60803608444522
              ],
              [
                -96.3338513478718,
                30.607981011927308
              ],
              [
                -96.33375473406299,
                30.60787778034833
              ],
              [
                -96.3336917521996,
                30.607885561732544
              ],
              [
                -96.3334303,
                30.6081027
              ],
              [
                -96.33338489374962,
                30.608061774096907
              ],
              [
                -96.33337207420985,
                30.608107090070312
              ],
              [
                -96.33321005047193,
                30.60792365161402
              ],
              [
                -96.33318927333774,
                30.60790334548278
              ],
              [
                -96.33316034938223,
                30.60787894781206
              ],
              [
                -96.33311756711682,
                30.60784117068664
              ],
              [
                -96.33308872131471,
                30.607814854028707
              ],
              [
                -96.33305823608724,
                30.60778800929843
              ],
              [
                -96.33302933369129,
                30.60776313146889
              ],
              [
                -96.33300047082122,
                30.607737299558558
              ],
              [
                -96.33296630339939,
                30.60771897189483
              ],
              [
                -96.3329255908524,
                30.607698040237302
              ],
              [
                -96.33288596796183,
                30.607677627363245
              ],
              [
                -96.33285290906107,
                30.607659332160775
              ],
              [
                -96.33281601525233,
                30.607639963040132
              ],
              [
                -96.33277963527996,
                30.607621567320113
              ],
              [
                -96.33273403769446,
                30.60759808731586
              ],
              [
                -96.3326959593623,
                30.60758607232299
              ],
              [
                -96.3325227,
                30.6075395
              ],
              [
                -96.3317498,
                30.60736449999997
              ],
              [
                -96.33167450639034,
                30.607316801009333
              ],
              [
                -96.33165614559178,
                30.607307496567895
              ],
              [
                -96.3316153926206,
                30.607287525858837
              ],
              [
                -96.3315877325947,
                30.60727275851026
              ],
              [
                -96.33156112000442,
                30.60725946093622
              ],
              [
                -96.33153464485633,
                30.60724281093903
              ],
              [
                -96.33150512980937,
                30.607219352491434
              ],
              [
                -96.33147725328948,
                30.607196426745638
              ],
              [
                -96.33145469569436,
                30.60717893940489
              ],
              [
                -96.33144791520061,
                30.607173254019283
              ],
              [
                -96.3313648,
                30.607120599999984
              ],
              [
                -96.33118029999999,
                30.6068806
              ],
              [
                -96.3310379,
                30.606773
              ],
              [
                -96.3310147,
                30.6065667
              ],
              [
                -96.3310383,
                30.6063777
              ],
              [
                -96.33111779999999,
                30.6062429
              ],
              [
                -96.3312515,
                30.6061553
              ],
              [
                -96.3317047,
                30.6060891
              ],
              [
                -96.3317324397797,
                30.60610049399929
              ],
              [
                -96.33173855254438,
                30.60609966175583
              ],
              [
                -96.3317806538868,
                30.606100494458943
              ],
              [
                -96.33182467043741,
                30.60610857794072
              ],
              [
                -96.33185792606922,
                30.60612208288203
              ],
              [
                -96.33188718779131,
                30.606138337982635
              ],
              [
                -96.33191794969989,
                30.606158478252684
              ],
              [
                -96.33208800633365,
                30.606270302944317
              ],
              [
                -96.33243763255147,
                30.60649665055356
              ],
              [
                -96.33247514053464,
                30.606518222865773
              ],
              [
                -96.3325305396382,
                30.60654584652564
              ],
              [
                -96.33257085692648,
                30.60656292652256
              ],
              [
                -96.33262594161968,
                30.60658477849196
              ],
              [
                -96.33270880850971,
                30.606618528691623
              ]
            ]
          ],
          [
            [
              [
                -96.31116203351117,
                30.59131421033058
              ],
              [
                -96.3110533099345,
                30.59121597427631
              ],
              [
                -96.31089609285053,
                30.59109143526361
              ],
              [
                -96.31031038948863,
                30.59062611533875
              ],
              [
                -96.31023842006134,
                30.590570940901667
              ],
              [
                -96.31029480461677,
                30.590554750465575
              ],
              [
                -96.31031444529384,
                30.59054838083277
              ],
              [
                -96.3103003,
                30.590535599999985
              ],
              [
                -96.31060357603887,
                30.590429983382556
              ],
              [
                -96.31060357603764,
                30.590429983057376
              ],
              [
                -96.31076814147337,
                30.590372672567835
              ],
              [
                -96.31078609964042,
                30.590363663601874
              ],
              [
                -96.31164602731997,
                30.589756504178418
              ],
              [
                -96.31164602734081,
                30.589756509644165
              ],
              [
                -96.31194144799615,
                30.589547922461843
              ],
              [
                -96.31216254761955,
                30.589382789088756
              ],
              [
                -96.31216863664179,
                30.58938751174378
              ],
              [
                -96.3122127,
                30.5893564
              ],
              [
                -96.31249875576069,
                30.589643552640954
              ],
              [
                -96.31303859995596,
                30.590062256630453
              ],
              [
                -96.31392732123285,
                30.59075250682587
              ],
              [
                -96.31370407371409,
                30.59085349238377
              ],
              [
                -96.3138296,
                30.5909795
              ],
              [
                -96.3119226,
                30.5920014
              ],
              [
                -96.31116203351117,
                30.59131421033058
              ]
            ]
          ],
          [
            [
              [
                -96.2965134,
                30.595682
              ],
              [
                -96.2968198,
                30.5949488
              ],
              [
                -96.2971402,
                30.59410189999998
              ],
              [
                -96.2978595,
                30.59444159999998
              ],
              [
                -96.2976138,
                30.5948378
              ],
              [
                -96.2972754,
                30.5956377
              ],
              [
                -96.2971464,
                30.596003
              ],
              [
                -96.2969316,
                30.59628509999999
              ],
              [
                -96.2965233,
                30.596618
              ],
              [
                -96.296069,
                30.5961979
              ],
              [
                -96.2965134,
                30.595682
              ]
            ]
          ],
          [
            [
              [
                -96.30235462896827,
                30.60313612984523
              ],
              [
                -96.3025298,
                30.6029854
              ],
              [
                -96.30278483265171,
                30.60284739313212
              ],
              [
                -96.30287075879956,
                30.602789722697278
              ],
              [
                -96.3028791548789,
                30.602796352157355
              ],
              [
                -96.3030853,
                30.6026848
              ],
              [
                -96.3039953,
                30.60344069999997
              ],
              [
                -96.3036725,
                30.6037003
              ],
              [
                -96.30367164345236,
                30.60369962721162
              ],
              [
                -96.3036060127916,
                30.603758227119013
              ],
              [
                -96.30309515166932,
                30.60333650564837
              ],
              [
                -96.30262834033529,
                30.603742345841862
              ],
              [
                -96.30237405153287,
                30.603514419847258
              ],
              [
                -96.30197802474828,
                30.603832747696174
              ],
              [
                -96.30170219793861,
                30.603574017288544
              ],
              [
                -96.30235462896827,
                30.60313612984523
              ]
            ]
          ],
          [
            [
              [
                -96.31403819298309,
                30.620236918978364
              ],
              [
                -96.3140649,
                30.620260500000015
              ],
              [
                -96.31410560751935,
                30.62031231996527
              ],
              [
                -96.31412013562542,
                30.62032698342464
              ],
              [
                -96.31415323315376,
                30.620361584606897
              ],
              [
                -96.31418564706415,
                30.62039669521992
              ],
              [
                -96.31421732705098,
                30.620432261149386
              ],
              [
                -96.31424829467376,
                30.620468331097175
              ],
              [
                -96.3142785310679,
                30.620504839353156
              ],
              [
                -96.3143289301486,
                30.62056630331262
              ],
              [
                -96.31435799603794,
                30.620603554435835
              ],
              [
                -96.31438629566433,
                30.620641260099802
              ],
              [
                -96.31441381555307,
                30.620679356140688
              ],
              [
                -96.31444059882325,
                30.62071788894113
              ],
              [
                -96.3144665682198,
                30.620756809025288
              ],
              [
                -96.3144917812349,
                30.62079611639274
              ],
              [
                -96.31451615881676,
                30.62083580949681
              ],
              [
                -96.31453975037275,
                30.620875847365397
              ],
              [
                -96.31456252985173,
                30.620916247778197
              ],
              [
                -96.31467553971112,
                30.621134303499225
              ],
              [
                -96.31492816426369,
                30.62163466998823
              ],
              [
                -96.3150908,
                30.6219396
              ],
              [
                -96.314097,
                30.62279919999996
              ],
              [
                -96.31408101605473,
                30.62277195173639
              ],
              [
                -96.31407743241176,
                30.622774919103474
              ],
              [
                -96.31402186246852,
                30.622671111019027
              ],
              [
                -96.31379660000002,
                30.622287099999987
              ],
              [
                -96.3133836,
                30.6215023
              ],
              [
                -96.312874,
                30.6206159
              ],
              [
                -96.3136625,
                30.6199052
              ],
              [
                -96.3137589583227,
                30.619990368096545
              ],
              [
                -96.31400540369565,
                30.620199586896632
              ],
              [
                -96.31403819298309,
                30.620236918978364
              ]
            ]
          ],
          [
            [
              [
                -96.29726246778463,
                30.626548018278207
              ],
              [
                -96.29726221266309,
                30.626564818010795
              ],
              [
                -96.29726518608669,
                30.626586236448187
              ],
              [
                -96.29726461655478,
                30.626606670072057
              ],
              [
                -96.2972589338123,
                30.626622700654416
              ],
              [
                -96.2972489705975,
                30.626637063089145
              ],
              [
                -96.29723484548796,
                30.626649527021698
              ],
              [
                -96.29683388695247,
                30.62700324261559
              ],
              [
                -96.29681147129118,
                30.627022488047473
              ],
              [
                -96.29679730306253,
                30.627034103947327
              ],
              [
                -96.2967829075601,
                30.627045481761197
              ],
              [
                -96.296768279394,
                30.627056646225263
              ],
              [
                -96.29675344820868,
                30.627067600431616
              ],
              [
                -96.29673836459673,
                30.627078315779286
              ],
              [
                -96.29672310311838,
                30.627088818550366
              ],
              [
                -96.29670760987466,
                30.62709906468382
              ],
              [
                -96.29669192079822,
                30.62710909437584
              ],
              [
                -96.29667602421095,
                30.627118889847473
              ],
              [
                -96.29657196247015,
                30.62718449907474
              ],
              [
                -96.29655357934615,
                30.62718979412915
              ],
              [
                -96.29653424939788,
                30.627191088132225
              ],
              [
                -96.29651514582504,
                30.62718828755092
              ],
              [
                -96.29649739780999,
                30.627181585635146
              ],
              [
                -96.2964820527883,
                30.627171358835426
              ],
              [
                -96.29622251333302,
                30.626942061024607
              ],
              [
                -96.29678100582663,
                30.62644343595413
              ],
              [
                -96.29688418901512,
                30.626352289931134
              ],
              [
                -96.29716235413947,
                30.626106554457753
              ],
              [
                -96.29753914529887,
                30.626439633534584
              ],
              [
                -96.29752370236083,
                30.62645327091646
              ],
              [
                -96.29750813276034,
                30.626443245794444
              ],
              [
                -96.29749127677235,
                30.62643489886897
              ],
              [
                -96.29747338772177,
                30.626428397882755
              ],
              [
                -96.29745470096722,
                30.626423866517257
              ],
              [
                -96.29743553451232,
                30.62642131559499
              ],
              [
                -96.29741612191904,
                30.626420776036298
              ],
              [
                -96.29739678208928,
                30.62642232591483
              ],
              [
                -96.29737783302667,
                30.626425879426865
              ],
              [
                -96.29735949392015,
                30.626431424203982
              ],
              [
                -96.29734210702783,
                30.62643885820898
              ],
              [
                -96.29732586728413,
                30.626448070901475
              ],
              [
                -96.29731106843813,
                30.626458888354602
              ],
              [
                -96.29729787667821,
                30.626471244862184
              ],
              [
                -96.29728654083762,
                30.626484873736487
              ],
              [
                -96.29727719835867,
                30.626499575541423
              ],
              [
                -96.29726999566671,
                30.626515168620074
              ],
              [
                -96.29726507289898,
                30.62653141102113
              ],
              [
                -96.29726246778463,
                30.626548018278207
              ]
            ]
          ],
          [
            [
              [
                -96.31723917241885,
                30.628749320554494
              ],
              [
                -96.31723807209394,
                30.628766595118893
              ],
              [
                -96.31723685308009,
                30.62881122202676
              ],
              [
                -96.3172370558104,
                30.628823935985203
              ],
              [
                -96.31728878661987,
                30.629094321641514
              ],
              [
                -96.31729990313497,
                30.629134288595345
              ],
              [
                -96.31731256129561,
                30.62917908770921
              ],
              [
                -96.31732418908867,
                30.629225532486096
              ],
              [
                -96.31734852894128,
                30.629316639472748
              ],
              [
                -96.31735198206522,
                30.62933408648494
              ],
              [
                -96.3173498000574,
                30.629354516436674
              ],
              [
                -96.31734033900082,
                30.629372741836104
              ],
              [
                -96.3173241801055,
                30.629388068545616
              ],
              [
                -96.31732404795838,
                30.629388132986072
              ],
              [
                -96.3173239,
                30.6293925
              ],
              [
                -96.31726380000002,
                30.629471
              ],
              [
                -96.3170296,
                30.6292868
              ],
              [
                -96.31707290000001,
                30.6291701
              ],
              [
                -96.3170714,
                30.629087
              ],
              [
                -96.316922,
                30.6286597
              ],
              [
                -96.3167755,
                30.6281705
              ],
              [
                -96.3167325,
                30.627767499999973
              ],
              [
                -96.3166004,
                30.627128700000018
              ],
              [
                -96.3166013,
                30.62675880000001
              ],
              [
                -96.3166155,
                30.626298299999984
              ],
              [
                -96.3166562,
                30.62622169999998
              ],
              [
                -96.3167483,
                30.6261627
              ],
              [
                -96.3169661,
                30.6263691
              ],
              [
                -96.31698650000001,
                30.626481
              ],
              [
                -96.31694418079435,
                30.626873460252405
              ],
              [
                -96.3169530546206,
                30.626997541724812
              ],
              [
                -96.31702293187162,
                30.627248126285018
              ],
              [
                -96.31705670998848,
                30.627376119825783
              ],
              [
                -96.3172665,
                30.6277724
              ],
              [
                -96.3172797187949,
                30.62796123992707
              ],
              [
                -96.31728582114455,
                30.627959430690815
              ],
              [
                -96.31735351189616,
                30.62819506617668
              ],
              [
                -96.31730144464397,
                30.628418925347393
              ],
              [
                -96.31728731594119,
                30.62848374447014
              ],
              [
                -96.31726916009099,
                30.62856641265473
              ],
              [
                -96.31725771555425,
                30.628616344680196
              ],
              [
                -96.31724545200076,
                30.628664475070597
              ],
              [
                -96.31723917241885,
                30.628749320554494
              ]
            ]
          ],
          [
            [
              [
                -96.30756036314898,
                30.631314478583292
              ],
              [
                -96.30753176377092,
                30.631339356510797
              ],
              [
                -96.30733595798846,
                30.63150967742672
              ],
              [
                -96.30718189062901,
                30.631643779999216
              ],
              [
                -96.30717962867114,
                30.631645747195204
              ],
              [
                -96.30717706218435,
                30.631643632362888
              ],
              [
                -96.30703281335741,
                30.63152472193165
              ],
              [
                -96.307009,
                30.6315366
              ],
              [
                -96.3064228,
                30.6313685
              ],
              [
                -96.3052757,
                30.6306243
              ],
              [
                -96.30578960000001,
                30.63014479999999
              ],
              [
                -96.3062383,
                30.6303285
              ],
              [
                -96.3064838,
                30.6303655
              ],
              [
                -96.3070018,
                30.6304437
              ],
              [
                -96.3070112,
                30.6304468
              ],
              [
                -96.3074252,
                30.63058379999999
              ],
              [
                -96.30760389459745,
                30.630726308675396
              ],
              [
                -96.30761771008574,
                30.630735670115744
              ],
              [
                -96.30764177505388,
                30.630755812225964
              ],
              [
                -96.3076560245096,
                30.63076788220271
              ],
              [
                -96.3082647,
                30.6312533
              ],
              [
                -96.3079462,
                30.6315148
              ],
              [
                -96.30756036314898,
                30.631314478583292
              ]
            ]
          ],
          [
            [
              [
                -96.30701981389052,
                30.63547410466189
              ],
              [
                -96.30783542128641,
                30.63496548385806
              ],
              [
                -96.30902789170696,
                30.63421860981281
              ],
              [
                -96.30903020484803,
                30.634220716685956
              ],
              [
                -96.309045,
                30.63421120000001
              ],
              [
                -96.30950889540098,
                30.634656552264012
              ],
              [
                -96.30952059608074,
                30.63466719483165
              ],
              [
                -96.3095777702553,
                30.634721608309643
              ],
              [
                -96.30958718669746,
                30.63473171404844
              ],
              [
                -96.3099231,
                30.6350542
              ],
              [
                -96.3076912,
                30.6364534
              ],
              [
                -96.3069187,
                30.6355789
              ],
              [
                -96.3070415055283,
                30.63549990779709
              ],
              [
                -96.30701981389052,
                30.63547410466189
              ]
            ]
          ],
          [
            [
              [
                -96.3429467,
                30.607721699999935
              ],
              [
                -96.3429521,
                30.6077863
              ],
              [
                -96.3429747,
                30.607877
              ],
              [
                -96.34259819999998,
                30.608169
              ],
              [
                -96.3423781,
                30.6078925
              ],
              [
                -96.34219029999998,
                30.607703199999982
              ],
              [
                -96.34243709999998,
                30.6075324
              ],
              [
                -96.34238879999998,
                30.60748159999998
              ],
              [
                -96.34221019999998,
                30.6076241
              ],
              [
                -96.3417664,
                30.607125
              ],
              [
                -96.34183339999998,
                30.607075899999977
              ],
              [
                -96.34178579999998,
                30.60701909999994
              ],
              [
                -96.3416005,
                30.6071418
              ],
              [
                -96.34140249999999,
                30.60691409999997
              ],
              [
                -96.3420658,
                30.606474
              ],
              [
                -96.34214249999998,
                30.60655490000001
              ],
              [
                -96.3422581,
                30.60647359999997
              ],
              [
                -96.3421774,
                30.6063854
              ],
              [
                -96.34260759999998,
                30.60608429999994
              ],
              [
                -96.34281379999999,
                30.6063218
              ],
              [
                -96.3426597,
                30.6064416
              ],
              [
                -96.34271529999998,
                30.606505300000013
              ],
              [
                -96.3429199,
                30.6063689
              ],
              [
                -96.3430813,
                30.606254299999957
              ],
              [
                -96.3432484,
                30.6064399
              ],
              [
                -96.34351739999998,
                30.606729299999984
              ],
              [
                -96.34329889999998,
                30.606872800000012
              ],
              [
                -96.3433329,
                30.606913700000035
              ],
              [
                -96.3435314,
                30.6067844
              ],
              [
                -96.34366549999999,
                30.606918299999986
              ],
              [
                -96.34372449999998,
                30.606886
              ],
              [
                -96.3437889,
                30.60695059999998
              ],
              [
                -96.34384259999999,
                30.6069183
              ],
              [
                -96.34395519999998,
                30.607052199999973
              ],
              [
                -96.3439177,
                30.6070984
              ],
              [
                -96.34396589999999,
                30.607149199999974
              ],
              [
                -96.3439123,
                30.6071815
              ],
              [
                -96.3439499,
                30.607227600000012
              ],
              [
                -96.343349,
                30.607647800000034
              ],
              [
                -96.3433061,
                30.607601600000017
              ],
              [
                -96.3431774,
                30.607684699999947
              ],
              [
                -96.3431237,
                30.6076247
              ],
              [
                -96.3430701,
                30.6076663
              ],
              [
                -96.34301109999998,
                30.607694
              ],
              [
                -96.34299069999999,
                30.607702799999977
              ],
              [
                -96.3429467,
                30.607721699999935
              ]
            ]
          ],
          [
            [
              [
                -96.3402267,
                30.60930929999999
              ],
              [
                -96.3409957,
                30.6101436
              ],
              [
                -96.3405377,
                30.61045629999999
              ],
              [
                -96.3397688,
                30.609622
              ],
              [
                -96.3402267,
                30.60930929999999
              ]
            ]
          ],
          [
            [
              [
                -96.350218,
                30.613360599999968
              ],
              [
                -96.3505469,
                30.6137419
              ],
              [
                -96.35054020000001,
                30.6137743
              ],
              [
                -96.3503659,
                30.6139531
              ],
              [
                -96.3500896,
                30.6142855
              ],
              [
                -96.3500454,
                30.6143444
              ],
              [
                -96.34982570000001,
                30.61456379999999
              ],
              [
                -96.3496548,
                30.61472579999998
              ],
              [
                -96.3492266,
                30.6150946
              ],
              [
                -96.3490482,
                30.615237699999984
              ],
              [
                -96.3488641,
                30.615374799999984
              ],
              [
                -96.3483298,
                30.6148189
              ],
              [
                -96.34888568454761,
                30.614451359160032
              ],
              [
                -96.34888568452534,
                30.614451353940822
              ],
              [
                -96.349797,
                30.6138488
              ],
              [
                -96.3493007,
                30.613350200000014
              ],
              [
                -96.349868,
                30.61280749999998
              ],
              [
                -96.34992439102597,
                30.612903600133144
              ],
              [
                -96.3499243910271,
                30.61290360039963
              ],
              [
                -96.3500333,
                30.6130892
              ],
              [
                -96.350218,
                30.613360599999968
              ]
            ]
          ],
          [
            [
              [
                -96.3704722,
                30.614200199999985
              ],
              [
                -96.3707181,
                30.61477540000001
              ],
              [
                -96.3696819,
                30.615103499999975
              ],
              [
                -96.369436,
                30.614528299999975
              ],
              [
                -96.3704722,
                30.614200199999985
              ]
            ]
          ],
          [
            [
              [
                -96.3423288,
                30.6158862
              ],
              [
                -96.3419642,
                30.6161468
              ],
              [
                -96.3417283,
                30.6158913
              ],
              [
                -96.3415205,
                30.6160282
              ],
              [
                -96.341185,
                30.6160347
              ],
              [
                -96.3408102,
                30.6156163
              ],
              [
                -96.3403919,
                30.6151667
              ],
              [
                -96.3408213,
                30.6148725
              ],
              [
                -96.3406644,
                30.61471620000001
              ],
              [
                -96.3409125,
                30.6145458
              ],
              [
                -96.3410275,
                30.6144964
              ],
              [
                -96.341124,
                30.6144549
              ],
              [
                -96.3424149,
                30.615825100000013
              ],
              [
                -96.3423288,
                30.6158862
              ]
            ]
          ],
          [
            [
              [
                -96.3701518,
                30.615993599999985
              ],
              [
                -96.3699339,
                30.615476699999977
              ],
              [
                -96.3708031,
                30.6152053
              ],
              [
                -96.371021,
                30.61572220000001
              ],
              [
                -96.3701518,
                30.615993599999985
              ]
            ]
          ],
          [
            [
              [
                -96.3402912,
                30.617375099999986
              ],
              [
                -96.3403923,
                30.617265500000013
              ],
              [
                -96.3406955,
                30.6171124
              ],
              [
                -96.3411928,
                30.61765
              ],
              [
                -96.3406733,
                30.618007700000014
              ],
              [
                -96.3401962,
                30.6174865
              ],
              [
                -96.3402912,
                30.617375099999986
              ]
            ]
          ],
          [
            [
              [
                -96.3501597929344,
                30.620405882203716
              ],
              [
                -96.35015010067038,
                30.620413514863856
              ],
              [
                -96.3501506,
                30.620414
              ],
              [
                -96.35007103929811,
                30.620475775712496
              ],
              [
                -96.3500306295696,
                30.620507598382897
              ],
              [
                -96.34997876354004,
                30.620548442682242
              ],
              [
                -96.34981925777988,
                30.62067405222648
              ],
              [
                -96.3498790587757,
                30.620732250474397
              ],
              [
                -96.34995815969205,
                30.62080003419014
              ],
              [
                -96.34995815969488,
                30.620800034851225
              ],
              [
                -96.3502767,
                30.621073
              ],
              [
                -96.35025527698245,
                30.621098357081447
              ],
              [
                -96.35026200773902,
                30.621104906760642
              ],
              [
                -96.3501694947395,
                30.621216700437046
              ],
              [
                -96.35007697994332,
                30.62132847388512
              ],
              [
                -96.34951072061578,
                30.62200747231269
              ],
              [
                -96.34930526692715,
                30.62181484705676
              ],
              [
                -96.34962660328742,
                30.620890188234487
              ],
              [
                -96.34967883133804,
                30.62073919889899
              ],
              [
                -96.34968860800365,
                30.62071091761901
              ],
              [
                -96.3496893,
                30.6207048
              ],
              [
                -96.3497483,
                30.6204255
              ],
              [
                -96.3498797,
                30.6201508
              ],
              [
                -96.34988160575392,
                30.62015265158518
              ],
              [
                -96.34988580677276,
                30.620140499854376
              ],
              [
                -96.3501597929344,
                30.620405882203716
              ]
            ]
          ],
          [
            [
              [
                -96.33348089999998,
                30.6153023
              ],
              [
                -96.3340187,
                30.6159022
              ],
              [
                -96.3337028,
                30.6161246
              ],
              [
                -96.3334999,
                30.61591219999998
              ],
              [
                -96.3333231,
                30.6160358
              ],
              [
                -96.33319179999998,
                30.6158863
              ],
              [
                -96.3330723,
                30.615968799999983
              ],
              [
                -96.33285820000002,
                30.6157342
              ],
              [
                -96.33348089999998,
                30.6153023
              ]
            ]
          ],
          [
            [
              [
                -96.3376575,
                30.6179057
              ],
              [
                -96.3376842,
                30.6179282
              ],
              [
                -96.3377245,
                30.6179473
              ],
              [
                -96.337774,
                30.61795280000002
              ],
              [
                -96.3378756,
                30.6180713
              ],
              [
                -96.3378206,
                30.6181634
              ],
              [
                -96.3374925,
                30.6183846
              ],
              [
                -96.3374777,
                30.6183754
              ],
              [
                -96.3374611,
                30.61836950000002
              ],
              [
                -96.3374406,
                30.6183681
              ],
              [
                -96.3374211,
                30.618371699999987
              ],
              [
                -96.33734250000002,
                30.618422899999977
              ],
              [
                -96.3373344,
                30.618431199999986
              ],
              [
                -96.3373283,
                30.6184421
              ],
              [
                -96.3373246,
                30.6184605
              ],
              [
                -96.3373259,
                30.618475
              ],
              [
                -96.3373343,
                30.6184922
              ],
              [
                -96.3370969,
                30.6186523
              ],
              [
                -96.336864,
                30.6186314
              ],
              [
                -96.3368138,
                30.6185769
              ],
              [
                -96.3368113,
                30.618552099999988
              ],
              [
                -96.33680430000001,
                30.618527
              ],
              [
                -96.3367914,
                30.618505500000015
              ],
              [
                -96.3367627,
                30.6184764
              ],
              [
                -96.3367321,
                30.618458
              ],
              [
                -96.336694,
                30.618446799999987
              ],
              [
                -96.33661030000002,
                30.6183522
              ],
              [
                -96.3366462,
                30.6181112
              ],
              [
                -96.3367688,
                30.6180331
              ],
              [
                -96.3368073,
                30.6180629
              ],
              [
                -96.3368288,
                30.6180693
              ],
              [
                -96.3368518,
                30.6180681
              ],
              [
                -96.3369929,
                30.617976
              ],
              [
                -96.3370069,
                30.6179575
              ],
              [
                -96.3370086,
                30.617932499999952
              ],
              [
                -96.3369979,
                30.617911
              ],
              [
                -96.3369793,
                30.617887199999984
              ],
              [
                -96.3372189,
                30.6177277
              ],
              [
                -96.3375157,
                30.6176678
              ],
              [
                -96.33762,
                30.617784
              ],
              [
                -96.3376178,
                30.61782339999999
              ],
              [
                -96.3376243,
                30.6178576
              ],
              [
                -96.3376378,
                30.61788470000002
              ],
              [
                -96.3376575,
                30.6179057
              ]
            ]
          ],
          [
            [
              [
                -96.3386802,
                30.620281799999983
              ],
              [
                -96.33862520000001,
                30.6202517
              ],
              [
                -96.3384065,
                30.6203966
              ],
              [
                -96.3383506,
                30.6203742
              ],
              [
                -96.3383,
                30.62036949999997
              ],
              [
                -96.3382349,
                30.6203892
              ],
              [
                -96.3381079,
                30.6204655
              ],
              [
                -96.3379321,
                30.62028570000002
              ],
              [
                -96.3379265,
                30.620169299999986
              ],
              [
                -96.337954,
                30.62013969999997
              ],
              [
                -96.3382368,
                30.61993220000001
              ],
              [
                -96.33843480000002,
                30.6197189
              ],
              [
                -96.33853720000002,
                30.619833
              ],
              [
                -96.3385889,
                30.619796
              ],
              [
                -96.33892620000002,
                30.620158299999986
              ],
              [
                -96.3389879,
                30.620116800000012
              ],
              [
                -96.3392078,
                30.620353200000014
              ],
              [
                -96.3395344,
                30.620127799999985
              ],
              [
                -96.3399843,
                30.6206028
              ],
              [
                -96.3394804,
                30.6210323
              ],
              [
                -96.3390879,
                30.62062290000002
              ],
              [
                -96.3389014,
                30.620489
              ],
              [
                -96.3387338,
                30.620319299999966
              ],
              [
                -96.3386802,
                30.620281799999983
              ]
            ]
          ],
          [
            [
              [
                -96.32453995604568,
                30.625592595438345
              ],
              [
                -96.32455987705542,
                30.625606235275598
              ],
              [
                -96.32457212924827,
                30.625616758736562
              ],
              [
                -96.3254278,
                30.626259399999984
              ],
              [
                -96.3254527,
                30.6263155
              ],
              [
                -96.3254278,
                30.626346900000012
              ],
              [
                -96.3247738,
                30.6264739
              ],
              [
                -96.3246357,
                30.62646569999998
              ],
              [
                -96.3243711,
                30.626398
              ],
              [
                -96.3240969,
                30.6262247
              ],
              [
                -96.3232933,
                30.62564389999999
              ],
              [
                -96.3230574,
                30.6255564
              ],
              [
                -96.3229577,
                30.6254937
              ],
              [
                -96.322881,
                30.6251768
              ],
              [
                -96.3223977,
                30.62425759999998
              ],
              [
                -96.3221618,
                30.623468800000015
              ],
              [
                -96.3220084,
                30.6232229
              ],
              [
                -96.3215788,
                30.6228466
              ],
              [
                -96.3210706,
                30.6224852
              ],
              [
                -96.32008680000001,
                30.6218696
              ],
              [
                -96.32014023005706,
                30.621790948405348
              ],
              [
                -96.32013865489125,
                30.621784103109636
              ],
              [
                -96.32014052518367,
                30.621756597434196
              ],
              [
                -96.32014311233168,
                30.6217466568606
              ],
              [
                -96.32019137432034,
                30.621683644469222
              ],
              [
                -96.3202972255052,
                30.62154225373462
              ],
              [
                -96.3203263075642,
                30.621504950405534
              ],
              [
                -96.3203420712008,
                30.62149165942417
              ],
              [
                -96.32034410875666,
                30.621490829226595
              ],
              [
                -96.3204052,
                30.621400899999987
              ],
              [
                -96.3204223,
                30.6214117
              ],
              [
                -96.3206564,
                30.62155940000001
              ],
              [
                -96.3209767,
                30.6216864
              ],
              [
                -96.3212797,
                30.621773900000015
              ],
              [
                -96.3214849,
                30.6218729
              ],
              [
                -96.3220583,
                30.6223004
              ],
              [
                -96.32210766836339,
                30.622323560038783
              ],
              [
                -96.3221076687223,
                30.622323560037714
              ],
              [
                -96.32237253321169,
                30.622447814247312
              ],
              [
                -96.3223829006942,
                30.6224496428342
              ],
              [
                -96.32240691535668,
                30.62245740955161
              ],
              [
                -96.32242505503723,
                30.622466996773678
              ],
              [
                -96.3224498503357,
                30.622483804945066
              ],
              [
                -96.32245090146496,
                30.62248457865235
              ],
              [
                -96.3225684,
                30.6225397
              ],
              [
                -96.3227295,
                30.6226915
              ],
              [
                -96.32282283728044,
                30.623221341862028
              ],
              [
                -96.32282283618626,
                30.623221341865303
              ],
              [
                -96.3229769,
                30.6240959
              ],
              [
                -96.3230536,
                30.6242576
              ],
              [
                -96.3235733,
                30.6248666
              ],
              [
                -96.32453995604568,
                30.625592595438345
              ]
            ]
          ],
          [
            [
              [
                -96.3366166,
                30.625136599999987
              ],
              [
                -96.3360521,
                30.625600499999972
              ],
              [
                -96.3351068,
                30.6248163
              ],
              [
                -96.3356668,
                30.624310099999988
              ],
              [
                -96.3366166,
                30.625136599999987
              ]
            ]
          ],
          [
            [
              [
                -96.321008,
                30.6294918
              ],
              [
                -96.32265950000001,
                30.62800329999999
              ],
              [
                -96.3236177,
                30.6288039
              ],
              [
                -96.3225886,
                30.62974250000001
              ],
              [
                -96.3224892,
                30.6296603
              ],
              [
                -96.3222805,
                30.6294879
              ],
              [
                -96.3216766,
                30.6300208
              ],
              [
                -96.321562,
                30.6299302
              ],
              [
                -96.3210935,
                30.6295595
              ],
              [
                -96.321008,
                30.6294918
              ]
            ]
          ],
          [
            [
              [
                -96.3297890918646,
                30.632276985058493
              ],
              [
                -96.32974977593011,
                30.63231241100879
              ],
              [
                -96.32923606265679,
                30.631875469811977
              ],
              [
                -96.32927458740023,
                30.631841325987192
              ],
              [
                -96.329252,
                30.631822199999984
              ],
              [
                -96.3298282,
                30.6312824
              ],
              [
                -96.32986831989908,
                30.631315110973205
              ],
              [
                -96.32987920878952,
                30.63130546033481
              ],
              [
                -96.33038907278186,
                30.6317363672546
              ],
              [
                -96.33038713302722,
                30.631738115086677
              ],
              [
                -96.3303957,
                30.63174509999998
              ],
              [
                -96.3297897,
                30.6322775
              ],
              [
                -96.3297890918646,
                30.632276985058493
              ]
            ]
          ],
          [
            [
              [
                -96.3331138707605,
                30.634008790247382
              ],
              [
                -96.33410731602295,
                30.634841213689946
              ],
              [
                -96.33292979839011,
                30.635925796597594
              ],
              [
                -96.3329293002713,
                30.635925145673962
              ],
              [
                -96.3329109,
                30.6359421
              ],
              [
                -96.331963,
                30.6349225
              ],
              [
                -96.3330841,
                30.633992499999984
              ],
              [
                -96.33310900187917,
                30.634013345752265
              ],
              [
                -96.3331138707605,
                30.634008790247382
              ]
            ]
          ]
        ]
      }
    }
  ]
}