{
  "type": "FeatureCollection",
  "name": "Dallas_1",
  "crs": {
    "type": "name",
    "properties": {
      "name": "urn:ogc:def:crs:OGC:1.3:CRS84"
    }
  },
  "features": [
    {
      "type": "Feature",
      "properties": {
        "largest_city": "Dallas_1",
        "all_cities": "Dallas_1",
        "total_area_ft2": 19862805.59295995
      },
      "geometry": {
        "type": "MultiPolygon",
        "coordinates": [
          [
            [
              [
                -96.87939095793682,
                32.72348777610837
              ],
              [
                -96.87932145887656,
                32.72348777761982
              ],
              [
                -96.87932145797825,
                32.723481777020304
              ],
              [
                -96.87932145797825,
                32.723476538725706
              ],
              [
                -96.879263,
                32.7234781
              ],
              [
                -96.87926387391313,
                32.72307930430972
              ],
              [
                -96.8792459581719,
                32.723063777588926
              ],
              [
                -96.8792459590702,
                32.72303927628135
              ],
              [
                -96.87925193442948,
                32.72224602777264
              ],
              [
                -96.8781257,
                32.7222483
              ],
              [
                -96.8789733,
                32.7205153
              ],
              [
                -96.87902519770897,
                32.720515675732024
              ],
              [
                -96.87903322004462,
                32.72049896957666
              ],
              [
                -96.88058420360346,
                32.72049433898404
              ],
              [
                -96.88058587792085,
                32.7205269748348
              ],
              [
                -96.88130760000001,
                32.72053219999999
              ],
              [
                -96.881305,
                32.7210738
              ],
              [
                -96.8809321,
                32.7210716
              ],
              [
                -96.8809308,
                32.7216312
              ],
              [
                -96.8805742063624,
                32.72163217585488
              ],
              [
                -96.88056279225867,
                32.72166838868028
              ],
              [
                -96.88052008264333,
                32.721722690475836
              ],
              [
                -96.88071564867354,
                32.72284362620081
              ],
              [
                -96.8814632,
                32.7228418
              ],
              [
                -96.8813491,
                32.72287559999998
              ],
              [
                -96.8811439,
                32.722932
              ],
              [
                -96.8809333,
                32.7230144
              ],
              [
                -96.88076238350519,
                32.72311149860341
              ],
              [
                -96.88077045759952,
                32.72315777729909
              ],
              [
                -96.88075095786965,
                32.72317027657781
              ],
              [
                -96.88073995799898,
                32.72317677674615
              ],
              [
                -96.88073545833777,
                32.723179277508365
              ],
              [
                -96.88070295818908,
                32.72319977710545
              ],
              [
                -96.8806564577967,
                32.72322527746413
              ],
              [
                -96.88064545882438,
                32.72323177762845
              ],
              [
                -96.88058545765159,
                32.72326127662428
              ],
              [
                -96.88052745792528,
                32.723288777421494
              ],
              [
                -96.8805149578681,
                32.72329377742811
              ],
              [
                -96.8804649585377,
                32.72331577715164
              ],
              [
                -96.88040095716696,
                32.72333977656903
              ],
              [
                -96.88037495722769,
                32.723350277634616
              ],
              [
                -96.88033845777939,
                32.72336427628249
              ],
              [
                -96.88027545713189,
                32.72338677629102
              ],
              [
                -96.8802409573334,
                32.723397277351104
              ],
              [
                -96.88020845808305,
                32.72340727735193
              ],
              [
                -96.880143957249,
                32.72342527689712
              ],
              [
                -96.88011445837172,
                32.72343277689546
              ],
              [
                -96.88007645694026,
                32.72344177704375
              ],
              [
                -96.88001145843958,
                32.72345527688672
              ],
              [
                -96.87997945775419,
                32.723462277336274
              ],
              [
                -96.87997845792927,
                32.72346277688254
              ],
              [
                -96.87987745854527,
                32.7234787767204
              ],
              [
                -96.87983795692726,
                32.72348277762408
              ],
              [
                -96.87980845804995,
                32.72348577716815
              ],
              [
                -96.87973995791629,
                32.72348977807152
              ],
              [
                -96.87970395793127,
                32.723489777315734
              ],
              [
                -96.87966995849442,
                32.72348977731576
              ],
              [
                -96.87961695699434,
                32.723489277769644
              ],
              [
                -96.87955295831853,
                32.72348877671206
              ],
              [
                -96.87939095793682,
                32.72348777610837
              ]
            ]
          ],
          [
            [
              [
                -96.90882095062413,
                32.72758177767257
              ],
              [
                -96.90876695019745,
                32.72745377722249
              ],
              [
                -96.90872445000306,
                32.72729177792443
              ],
              [
                -96.90875595032682,
                32.72512427869721
              ],
              [
                -96.90878945030039,
                32.72512477823416
              ],
              [
                -96.90880595145383,
                32.725125277771134
              ],
              [
                -96.90960895099474,
                32.72512677713765
              ],
              [
                -96.91101995008286,
                32.72635577764382
              ],
              [
                -96.9109954503301,
                32.727749277234096
              ],
              [
                -96.90894445011108,
                32.727741777598844
              ],
              [
                -96.9089039495665,
                32.727673776796195
              ],
              [
                -96.90882095062413,
                32.72758177767257
              ]
            ]
          ],
          [
            [
              [
                -96.77415952886254,
                32.6717650519186
              ],
              [
                -96.77462745320919,
                32.67154744164882
              ],
              [
                -96.77567204476428,
                32.67309469416558
              ],
              [
                -96.77560521280208,
                32.673503322857705
              ],
              [
                -96.77556033566543,
                32.67354005136199
              ],
              [
                -96.77550207363106,
                32.67350811543992
              ],
              [
                -96.77546803302428,
                32.67346032157517
              ],
              [
                -96.7754373,
                32.67352140000002
              ],
              [
                -96.7741062,
                32.674158
              ],
              [
                -96.77409510236696,
                32.67414063162462
              ],
              [
                -96.77391812459622,
                32.67422876473409
              ],
              [
                -96.77252362845817,
                32.672233175920596
              ],
              [
                -96.77398728858489,
                32.67152708520277
              ],
              [
                -96.77415952886254,
                32.6717650519186
              ]
            ]
          ],
          [
            [
              [
                -96.7698102,
                32.6991109
              ],
              [
                -96.7705398,
                32.69876109999998
              ],
              [
                -96.7699524,
                32.6979214
              ],
              [
                -96.76997438610405,
                32.69791067328188
              ],
              [
                -96.76996406949891,
                32.697895682829156
              ],
              [
                -96.77065075158357,
                32.697557536069155
              ],
              [
                -96.77094276730746,
                32.69798562315826
              ],
              [
                -96.77094414808262,
                32.697984966271335
              ],
              [
                -96.77094098647208,
                32.697980277716866
              ],
              [
                -96.77229998747832,
                32.69731927747995
              ],
              [
                -96.77230148676652,
                32.69731827658264
              ],
              [
                -96.77345648665991,
                32.69675677749161
              ],
              [
                -96.77347748747462,
                32.696745776623246
              ],
              [
                -96.77433048724426,
                32.69799777741245
              ],
              [
                -96.77314748686344,
                32.69857727779167
              ],
              [
                -96.77230346979437,
                32.69899010880123
              ],
              [
                -96.7704084,
                32.69993479999999
              ],
              [
                -96.7703252,
                32.699937
              ],
              [
                -96.7702635,
                32.69990089999998
              ],
              [
                -96.770226,
                32.699761
              ],
              [
                -96.7701402,
                32.69958939999999
              ],
              [
                -96.7698102,
                32.6991109
              ]
            ],
            [
              [
                -96.77366831030223,
                32.69760555178215
              ],
              [
                -96.77380836933314,
                32.69754311078806
              ],
              [
                -96.77377144498169,
                32.69748389771367
              ],
              [
                -96.7736313859508,
                32.69754633799319
              ],
              [
                -96.77366831030223,
                32.69760555178215
              ]
            ],
            [
              [
                -96.77374263331558,
                32.698010074595906
              ],
              [
                -96.77397853629908,
                32.6978949601316
              ],
              [
                -96.77389528852339,
                32.69777299197788
              ],
              [
                -96.77394269351925,
                32.697749858060654
              ],
              [
                -96.77388478991266,
                32.69766502180277
              ],
              [
                -96.77390726935432,
                32.69765405279678
              ],
              [
                -96.77386651278991,
                32.69759433632505
              ],
              [
                -96.77358112970224,
                32.69773359582495
              ],
              [
                -96.7735390050036,
                32.69767187459606
              ],
              [
                -96.77287925530949,
                32.69799380862783
              ],
              [
                -96.77284043730944,
                32.69793693252322
              ],
              [
                -96.772705482506,
                32.69800278488443
              ],
              [
                -96.77286137524209,
                32.69823119531005
              ],
              [
                -96.77288162326859,
                32.69822131570772
              ],
              [
                -96.77297769808821,
                32.698362083873214
              ],
              [
                -96.77296265400216,
                32.69836942647232
              ],
              [
                -96.77302272883679,
                32.69845744311966
              ],
              [
                -96.77314445055777,
                32.69839804695464
              ],
              [
                -96.77309525881282,
                32.69832596807424
              ],
              [
                -96.77374263331558,
                32.698010074595906
              ]
            ]
          ],
          [
            [
              [
                -96.77032254760294,
                32.7244317522954
              ],
              [
                -96.77187100779416,
                32.72368085387351
              ],
              [
                -96.77205494952669,
                32.72374781555515
              ],
              [
                -96.77205659135922,
                32.72374845795253
              ],
              [
                -96.772069,
                32.723743
              ],
              [
                -96.7730132,
                32.7241763
              ],
              [
                -96.77336066947797,
                32.72443130331917
              ],
              [
                -96.77351330150837,
                32.724527615715445
              ],
              [
                -96.77387585526886,
                32.72480572243502
              ],
              [
                -96.77398947855266,
                32.724910966982506
              ],
              [
                -96.7745839,
                32.725411
              ],
              [
                -96.77449941598483,
                32.72543230159586
              ],
              [
                -96.77459572830661,
                32.72553807721506
              ],
              [
                -96.77158893589663,
                32.72625000492759
              ],
              [
                -96.77153925219615,
                32.72617867015639
              ],
              [
                -96.7715197,
                32.7261836
              ],
              [
                -96.77086972079213,
                32.725217371600685
              ],
              [
                -96.77032254760294,
                32.7244317522954
              ]
            ]
          ],
          [
            [
              [
                -96.80145832423379,
                32.764704385593
              ],
              [
                -96.80177190992981,
                32.76490173795797
              ],
              [
                -96.80214260871497,
                32.76518766613003
              ],
              [
                -96.8022996503963,
                32.76583848455862
              ],
              [
                -96.80296245346408,
                32.76660275673475
              ],
              [
                -96.80311553806656,
                32.76673147294186
              ],
              [
                -96.80268148020612,
                32.767255350516926
              ],
              [
                -96.80249663027686,
                32.76708254016315
              ],
              [
                -96.8017058999261,
                32.76587937045466
              ],
              [
                -96.80107830902085,
                32.765227585427006
              ],
              [
                -96.80001138804275,
                32.7643487531971
              ],
              [
                -96.79989133179828,
                32.76408805416116
              ],
              [
                -96.79986718238848,
                32.763398148133945
              ],
              [
                -96.79665899667496,
                32.761548572273355
              ],
              [
                -96.79653445783724,
                32.76164243772036
              ],
              [
                -96.79496054298413,
                32.76180552431775
              ],
              [
                -96.79436078727628,
                32.76173824902678
              ],
              [
                -96.79363197959468,
                32.76157004811256
              ],
              [
                -96.79339249502813,
                32.76154214817946
              ],
              [
                -96.79320439140089,
                32.76145410541226
              ],
              [
                -96.79355828630035,
                32.76092805206787
              ],
              [
                -96.79396889633524,
                32.76103084048978
              ],
              [
                -96.79448597649424,
                32.76116029826915
              ],
              [
                -96.79544420491625,
                32.76112750230608
              ],
              [
                -96.79581413654014,
                32.76107333084851
              ],
              [
                -96.79590427529239,
                32.76108010171597
              ],
              [
                -96.80062263230477,
                32.76378450121391
              ],
              [
                -96.8006319379528,
                32.763843300873354
              ],
              [
                -96.80070668586927,
                32.76403737747042
              ],
              [
                -96.80100229178487,
                32.76439240377174
              ],
              [
                -96.80108599680304,
                32.76449397200771
              ],
              [
                -96.80145832423379,
                32.764704385593
              ]
            ]
          ],
          [
            [
              [
                -96.92758694735222,
                32.732574792932645
              ],
              [
                -96.92729168818633,
                32.73258768081466
              ],
              [
                -96.92697735329537,
                32.73256707984984
              ],
              [
                -96.92664364893025,
                32.73252960560809
              ],
              [
                -96.92666773096639,
                32.732280545945635
              ],
              [
                -96.92647138260148,
                32.73226143659972
              ],
              [
                -96.9264663753921,
                32.732543985937426
              ],
              [
                -96.92617082157876,
                32.73257349243153
              ],
              [
                -96.92597211693288,
                32.73268734552801
              ],
              [
                -96.92569092179106,
                32.73301627002934
              ],
              [
                -96.92552918551405,
                32.73326358583943
              ],
              [
                -96.92540854446635,
                32.73341167771995
              ],
              [
                -96.92522979679279,
                32.733509157660265
              ],
              [
                -96.92489491024476,
                32.73353816283368
              ],
              [
                -96.9242853098997,
                32.733530435476794
              ],
              [
                -96.92430969376979,
                32.73326475560129
              ],
              [
                -96.92432935968797,
                32.73326500496912
              ],
              [
                -96.92434213013806,
                32.733263371987604
              ],
              [
                -96.92456592203489,
                32.73323475588986
              ],
              [
                -96.92484122422846,
                32.73323824477369
              ],
              [
                -96.92503904762705,
                32.73317425467785
              ],
              [
                -96.9252377558662,
                32.733060401447545
              ],
              [
                -96.92539801890617,
                32.73289618917676
              ],
              [
                -96.92551924655373,
                32.732714859286645
              ],
              [
                -96.9257587553748,
                32.732518400586834
              ],
              [
                -96.9259774205863,
                32.73238817649436
              ],
              [
                -96.92625448617277,
                32.73229193915822
              ],
              [
                -96.92645201312733,
                32.73224456629624
              ],
              [
                -96.92668768973537,
                32.732264175142724
              ],
              [
                -96.92707979717039,
                32.73233563567033
              ],
              [
                -96.92749333481478,
                32.732307619275296
              ],
              [
                -96.927848468491,
                32.73224561592013
              ],
              [
                -96.92806624706533,
                32.73216524900093
              ],
              [
                -96.92828490688694,
                32.73203501985848
              ],
              [
                -96.92846570900755,
                32.731821190533026
              ],
              [
                -96.92858663571953,
                32.73165647723461
              ],
              [
                -96.9286711752726,
                32.73132505927262
              ],
              [
                -96.92865857011255,
                32.73092591757941
              ],
              [
                -96.92880474667052,
                32.730445659014315
              ],
              [
                -96.9292329771597,
                32.72958660991772
              ],
              [
                -96.92976098712079,
                32.72864569674706
              ],
              [
                -96.93001514207424,
                32.72873202930109
              ],
              [
                -96.93026929792599,
                32.72881836177148
              ],
              [
                -96.93050378965619,
                32.72890444477821
              ],
              [
                -96.93085655896657,
                32.72897539639262
              ],
              [
                -96.93080810923003,
                32.73060396636131
              ],
              [
                -96.93023815064014,
                32.73058014346199
              ],
              [
                -96.92994407365715,
                32.730526554950856
              ],
              [
                -96.92964911632518,
                32.730522829432005
              ],
              [
                -96.92935180720383,
                32.73065206630581
              ],
              [
                -96.92909294148504,
                32.7308316630822
              ],
              [
                -96.92897054602756,
                32.73107947916751
              ],
              [
                -96.92892474901605,
                32.73144463593917
              ],
              [
                -96.92886075573016,
                32.73172643899387
              ],
              [
                -96.92867819021666,
                32.73203999292615
              ],
              [
                -96.92849768274347,
                32.73223720154819
              ],
              [
                -96.92818011212086,
                32.73239942913904
              ],
              [
                -96.92788338241283,
                32.732495420767485
              ],
              [
                -96.92758694735222,
                32.732574792932645
              ]
            ]
          ],
          [
            [
              [
                -96.8781246,
                32.731038099999985
              ],
              [
                -96.8781305,
                32.731125
              ],
              [
                -96.87808875416125,
                32.73218340377494
              ],
              [
                -96.87809318829399,
                32.73255646567242
              ],
              [
                -96.8781158,
                32.7327736
              ],
              [
                -96.8781192,
                32.733090699999984
              ],
              [
                -96.87810190920887,
                32.73377785317504
              ],
              [
                -96.87810275405648,
                32.73425176843659
              ],
              [
                -96.87809115860277,
                32.7343688429956
              ],
              [
                -96.87808660001838,
                32.734386255575636
              ],
              [
                -96.8780748,
                32.7348552
              ],
              [
                -96.8776099335263,
                32.73484852810006
              ],
              [
                -96.87619442786412,
                32.734836960605364
              ],
              [
                -96.87619453063185,
                32.73482821382275
              ],
              [
                -96.8761866,
                32.7348281
              ],
              [
                -96.8761973,
                32.733267200000014
              ],
              [
                -96.8768625,
                32.732473
              ],
              [
                -96.8768812,
                32.731638199999985
              ],
              [
                -96.87690223208763,
                32.73163834335047
              ],
              [
                -96.87690230659621,
                32.73163580124284
              ],
              [
                -96.87740356742307,
                32.73163168962096
              ],
              [
                -96.8774603400507,
                32.73162976794207
              ],
              [
                -96.87750780523368,
                32.73161973032415
              ],
              [
                -96.87754921038177,
                32.73159629157883
              ],
              [
                -96.87756902721694,
                32.73156198018264
              ],
              [
                -96.87758506843295,
                32.73118646732903
              ],
              [
                -96.8776035067779,
                32.7311867916124
              ],
              [
                -96.8776037,
                32.73117740000003
              ],
              [
                -96.877664,
                32.7311302
              ],
              [
                -96.8776976,
                32.73099809999998
              ],
              [
                -96.8776962,
                32.73092029999997
              ],
              [
                -96.8776748,
                32.73078719999999
              ],
              [
                -96.877605,
                32.7305367
              ],
              [
                -96.8777123,
                32.7302389
              ],
              [
                -96.8777794,
                32.7302457
              ],
              [
                -96.8778357,
                32.7303247
              ],
              [
                -96.87784452579348,
                32.73033341547105
              ],
              [
                -96.87785173691832,
                32.7303386563613
              ],
              [
                -96.8778575436845,
                32.73034627063842
              ],
              [
                -96.8779317,
                32.73041949999998
              ],
              [
                -96.8779591,
                32.7304465
              ],
              [
                -96.8780288,
                32.730539
              ],
              [
                -96.8780495,
                32.7306131
              ],
              [
                -96.8780691,
                32.730683399999975
              ],
              [
                -96.8781066,
                32.7307714
              ],
              [
                -96.878112,
                32.7308511
              ],
              [
                -96.8781246,
                32.731038099999985
              ]
            ]
          ],
          [
            [
              [
                -96.81586430000002,
                32.761699499999985
              ],
              [
                -96.8158341,
                32.761698199999984
              ],
              [
                -96.8158055,
                32.7616897
              ],
              [
                -96.8157808,
                32.76167489999999
              ],
              [
                -96.815746,
                32.761633
              ],
              [
                -96.815727,
                32.76158449999998
              ],
              [
                -96.8157291,
                32.761534
              ],
              [
                -96.8157361,
                32.761499499999985
              ],
              [
                -96.8158026,
                32.76127480000001
              ],
              [
                -96.8158026,
                32.7601392
              ],
              [
                -96.81583196131598,
                32.76013894198486
              ],
              [
                -96.81583373763713,
                32.76003243851173
              ],
              [
                -96.8165309,
                32.76003076629403
              ],
              [
                -96.8165309,
                32.75941540000002
              ],
              [
                -96.8157211,
                32.75940640000001
              ],
              [
                -96.81573050000002,
                32.75892479999996
              ],
              [
                -96.81575660000001,
                32.758873499999986
              ],
              [
                -96.8157762,
                32.75885870000002
              ],
              [
                -96.8158096,
                32.75884529999997
              ],
              [
                -96.8168428,
                32.7588477
              ],
              [
                -96.817207,
                32.758856
              ],
              [
                -96.817596,
                32.7588323
              ],
              [
                -96.81832939514383,
                32.75873253415086
              ],
              [
                -96.81865589751013,
                32.75867068213361
              ],
              [
                -96.81863622151756,
                32.75869079567744
              ],
              [
                -96.8187641,
                32.75867339999997
              ],
              [
                -96.8185718909455,
                32.75905046024744
              ],
              [
                -96.81858980486142,
                32.75920732422102
              ],
              [
                -96.81846503263216,
                32.759314801593675
              ],
              [
                -96.8188551,
                32.759636700000016
              ],
              [
                -96.81883798640456,
                32.759652200952495
              ],
              [
                -96.81885376672281,
                32.759665730890504
              ],
              [
                -96.81857337184343,
                32.75989188043739
              ],
              [
                -96.8182258,
                32.76020669999998
              ],
              [
                -96.81789857635079,
                32.76042283499675
              ],
              [
                -96.81778229577779,
                32.76050184300369
              ],
              [
                -96.81772912316704,
                32.76053476078025
              ],
              [
                -96.81742430000001,
                32.7607361
              ],
              [
                -96.8159923,
                32.76163519999998
              ],
              [
                -96.8159202,
                32.76168109999998
              ],
              [
                -96.8158939,
                32.76169370000002
              ],
              [
                -96.81586430000002,
                32.761699499999985
              ]
            ]
          ],
          [
            [
              [
                -96.9107304006089,
                32.768496963876856
              ],
              [
                -96.91093786293054,
                32.768327811889066
              ],
              [
                -96.91130706781735,
                32.7681411237995
              ],
              [
                -96.91131356797717,
                32.768147421602
              ],
              [
                -96.9113146,
                32.7681469
              ],
              [
                -96.91141505168436,
                32.76824415677578
              ],
              [
                -96.91255233402377,
                32.76765966387126
              ],
              [
                -96.9125520621863,
                32.767668658271525
              ],
              [
                -96.9125582,
                32.7676655
              ],
              [
                -96.9125542,
                32.7678036
              ],
              [
                -96.9125522,
                32.767935
              ],
              [
                -96.91253704482632,
                32.76796670815463
              ],
              [
                -96.91252595050386,
                32.76802559604322
              ],
              [
                -96.91265467010092,
                32.76844220847658
              ],
              [
                -96.912256519699,
                32.76898239849788
              ],
              [
                -96.91250209843643,
                32.76940079664112
              ],
              [
                -96.91242041809424,
                32.76942063330458
              ],
              [
                -96.9124238,
                32.76942909999999
              ],
              [
                -96.9120443,
                32.76951949999998
              ],
              [
                -96.9123382,
                32.77041180000001
              ],
              [
                -96.91233289217368,
                32.770413030604324
              ],
              [
                -96.91269010055404,
                32.77149768113555
              ],
              [
                -96.91197817131832,
                32.77166592296411
              ],
              [
                -96.91160058768608,
                32.77049448154894
              ],
              [
                -96.9114389,
                32.7705274
              ],
              [
                -96.910488,
                32.7707468
              ],
              [
                -96.91048582113879,
                32.77073978352509
              ],
              [
                -96.91048041114344,
                32.77074103160185
              ],
              [
                -96.90991748995548,
                32.768928045246476
              ],
              [
                -96.9107304006089,
                32.768496963876856
              ]
            ]
          ],
          [
            [
              [
                -96.85340696106991,
                32.78715776357695
              ],
              [
                -96.85340723561532,
                32.78717193183709
              ],
              [
                -96.85341352721937,
                32.78717197699572
              ],
              [
                -96.85341332293874,
                32.78716336114054
              ],
              [
                -96.85385754193952,
                32.78717516395718
              ],
              [
                -96.8563425,
                32.787193
              ],
              [
                -96.8563278,
                32.7886409
              ],
              [
                -96.8533881,
                32.7886197
              ],
              [
                -96.85338827724058,
                32.78860224361136
              ],
              [
                -96.85204396076405,
                32.78858726353833
              ],
              [
                -96.85203596126645,
                32.78712526417029
              ],
              [
                -96.85330496186097,
                32.787155263100196
              ],
              [
                -96.85340696106991,
                32.78715776357695
              ]
            ],
            [
              [
                -96.85264160902425,
                32.78850426652661
              ],
              [
                -96.85253606326658,
                32.78849999138771
              ],
              [
                -96.85253289940015,
                32.78855571241866
              ],
              [
                -96.85263844695444,
                32.7885599875549
              ],
              [
                -96.85264160902425,
                32.78850426652661
              ]
            ],
            [
              [
                -96.85261492726367,
                32.78765288982154
              ],
              [
                -96.8526132878383,
                32.787721100850234
              ],
              [
                -96.85271927556708,
                32.78772291785682
              ],
              [
                -96.85272091499249,
                32.78765470758473
              ],
              [
                -96.85261492726367,
                32.78765288982154
              ]
            ],
            [
              [
                -96.85277324275609,
                32.7872632313727
              ],
              [
                -96.85277197523322,
                32.78731599505407
              ],
              [
                -96.85277102930725,
                32.78731597843966
              ],
              [
                -96.85277077059243,
                32.787326768758504
              ],
              [
                -96.85277036994383,
                32.7873433816784
              ],
              [
                -96.85288039020992,
                32.78734526892642
              ],
              [
                -96.85287995003543,
                32.78736355687893
              ],
              [
                -96.85285920074902,
                32.787363200423975
              ],
              [
                -96.85285941544637,
                32.787354271680485
              ],
              [
                -96.85279204718992,
                32.78735311622265
              ],
              [
                -96.85275894337339,
                32.78735239047425
              ],
              [
                -96.85275712608158,
                32.78742800496505
              ],
              [
                -96.8527566499745,
                32.78744781689503
              ],
              [
                -96.85258780622695,
                32.78744492070137
              ],
              [
                -96.8525886614231,
                32.787409337915
              ],
              [
                -96.85260815037317,
                32.7874096717137
              ],
              [
                -96.85270656799908,
                32.78741136034257
              ],
              [
                -96.85270795140462,
                32.78735380647654
              ],
              [
                -96.85260953467701,
                32.78735211784661
              ],
              [
                -96.85260837764693,
                32.787400208292716
              ],
              [
                -96.85258888959518,
                32.787399874494
              ],
              [
                -96.85259091619446,
                32.78731554797472
              ],
              [
                -96.85261292851217,
                32.787315925575555
              ],
              [
                -96.85270377603518,
                32.7873174835563
              ],
              [
                -96.85270510733844,
                32.787262061564746
              ],
              [
                -96.85261426251037,
                32.787260503583035
              ],
              [
                -96.85261324831242,
                32.78730264913153
              ],
              [
                -96.85259123509638,
                32.787302272285885
              ],
              [
                -96.85259141475943,
                32.787294764070744
              ],
              [
                -96.85256475096517,
                32.787294307173674
              ],
              [
                -96.85255685477382,
                32.787622773248394
              ],
              [
                -96.85250796935439,
                32.78762193497763
              ],
              [
                -96.85251387937066,
                32.787376054701596
              ],
              [
                -96.85234055931804,
                32.78737308147506
              ],
              [
                -96.8523350095262,
                32.787603945381875
              ],
              [
                -96.85227279310794,
                32.78760287753034
              ],
              [
                -96.85227198013261,
                32.78763666362128
              ],
              [
                -96.85227188940277,
                32.78764041771453
              ],
              [
                -96.85227140790577,
                32.78766047956785
              ],
              [
                -96.85224057143702,
                32.78765995092888
              ],
              [
                -96.85223973330886,
                32.78769485393649
              ],
              [
                -96.8522705688793,
                32.787695382575286
              ],
              [
                -96.85225672853572,
                32.78827107065375
              ],
              [
                -96.8522738656964,
                32.78827136517919
              ],
              [
                -96.85226998497437,
                32.78843278234101
              ],
              [
                -96.85228173224333,
                32.78843298322205
              ],
              [
                -96.8523666886147,
                32.788434439987554
              ],
              [
                -96.85264945131667,
                32.78843929134105
              ],
              [
                -96.85298168873292,
                32.78844499001973
              ],
              [
                -96.85298425881297,
                32.78833800342207
              ],
              [
                -96.85299420406147,
                32.78833817334048
              ],
              [
                -96.85303314513072,
                32.78833884093096
              ],
              [
                -96.85303387815601,
                32.788308346238324
              ],
              [
                -96.85304601798875,
                32.78830855467168
              ],
              [
                -96.85304793409527,
                32.78822880850909
              ],
              [
                -96.85305293411812,
                32.78802079013742
              ],
              [
                -96.85291413901683,
                32.78801840900581
              ],
              [
                -96.85290973817027,
                32.788201528639775
              ],
              [
                -96.85269197127401,
                32.7881977934501
              ],
              [
                -96.85269156523552,
                32.78821468638422
              ],
              [
                -96.85253602463901,
                32.78821201903926
              ],
              [
                -96.85244713723998,
                32.78821049505795
              ],
              [
                -96.85245267804865,
                32.78798001787539
              ],
              [
                -96.85247615641691,
                32.78798042114993
              ],
              [
                -96.8524765732352,
                32.787963139245484
              ],
              [
                -96.85254864327382,
                32.78796437625658
              ],
              [
                -96.85257530706807,
                32.78796483315011
              ],
              [
                -96.85258748912165,
                32.787458057412096
              ],
              [
                -96.8529074663309,
                32.787463547718325
              ],
              [
                -96.85290778163957,
                32.78745040723236
              ],
              [
                -96.85290863683572,
                32.78741482595866
              ],
              [
                -96.85292355336101,
                32.787415080461315
              ],
              [
                -96.85293368635742,
                32.78741525491267
              ],
              [
                -96.85302453118547,
                32.78741681289168
              ],
              [
                -96.85302619217042,
                32.78734777015303
              ],
              [
                -96.85303260614155,
                32.787347879657204
              ],
              [
                -96.85303339216743,
                32.78731514771795
              ],
              [
                -96.85302193146104,
                32.78731495061034
              ],
              [
                -96.85302339661327,
                32.78725397863746
              ],
              [
                -96.85302379007537,
                32.78723767306826
              ],
              [
                -96.8530145230549,
                32.78723751296536
              ],
              [
                -96.85301464163251,
                32.78723258225003
              ],
              [
                -96.85291191119492,
                32.7872308218736
              ],
              [
                -96.85291218428279,
                32.78721940321469
              ],
              [
                -96.852876139382,
                32.78721878470393
              ],
              [
                -96.85287482784167,
                32.78727333748504
              ],
              [
                -96.85286136568884,
                32.78727310639328
              ],
              [
                -96.85286156511484,
                32.78726474479741
              ],
              [
                -96.85277324275609,
                32.7872632313727
              ]
            ]
          ],
          [
            [
              [
                -96.87722794858165,
                32.871657248896845
              ],
              [
                -96.87724144936206,
                32.87167024942067
              ],
              [
                -96.87725194976942,
                32.87168524932626
              ],
              [
                -96.87725944980373,
                32.87170124892097
              ],
              [
                -96.87726395036329,
                32.87171824895878
              ],
              [
                -96.87726545054984,
                32.87173524974776
              ],
              [
                -96.87722244909547,
                32.87578324753601
              ],
              [
                -96.87625794953449,
                32.87577574830736
              ],
              [
                -96.87625594898635,
                32.87568174761111
              ],
              [
                -96.87626344902066,
                32.874980748770284
              ],
              [
                -96.87626094990752,
                32.87488874805137
              ],
              [
                -96.87625195058503,
                32.87479674874588
              ],
              [
                -96.87623544943158,
                32.87470574824825
              ],
              [
                -96.87621244986535,
                32.874615248618305
              ],
              [
                -96.87618294919143,
                32.874526748215565
              ],
              [
                -96.87614694920642,
                32.87443974910178
              ],
              [
                -96.87610394954869,
                32.87435474847161
              ],
              [
                -96.8760554504048,
                32.87427174859426
              ],
              [
                -96.87600045015324,
                32.874192248593445
              ],
              [
                -96.87593945005388,
                32.874115248059674
              ],
              [
                -96.87587294957001,
                32.87404174817361
              ],
              [
                -96.8756669497057,
                32.873828748298294
              ],
              [
                -96.87561594965207,
                32.87377224857309
              ],
              [
                -96.87556995051963,
                32.87371274829613
              ],
              [
                -96.87552895051175,
                32.873650748427835
              ],
              [
                -96.87549344999003,
                32.873586248208575
              ],
              [
                -96.87546344895448,
                32.87351974860013
              ],
              [
                -96.87543845063676,
                32.873451749056734
              ],
              [
                -96.87541995073181,
                32.8733827482795
              ],
              [
                -96.87540644995141,
                32.87331274852954
              ],
              [
                -96.87541295105912,
                32.87239074903659
              ],
              [
                -96.87542895005433,
                32.871518249328666
              ],
              [
                -96.87675545001356,
                32.87152574891741
              ],
              [
                -96.87676144986135,
                32.871547748964865
              ],
              [
                -96.87677144900877,
                32.8715682490899
              ],
              [
                -96.87678544925247,
                32.87158724853903
              ],
              [
                -96.87680295023084,
                32.87160374837509
              ],
              [
                -96.87682344978562,
                32.871618248822855
              ],
              [
                -96.87684644935185,
                32.871629249213086
              ],
              [
                -96.87687095000291,
                32.871637248261344
              ],
              [
                -96.87689694994216,
                32.87164174876312
              ],
              [
                -96.87692345024305,
                32.87164224898651
              ],
              [
                -96.87694995054393,
                32.87163974937846
              ],
              [
                -96.87697545012159,
                32.87163324798282
              ],
              [
                -96.87699944951271,
                32.87162374901813
              ],
              [
                -96.87713595031676,
                32.87162424848716
              ],
              [
                -96.87715644897325,
                32.87162574915765
              ],
              [
                -96.87717644906472,
                32.87163024890553
              ],
              [
                -96.8771954493313,
                32.87163674879239
              ],
              [
                -96.87721244904974,
                32.87164574904127
              ],
              [
                -96.87722794858165,
                32.871657248896845
              ]
            ],
            [
              [
                -96.87600961296914,
                32.87226660254765
              ],
              [
                -96.87604932299628,
                32.872267276297805
              ],
              [
                -96.87604605582358,
                32.87240420213986
              ],
              [
                -96.87602352427962,
                32.87240745394119
              ],
              [
                -96.87601774990898,
                32.87240828688516
              ],
              [
                -96.87570302784414,
                32.87245370872739
              ],
              [
                -96.87570516673283,
                32.87251874997638
              ],
              [
                -96.87569525382366,
                32.87251889860839
              ],
              [
                -96.87571859654633,
                32.87269752394824
              ],
              [
                -96.8757854150338,
                32.87269113353816
              ],
              [
                -96.8757865145717,
                32.872717376467364
              ],
              [
                -96.87583448101462,
                32.872717387784505
              ],
              [
                -96.87583411719692,
                32.872732663650986
              ],
              [
                -96.8759722116123,
                32.87273500931521
              ],
              [
                -96.87597263202383,
                32.87271741796354
              ],
              [
                -96.87604721824358,
                32.872717434562
              ],
              [
                -96.87604722812503,
                32.872682411796994
              ],
              [
                -96.8762034074237,
                32.8726836649815
              ],
              [
                -96.8762027848912,
                32.87273918760026
              ],
              [
                -96.87615189712699,
                32.87273877942904
              ],
              [
                -96.87615114793203,
                32.87280540335717
              ],
              [
                -96.87613827237908,
                32.87280529923962
              ],
              [
                -96.87613757079484,
                32.872867724468215
              ],
              [
                -96.87613707043323,
                32.872874679966806
              ],
              [
                -96.87607442551857,
                32.87288587787335
              ],
              [
                -96.87607720670269,
                32.87290709519376
              ],
              [
                -96.87613531512517,
                32.87289670910402
              ],
              [
                -96.87613420390916,
                32.87290685904338
              ],
              [
                -96.87608088799873,
                32.87339384125052
              ],
              [
                -96.87611221045606,
                32.8733945655416
              ],
              [
                -96.87614737410954,
                32.87300615606581
              ],
              [
                -96.87625476410848,
                32.87301307911123
              ],
              [
                -96.87620392844657,
                32.87343882424104
              ],
              [
                -96.8762580205014,
                32.87344322279804
              ],
              [
                -96.87625221828297,
                32.87347867304641
              ],
              [
                -96.8761993694965,
                32.87347700642407
              ],
              [
                -96.87618939909514,
                32.873560511784866
              ],
              [
                -96.87625670536782,
                32.87356165555902
              ],
              [
                -96.87625586993461,
                32.873596729280536
              ],
              [
                -96.87641810028502,
                32.87359936312875
              ],
              [
                -96.87641866802029,
                32.873574476240144
              ],
              [
                -96.87658430208731,
                32.873580332423046
              ],
              [
                -96.87659061454882,
                32.87349666487011
              ],
              [
                -96.87655542394587,
                32.87349323203617
              ],
              [
                -96.87655996043806,
                32.8734588071173
              ],
              [
                -96.87659338046159,
                32.8734599682456
              ],
              [
                -96.87659692521369,
                32.87341299572924
              ],
              [
                -96.8765016157587,
                32.8734078766522
              ],
              [
                -96.87654967382976,
                32.87291148019651
              ],
              [
                -96.8765314568941,
                32.87290950272027
              ],
              [
                -96.87654333352047,
                32.87285537070456
              ],
              [
                -96.87655493256743,
                32.8728571844611
              ],
              [
                -96.87659293669383,
                32.87285980550519
              ],
              [
                -96.876598535893,
                32.87254905128874
              ],
              [
                -96.87664698742617,
                32.872549672223364
              ],
              [
                -96.87664864122459,
                32.87240274976911
              ],
              [
                -96.87670735331494,
                32.872403219809144
              ],
              [
                -96.87670682690218,
                32.8724500208395
              ],
              [
                -96.87689263623217,
                32.8724515116878
              ],
              [
                -96.87689335308777,
                32.87238796425681
              ],
              [
                -96.87695283503432,
                32.87238897525788
              ],
              [
                -96.87695946639772,
                32.872110808439814
              ],
              [
                -96.87691114512027,
                32.87210998756471
              ],
              [
                -96.87691159607456,
                32.87209105613085
              ],
              [
                -96.8767700817729,
                32.87208865310903
              ],
              [
                -96.87677185235233,
                32.872014363864075
              ],
              [
                -96.87666656441114,
                32.8720125749882
              ],
              [
                -96.87666510554712,
                32.87207375814453
              ],
              [
                -96.87659082924617,
                32.87207249514319
              ],
              [
                -96.87658989140502,
                32.8721118179351
              ],
              [
                -96.87644668916893,
                32.87210938624353
              ],
              [
                -96.87644818216894,
                32.872046746208305
              ],
              [
                -96.8763424028493,
                32.87204495054276
              ],
              [
                -96.8762790976729,
                32.87204387314344
              ],
              [
                -96.87627956479687,
                32.872024253608316
              ],
              [
                -96.87627969505257,
                32.8720187941799
              ],
              [
                -96.87627950101647,
                32.8720165541241
              ],
              [
                -96.87627847963199,
                32.87200472158867
              ],
              [
                -96.87600178684639,
                32.872021738921376
              ],
              [
                -96.8760106451334,
                32.87222339198994
              ],
              [
                -96.87600961296914,
                32.87226660254765
              ]
            ]
          ],
          [
            [
              [
                -96.9387734895741,
                32.95242303925137
              ],
              [
                -96.94046910114022,
                32.95411999201883
              ],
              [
                -96.94211177933339,
                32.95586547789671
              ],
              [
                -96.94245452164857,
                32.95629818144274
              ],
              [
                -96.9430463991314,
                32.95720907738192
              ],
              [
                -96.94331729598679,
                32.95775911236629
              ],
              [
                -96.94345178546291,
                32.95813909706944
              ],
              [
                -96.94354361753948,
                32.95851179368933
              ],
              [
                -96.94364910939824,
                32.95938180521739
              ],
              [
                -96.94380090132505,
                32.963147315609675
              ],
              [
                -96.94387547945995,
                32.96364180206908
              ],
              [
                -96.94438271318512,
                32.96543550534151
              ],
              [
                -96.94456439206144,
                32.966006448227986
              ],
              [
                -96.94391004124219,
                32.96603619072575
              ],
              [
                -96.94307722931195,
                32.96606593321352
              ],
              [
                -96.94248236493081,
                32.96594696094133
              ],
              [
                -96.94191724287039,
                32.965798244433834
              ],
              [
                -96.94135212081,
                32.96567927255482
              ],
              [
                -96.94072751051485,
                32.965619785801586
              ],
              [
                -96.93989575585142,
                32.965827723893106
              ],
              [
                -96.93989843307422,
                32.96579445046201
              ],
              [
                -96.93990643419079,
                32.96512144990476
              ],
              [
                -96.94010943434809,
                32.965126450322636
              ],
              [
                -96.94013643436845,
                32.965127450378496
              ],
              [
                -96.94027343447688,
                32.96512945065937
              ],
              [
                -96.9437454372195,
                32.96518445778174
              ],
              [
                -96.94409243749458,
                32.965189458493214
              ],
              [
                -96.94398843849511,
                32.96451645769584
              ],
              [
                -96.94384843866901,
                32.96433845725623
              ],
              [
                -96.94388743916366,
                32.964051457086015
              ],
              [
                -96.94343844056674,
                32.96296045522677
              ],
              [
                -96.94368244313092,
                32.961493454447535
              ],
              [
                -96.94356144620954,
                32.9595304524989
              ],
              [
                -96.94331244807812,
                32.958258450894775
              ],
              [
                -96.94324144860921,
                32.95789745043937
              ],
              [
                -96.94301044900008,
                32.95754944967462
              ],
              [
                -96.94284944925624,
                32.957317449151155
              ],
              [
                -96.94226145023603,
                32.956446447221666
              ],
              [
                -96.94205445058377,
                32.956139446543084
              ],
              [
                -96.94147845123967,
                32.95547944482473
              ],
              [
                -96.94121845151028,
                32.955198444064706
              ],
              [
                -96.93879545411534,
                32.95256743700142
              ],
              [
                -96.9387734895741,
                32.95242303925137
              ]
            ]
          ],
          [
            [
              [
                -96.7552575,
                32.8908239
              ],
              [
                -96.7552696,
                32.8909242
              ],
              [
                -96.7552187,
                32.89107280000003
              ],
              [
                -96.7548646,
                32.8915312
              ],
              [
                -96.7540036,
                32.8930784
              ],
              [
                -96.7539714,
                32.8931708
              ],
              [
                -96.7539915,
                32.8932552
              ],
              [
                -96.75401349892185,
                32.893279195333605
              ],
              [
                -96.75402583094468,
                32.893287005986956
              ],
              [
                -96.75408134233766,
                32.893323361755996
              ],
              [
                -96.75416598250204,
                32.89337306484596
              ],
              [
                -96.75432910757449,
                32.8934605236003
              ],
              [
                -96.75446949359215,
                32.89353472622907
              ],
              [
                -96.75478703636699,
                32.8936976620792
              ],
              [
                -96.75484376318056,
                32.89373726869851
              ],
              [
                -96.75485074194545,
                32.893748044517224
              ],
              [
                -96.75521329552762,
                32.89393821239365
              ],
              [
                -96.7558549404071,
                32.89407689453856
              ],
              [
                -96.75616470000001,
                32.89404909999999
              ],
              [
                -96.75761580000001,
                32.894369300000015
              ],
              [
                -96.75765756950724,
                32.89446639261794
              ],
              [
                -96.75767331798498,
                32.89446981447482
              ],
              [
                -96.75774905314995,
                32.89448500890039
              ],
              [
                -96.75775594143154,
                32.89448638925167
              ],
              [
                -96.75778949026574,
                32.89477304052099
              ],
              [
                -96.7581018,
                32.895499
              ],
              [
                -96.7591913,
                32.89642009999998
              ],
              [
                -96.7598022,
                32.89680709999998
              ],
              [
                -96.7599921,
                32.8969274
              ],
              [
                -96.7607733,
                32.89742240000001
              ],
              [
                -96.7616602531688,
                32.897471336941706
              ],
              [
                -96.76191749837632,
                32.897274037178775
              ],
              [
                -96.76220157082199,
                32.89747682679419
              ],
              [
                -96.76227964519997,
                32.8975015862885
              ],
              [
                -96.76243607063702,
                32.897536906985714
              ],
              [
                -96.7626274324538,
                32.89758190638438
              ],
              [
                -96.7627668707488,
                32.89766890389987
              ],
              [
                -96.76288541962025,
                32.897743928166655
              ],
              [
                -96.76289760347044,
                32.89775163899255
              ],
              [
                -96.76290123535912,
                32.89775445465444
              ],
              [
                -96.76294734947592,
                32.89779020442598
              ],
              [
                -96.76299120792305,
                32.89784289037754
              ],
              [
                -96.7630716619382,
                32.8979371134566
              ],
              [
                -96.76320368464056,
                32.898167760867224
              ],
              [
                -96.76324293293364,
                32.89823518706708
              ],
              [
                -96.76315965470316,
                32.89830689874146
              ],
              [
                -96.7632125,
                32.8984552
              ],
              [
                -96.7630279498194,
                32.89842196833788
              ],
              [
                -96.7630142973208,
                32.89843391356393
              ],
              [
                -96.76294912005534,
                32.89842889851104
              ],
              [
                -96.76286111570023,
                32.89841994171184
              ],
              [
                -96.76280085221939,
                32.89841257941081
              ],
              [
                -96.7627031990598,
                32.89839938293153
              ],
              [
                -96.76259502932318,
                32.89838217455664
              ],
              [
                -96.76252264667085,
                32.89836813028772
              ],
              [
                -96.76238772061349,
                32.898339912765096
              ],
              [
                -96.76225154320294,
                32.89830564834899
              ],
              [
                -96.76217723366433,
                32.8982845645786
              ],
              [
                -96.76214290903732,
                32.89827446430956
              ],
              [
                -96.76207590729354,
                32.89825416722305
              ],
              [
                -96.76200706580003,
                32.89823170993585
              ],
              [
                -96.76192971726083,
                32.89820502954891
              ],
              [
                -96.76189076900505,
                32.89819096036136
              ],
              [
                -96.76179246366856,
                32.89815263420249
              ],
              [
                -96.76167957867501,
                32.898104509442504
              ],
              [
                -96.76159193544264,
                32.89807133861202
              ],
              [
                -96.76151927521086,
                32.8980391671637
              ],
              [
                -96.76134766285563,
                32.89795779151745
              ],
              [
                -96.76120421448117,
                32.897884131890635
              ],
              [
                -96.76115595518748,
                32.89785811892048
              ],
              [
                -96.76103150168971,
                32.89778711496804
              ],
              [
                -96.76101865218787,
                32.89777978504771
              ],
              [
                -96.76092640239472,
                32.89772715638255
              ],
              [
                -96.76043942478088,
                32.89741960899887
              ],
              [
                -96.75998986110031,
                32.897138179334064
              ],
              [
                -96.75944671273008,
                32.89679465120256
              ],
              [
                -96.75894470540321,
                32.89648049012982
              ],
              [
                -96.75865253464526,
                32.8962956379095
              ],
              [
                -96.7579433946785,
                32.895908188672934
              ],
              [
                -96.75792086672783,
                32.8958966746154
              ],
              [
                -96.7579207167092,
                32.89589536367973
              ],
              [
                -96.75777731235216,
                32.89581606183971
              ],
              [
                -96.7547512205366,
                32.89414258155322
              ],
              [
                -96.75475157800977,
                32.894137882564955
              ],
              [
                -96.7547171,
                32.894119
              ],
              [
                -96.7547392,
                32.8937903
              ],
              [
                -96.7537334,
                32.8932395
              ],
              [
                -96.754587,
                32.89156720000002
              ],
              [
                -96.7547493,
                32.8912643
              ],
              [
                -96.7548901,
                32.89105709999998
              ],
              [
                -96.7550161,
                32.890914
              ],
              [
                -96.75507051190851,
                32.89086132220521
              ],
              [
                -96.7550691244342,
                32.890858600989965
              ],
              [
                -96.7551095980293,
                32.89081496425226
              ],
              [
                -96.75511404262839,
                32.89081917881436
              ],
              [
                -96.7551824,
                32.890753
              ],
              [
                -96.7552575,
                32.8908239
              ]
            ]
          ],
          [
            [
              [
                -96.7626456,
                32.89864019999999
              ],
              [
                -96.763554,
                32.898711
              ],
              [
                -96.763774,
                32.89925149999998
              ],
              [
                -96.7640476,
                32.899828
              ],
              [
                -96.7643587,
                32.9004
              ],
              [
                -96.7647771,
                32.90070179999998
              ],
              [
                -96.7653511,
                32.9010261
              ],
              [
                -96.76521167818014,
                32.90141878786041
              ],
              [
                -96.76539025770397,
                32.90150175880355
              ],
              [
                -96.7654809767679,
                32.9016081482408
              ],
              [
                -96.76558155304538,
                32.90175270076283
              ],
              [
                -96.76589209614755,
                32.90227818900699
              ],
              [
                -96.76618124497287,
                32.90281386665447
              ],
              [
                -96.76655435573457,
                32.90356974964616
              ],
              [
                -96.76662355565584,
                32.903786993633446
              ],
              [
                -96.76668389369685,
                32.90395558982334
              ],
              [
                -96.76680397599246,
                32.904187646258556
              ],
              [
                -96.76692140915628,
                32.9044196643754
              ],
              [
                -96.76702221001263,
                32.90455303650545
              ],
              [
                -96.76726462578195,
                32.9047666639409
              ],
              [
                -96.76735230584524,
                32.904893141390936
              ],
              [
                -96.76741395901983,
                32.904994653108304
              ],
              [
                -96.76752571483107,
                32.90511028257716
              ],
              [
                -96.76764555547987,
                32.90521931265487
              ],
              [
                -96.76784704669977,
                32.90535632032202
              ],
              [
                -96.76804910745157,
                32.90546425726554
              ],
              [
                -96.768241482568,
                32.90552508925171
              ],
              [
                -96.76847901060383,
                32.90558207404325
              ],
              [
                -96.7694678652888,
                32.90559134612613
              ],
              [
                -96.76986495657701,
                32.90576014628399
              ],
              [
                -96.77015767530727,
                32.905974428463146
              ],
              [
                -96.77023204862628,
                32.90604176274155
              ],
              [
                -96.77025461250958,
                32.90607891196417
              ],
              [
                -96.77029214412218,
                32.90615303840719
              ],
              [
                -96.77042162279564,
                32.90632188349981
              ],
              [
                -96.77059120855161,
                32.90658208076247
              ],
              [
                -96.77080082772821,
                32.90698993450943
              ],
              [
                -96.77096307694325,
                32.90723599267357
              ],
              [
                -96.77109513108665,
                32.90739887239739
              ],
              [
                -96.77157890890143,
                32.907882014089004
              ],
              [
                -96.77192668357885,
                32.90813288291316
              ],
              [
                -96.7722674675667,
                32.90833444325053
              ],
              [
                -96.77307146244094,
                32.90871465994356
              ],
              [
                -96.77358925496397,
                32.90894998679615
              ],
              [
                -96.7740201786024,
                32.909152793417114
              ],
              [
                -96.77421682251303,
                32.909267354838185
              ],
              [
                -96.7744235482161,
                32.909408897812604
              ],
              [
                -96.77460059268388,
                32.90957687167287
              ],
              [
                -96.77425654152333,
                32.90955759152461
              ],
              [
                -96.77426651641625,
                32.90949388442496
              ],
              [
                -96.77421852122724,
                32.90941709481227
              ],
              [
                -96.7741411843661,
                32.90935217642456
              ],
              [
                -96.77408994536061,
                32.90929252959726
              ],
              [
                -96.77397205225935,
                32.909217227023014
              ],
              [
                -96.77365449241654,
                32.90908022155921
              ],
              [
                -96.77344046430852,
                32.90900849581676
              ],
              [
                -96.77321799113852,
                32.90892191970786
              ],
              [
                -96.77314862053733,
                32.90889640094297
              ],
              [
                -96.7731581175265,
                32.908857243044984
              ],
              [
                -96.77303111281333,
                32.908801457980665
              ],
              [
                -96.77296417484992,
                32.90880053035357
              ],
              [
                -96.77265878807752,
                32.908636678066735
              ],
              [
                -96.77219418929404,
                32.90842641452348
              ],
              [
                -96.77181156537348,
                32.90819273113187
              ],
              [
                -96.77156162082379,
                32.908022278688925
              ],
              [
                -96.77118276443754,
                32.907664025216135
              ],
              [
                -96.77094479443058,
                32.90739060959714
              ],
              [
                -96.77090717568144,
                32.907396828568565
              ],
              [
                -96.77088693484144,
                32.907538975614216
              ],
              [
                -96.7708356625983,
                32.90733199015111
              ],
              [
                -96.77059247966773,
                32.90681538377059
              ],
              [
                -96.77024059968947,
                32.90621271374618
              ],
              [
                -96.7701188034083,
                32.9060678705987
              ],
              [
                -96.769996351357,
                32.90595656842932
              ],
              [
                -96.76990043464083,
                32.90587999672731
              ],
              [
                -96.76981403647345,
                32.905832139379896
              ],
              [
                -96.76970426234573,
                32.90578886826088
              ],
              [
                -96.7694638147852,
                32.90566286572475
              ],
              [
                -96.7684617063565,
                32.90565340811736
              ],
              [
                -96.76827954149162,
                32.90561285050657
              ],
              [
                -96.76815767873512,
                32.90558086883831
              ],
              [
                -96.76800551310916,
                32.905524045443975
              ],
              [
                -96.76774131588915,
                32.90538345333567
              ],
              [
                -96.76756798056519,
                32.90525402163585
              ],
              [
                -96.76734125027905,
                32.90505179586912
              ],
              [
                -96.76713960005733,
                32.90478728987557
              ],
              [
                -96.76694172365812,
                32.90460112382219
              ],
              [
                -96.7667975198005,
                32.904382152437776
              ],
              [
                -96.7666794766806,
                32.90418143912903
              ],
              [
                -96.76657720707877,
                32.903987655795774
              ],
              [
                -96.76652155734521,
                32.90385043860311
              ],
              [
                -96.76647438501303,
                32.90368650098045
              ],
              [
                -96.7663818612337,
                32.90340114517957
              ],
              [
                -96.76633372770416,
                32.90328640043618
              ],
              [
                -96.76623137186405,
                32.9030970891595
              ],
              [
                -96.76602657394558,
                32.9027229371636
              ],
              [
                -96.76598401895393,
                32.90265378193523
              ],
              [
                -96.76589907785396,
                32.902515742836364
              ],
              [
                -96.76574330189884,
                32.90225660764017
              ],
              [
                -96.76553642887204,
                32.90189075085603
              ],
              [
                -96.7654550181511,
                32.901715149984035
              ],
              [
                -96.76533575511904,
                32.90157704757526
              ],
              [
                -96.76518036771174,
                32.901506975210545
              ],
              [
                -96.7651178,
                32.9016832
              ],
              [
                -96.7649634,
                32.901656899999985
              ],
              [
                -96.76437330000002,
                32.90134169999999
              ],
              [
                -96.76399497887756,
                32.90064080680645
              ],
              [
                -96.76380326158367,
                32.900356792443276
              ],
              [
                -96.763676132903,
                32.9001559998665
              ],
              [
                -96.76354467154226,
                32.89988801435484
              ],
              [
                -96.763397,
                32.8996932
              ],
              [
                -96.76262098345238,
                32.89897819703841
              ],
              [
                -96.7626029576154,
                32.899557425423495
              ],
              [
                -96.7626283,
                32.8995579
              ],
              [
                -96.7626245,
                32.899686400000014
              ],
              [
                -96.76259896173083,
                32.8996858261063
              ],
              [
                -96.76259181874435,
                32.89991535334066
              ],
              [
                -96.76092475757943,
                32.89987273476879
              ],
              [
                -96.76092498401535,
                32.8998650554484
              ],
              [
                -96.760865,
                32.899864299999976
              ],
              [
                -96.7609475,
                32.8980613
              ],
              [
                -96.7614097,
                32.89828520000002
              ],
              [
                -96.7619544,
                32.8984969
              ],
              [
                -96.7626456,
                32.89864019999999
              ]
            ]
          ],
          [
            [
              [
                -96.78679050740888,
                32.92784286303033
              ],
              [
                -96.78730815440483,
                32.928498621259266
              ],
              [
                -96.78804325747993,
                32.92810571370882
              ],
              [
                -96.78815643891751,
                32.928695842705004
              ],
              [
                -96.78834035010732,
                32.92897545973296
              ],
              [
                -96.78857370277372,
                32.9293553630698
              ],
              [
                -96.7888353110491,
                32.9297812634327
              ],
              [
                -96.78945108731172,
                32.93054820479034
              ],
              [
                -96.78934060890482,
                32.93054850789158
              ],
              [
                -96.78820541596511,
                32.930551617317796
              ],
              [
                -96.78824400489478,
                32.93063278129567
              ],
              [
                -96.7882783546746,
                32.9309052949876
              ],
              [
                -96.7883423776049,
                32.93110662703584
              ],
              [
                -96.78861629998619,
                32.93128220579668
              ],
              [
                -96.7889298272917,
                32.93145832933323
              ],
              [
                -96.78885732246847,
                32.93169596696114
              ],
              [
                -96.78883749215859,
                32.931843646836704
              ],
              [
                -96.78826237993391,
                32.93231778390803
              ],
              [
                -96.78806631992822,
                32.93250599674283
              ],
              [
                -96.7876354501887,
                32.93313006686296
              ],
              [
                -96.78742035128886,
                32.933131881647284
              ],
              [
                -96.78741478442906,
                32.93312703292346
              ],
              [
                -96.78745891237075,
                32.9328937789119
              ],
              [
                -96.78777210101141,
                32.932501953220864
              ],
              [
                -96.78811348597219,
                32.93211528596327
              ],
              [
                -96.7883382983552,
                32.93190360569
              ],
              [
                -96.78860827892899,
                32.931697317327334
              ],
              [
                -96.78867958539963,
                32.93152170998538
              ],
              [
                -96.78844926814057,
                32.931432636865864
              ],
              [
                -96.78834963778903,
                32.93131672284967
              ],
              [
                -96.78819927059027,
                32.931190568158115
              ],
              [
                -96.78804545745405,
                32.93094982126832
              ],
              [
                -96.78803327809541,
                32.93070147434124
              ],
              [
                -96.78795659520783,
                32.93055229741052
              ],
              [
                -96.78635000233965,
                32.930556675789994
              ],
              [
                -96.7864310384631,
                32.92804437169924
              ],
              [
                -96.78663487967579,
                32.92798653275406
              ],
              [
                -96.78679050740888,
                32.92784286303033
              ]
            ]
          ]
        ]
      }
    }
  ]
}