{
  "type": "FeatureCollection",
  "name": "Huntsville_1",
  "crs": {
    "type": "name",
    "properties": {
      "name": "urn:ogc:def:crs:OGC:1.3:CRS84"
    }
  },
  "features": [
    {
      "type": "Feature",
      "properties": {
        "largest_city": "Huntsville_1",
        "all_cities": "Huntsville_1",
        "total_area_ft2": 19944428.945624363
      },
      "geometry": {
        "type": "MultiPolygon",
        "coordinates": [
          [
            [
              [
                -86.58673324367022,
                34.714905513081256
              ],
              [
                -86.58673324286003,
                34.71490551308125
              ],
              [
                -86.5868173,
                34.715169
              ],
              [
                -86.58629989999999,
                34.715280600000014
              ],
              [
                -86.5859954,
                34.7143261
              ],
              [
                -86.58651279999998,
                34.7142145
              ],
              [
                -86.58673324367022,
                34.714905513081256
              ]
            ]
          ],
          [
            [
              [
                -86.58551719999998,
                34.72238870000001
              ],
              [
                -86.58551980000001,
                34.72292
              ],
              [
                -86.5853985,
                34.7229301
              ],
              [
                -86.58526769999999,
                34.72294089999998
              ],
              [
                -86.5851357,
                34.722959299999985
              ],
              [
                -86.5851213,
                34.72277009999996
              ],
              [
                -86.58509069999998,
                34.72277359999998
              ],
              [
                -86.585088,
                34.722590599999975
              ],
              [
                -86.58511619999999,
                34.7218488
              ],
              [
                -86.58515989999998,
                34.72161219999998
              ],
              [
                -86.5851944,
                34.72006839999999
              ],
              [
                -86.58563559999999,
                34.72007509999998
              ],
              [
                -86.5856071,
                34.72156709999999
              ],
              [
                -86.5855888,
                34.7217388
              ],
              [
                -86.5855908,
                34.7220466
              ],
              [
                -86.5855156,
                34.7220483
              ],
              [
                -86.58551719999998,
                34.72238870000001
              ]
            ]
          ],
          [
            [
              [
                -86.60630515732247,
                34.722460122579676
              ],
              [
                -86.6054498857135,
                34.721392230248625
              ],
              [
                -86.6065712131568,
                34.72080786489551
              ],
              [
                -86.60665160966177,
                34.72091076608683
              ],
              [
                -86.6066929,
                34.72088959999998
              ],
              [
                -86.6070184,
                34.7213095
              ],
              [
                -86.60697859077779,
                34.72132927615005
              ],
              [
                -86.60741565826996,
                34.72188868810022
              ],
              [
                -86.60630515732247,
                34.722460122579676
              ]
            ]
          ],
          [
            [
              [
                -86.7294156,
                34.62066229999997
              ],
              [
                -86.72931149999998,
                34.620898099999984
              ],
              [
                -86.7291559,
                34.62122939999996
              ],
              [
                -86.72912259999998,
                34.621217899999984
              ],
              [
                -86.7290861,
                34.6212894
              ],
              [
                -86.72907669999998,
                34.6212864
              ],
              [
                -86.7284753,
                34.62108889999998
              ],
              [
                -86.728617,
                34.62081949999999
              ],
              [
                -86.72890250000002,
                34.62043709999998
              ],
              [
                -86.72911829999998,
                34.6205563
              ],
              [
                -86.7292203,
                34.6206014
              ],
              [
                -86.7294156,
                34.62066229999997
              ]
            ]
          ],
          [
            [
              [
                -86.7271023,
                34.6272628
              ],
              [
                -86.7271108,
                34.628261499999965
              ],
              [
                -86.72653839999998,
                34.6282648
              ],
              [
                -86.7265299,
                34.6272661
              ],
              [
                -86.7271023,
                34.6272628
              ]
            ]
          ],
          [
            [
              [
                -86.7173104,
                34.6589863
              ],
              [
                -86.71731269999998,
                34.6589362
              ],
              [
                -86.71739239999998,
                34.65886049999999
              ],
              [
                -86.71742192255763,
                34.65885232384843
              ],
              [
                -86.71742192255763,
                34.65885232384257
              ],
              [
                -86.7174592,
                34.658842
              ],
              [
                -86.71827060000001,
                34.6588584
              ],
              [
                -86.71832023784178,
                34.658851864809066
              ],
              [
                -86.71832023784178,
                34.65885186500817
              ],
              [
                -86.71920939999998,
                34.6587348
              ],
              [
                -86.7194428,
                34.6599549
              ],
              [
                -86.7194562,
                34.660179
              ],
              [
                -86.7186865,
                34.6601613
              ],
              [
                -86.7183827,
                34.660191200000014
              ],
              [
                -86.71802519999999,
                34.66018909999997
              ],
              [
                -86.71761519999998,
                34.66018029999997
              ],
              [
                -86.7172678,
                34.660197099999976
              ],
              [
                -86.71721679999999,
                34.660199599999984
              ],
              [
                -86.7173104,
                34.6589863
              ]
            ]
          ],
          [
            [
              [
                -86.70475389999999,
                34.7008281
              ],
              [
                -86.70454469999999,
                34.7002614
              ],
              [
                -86.7054996,
                34.7000122
              ],
              [
                -86.7056364,
                34.7000541
              ],
              [
                -86.70578659999998,
                34.70048629999999
              ],
              [
                -86.7057249,
                34.7005922
              ],
              [
                -86.70475389999999,
                34.7008281
              ]
            ]
          ],
          [
            [
              [
                -86.70342930000001,
                34.70063849999998
              ],
              [
                -86.7042643,
                34.700404
              ],
              [
                -86.7044798,
                34.701004
              ],
              [
                -86.7036606,
                34.70128469999998
              ],
              [
                -86.70342930000001,
                34.70063849999998
              ]
            ]
          ],
          [
            [
              [
                -86.7038896,
                34.7017466
              ],
              [
                -86.7038447,
                34.70160429999996
              ],
              [
                -86.7038266,
                34.70151280000001
              ],
              [
                -86.7043536,
                34.70130109999999
              ],
              [
                -86.70436969999999,
                34.7012592
              ],
              [
                -86.704823,
                34.701113699999986
              ],
              [
                -86.7049383,
                34.701149
              ],
              [
                -86.7051046,
                34.70152159999998
              ],
              [
                -86.70509119999998,
                34.70155029999999
              ],
              [
                -86.7052629,
                34.7020112
              ],
              [
                -86.7052012,
                34.70206189999998
              ],
              [
                -86.70509389999998,
                34.702123600000014
              ],
              [
                -86.70496520000002,
                34.70217659999999
              ],
              [
                -86.7048391,
                34.702203
              ],
              [
                -86.70468889999998,
                34.702216199999974
              ],
              [
                -86.7045253,
                34.702200799999986
              ],
              [
                -86.70435089999998,
                34.7021567
              ],
              [
                -86.7042088,
                34.702095
              ],
              [
                -86.704072,
                34.7020001
              ],
              [
                -86.70394589999998,
                34.701859
              ],
              [
                -86.7038896,
                34.7017466
              ]
            ]
          ],
          [
            [
              [
                -86.704244,
                34.7035259
              ],
              [
                -86.7037282,
                34.703415299999975
              ],
              [
                -86.7040315,
                34.702459699999984
              ],
              [
                -86.7045472,
                34.7025703
              ],
              [
                -86.704244,
                34.7035259
              ]
            ]
          ],
          [
            [
              [
                -86.7043255,
                34.705668299999985
              ],
              [
                -86.7037702,
                34.70566389999998
              ],
              [
                -86.7037032,
                34.7056109
              ],
              [
                -86.703722,
                34.7045503
              ],
              [
                -86.703789,
                34.70451279999999
              ],
              [
                -86.7043657,
                34.7045194
              ],
              [
                -86.704414,
                34.70455029999998
              ],
              [
                -86.7043925,
                34.70562860000001
              ],
              [
                -86.7043255,
                34.705668299999985
              ]
            ]
          ],
          [
            [
              [
                -86.61434619999999,
                34.6957484
              ],
              [
                -86.61433859999998,
                34.6960534
              ],
              [
                -86.6143352,
                34.696191700000014
              ],
              [
                -86.61400419046491,
                34.69629733090384
              ],
              [
                -86.6137640389081,
                34.69639396530081
              ],
              [
                -86.61343017464287,
                34.69639610274187
              ],
              [
                -86.61328092726961,
                34.69634273240709
              ],
              [
                -86.61325549999998,
                34.6963389
              ],
              [
                -86.61288089999998,
                34.696215
              ],
              [
                -86.6128814,
                34.6961954
              ],
              [
                -86.6129053,
                34.695229
              ],
              [
                -86.6143583,
                34.695260699999984
              ],
              [
                -86.61434619999999,
                34.6957484
              ]
            ]
          ],
          [
            [
              [
                -86.6369223,
                34.7113588
              ],
              [
                -86.6376026,
                34.71136
              ],
              [
                -86.6376,
                34.7123394
              ],
              [
                -86.63691989999998,
                34.71233820000001
              ],
              [
                -86.6369223,
                34.7113588
              ]
            ]
          ],
          [
            [
              [
                -86.6677903,
                34.7164056
              ],
              [
                -86.6681521,
                34.7164109
              ],
              [
                -86.66814379999998,
                34.71670839999996
              ],
              [
                -86.66722914227496,
                34.716699228520035
              ],
              [
                -86.66712748458745,
                34.7167376748651
              ],
              [
                -86.66663025719625,
                34.716722948311215
              ],
              [
                -86.6666399832558,
                34.716448332010316
              ],
              [
                -86.66664971290864,
                34.71617370372137
              ],
              [
                -86.6666594425615,
                34.71589907599726
              ],
              [
                -86.66666916772276,
                34.71562445031475
              ],
              [
                -86.66667889827391,
                34.715349817074504
              ],
              [
                -86.66668862253688,
                34.71507519547524
              ],
              [
                -86.66669803059283,
                34.7148095897178
              ],
              [
                -86.66672342643928,
                34.714809781888164
              ],
              [
                -86.6667439,
                34.7143589
              ],
              [
                -86.66817239999999,
                34.714427399999984
              ],
              [
                -86.6681474,
                34.7146015
              ],
              [
                -86.66810789999998,
                34.714672
              ],
              [
                -86.6679355,
                34.714702199999984
              ],
              [
                -86.66781210000002,
                34.7147742
              ],
              [
                -86.6677903,
                34.7164056
              ]
            ]
          ],
          [
            [
              [
                -86.62270912474081,
                34.7190039268954
              ],
              [
                -86.62251627531394,
                34.71900960499817
              ],
              [
                -86.62231025478837,
                34.71901566557866
              ],
              [
                -86.62222128115106,
                34.71902368580534
              ],
              [
                -86.62214386523817,
                34.719030661231
              ],
              [
                -86.6219109787974,
                34.719027136968705
              ],
              [
                -86.62170471213345,
                34.719024013643704
              ],
              [
                -86.62166900690342,
                34.71902347249188
              ],
              [
                -86.621414,
                34.71903139999998
              ],
              [
                -86.6214111574952,
                34.719020824306625
              ],
              [
                -86.62137068706977,
                34.71902079506823
              ],
              [
                -86.62137076252824,
                34.718951982943395
              ],
              [
                -86.62139043491733,
                34.71894372483098
              ],
              [
                -86.6213707,
                34.7188703
              ],
              [
                -86.62183175942202,
                34.71875846447599
              ],
              [
                -86.62187975605308,
                34.718738317512155
              ],
              [
                -86.62196406024754,
                34.71870292634364
              ],
              [
                -86.62216238670271,
                34.718619669798656
              ],
              [
                -86.62227903114572,
                34.71851522907156
              ],
              [
                -86.62243733945162,
                34.71839354703316
              ],
              [
                -86.62261890154694,
                34.71824902962829
              ],
              [
                -86.62267274836171,
                34.718282385273774
              ],
              [
                -86.62286111339868,
                34.718379764424434
              ],
              [
                -86.62287819373701,
                34.71839097995076
              ],
              [
                -86.6235707,
                34.7187044
              ],
              [
                -86.6237783,
                34.718957899999985
              ],
              [
                -86.6237302880942,
                34.718959392566525
              ],
              [
                -86.62373968281453,
                34.71896973274682
              ],
              [
                -86.62354545986359,
                34.71898573776614
              ],
              [
                -86.62332761032236,
                34.71898713181827
              ],
              [
                -86.62312144247308,
                34.718992533769914
              ],
              [
                -86.62292988302693,
                34.71899755028958
              ],
              [
                -86.62270912474081,
                34.7190039268954
              ]
            ]
          ],
          [
            [
              [
                -86.6952154,
                34.7074144
              ],
              [
                -86.69532669999998,
                34.707378
              ],
              [
                -86.695957,
                34.70747279999998
              ],
              [
                -86.69597309999999,
                34.7083416
              ],
              [
                -86.6958524,
                34.7084199
              ],
              [
                -86.69478759999998,
                34.7082832
              ],
              [
                -86.6947406,
                34.70820819999998
              ],
              [
                -86.69472049999999,
                34.70811889999999
              ],
              [
                -86.69472049999999,
                34.708021899999984
              ],
              [
                -86.6947313,
                34.70793590000003
              ],
              [
                -86.69475669999999,
                34.70785870000003
              ],
              [
                -86.694801,
                34.7077474
              ],
              [
                -86.69484259999999,
                34.70768119999998
              ],
              [
                -86.69489079999998,
                34.7076261
              ],
              [
                -86.6949646,
                34.7075621
              ],
              [
                -86.69503969999998,
                34.7075059
              ],
              [
                -86.6951269,
                34.70745079999996
              ],
              [
                -86.6952154,
                34.7074144
              ]
            ]
          ],
          [
            [
              [
                -86.6973046,
                34.70849959999998
              ],
              [
                -86.6976204,
                34.7095098
              ],
              [
                -86.6968578,
                34.70967090000003
              ],
              [
                -86.6965418,
                34.7086608
              ],
              [
                -86.6973046,
                34.70849959999998
              ]
            ]
          ],
          [
            [
              [
                -86.6721454,
                34.7227782
              ],
              [
                -86.67289379999998,
                34.722003499999985
              ],
              [
                -86.67313,
                34.7221094
              ],
              [
                -86.6732176,
                34.722262
              ],
              [
                -86.6727594,
                34.72244449999998
              ],
              [
                -86.672524,
                34.723213299999976
              ],
              [
                -86.672709,
                34.723755599999976
              ],
              [
                -86.67389689999999,
                34.723996
              ],
              [
                -86.67386989999999,
                34.72405780000001
              ],
              [
                -86.6738737,
                34.72411490000001
              ],
              [
                -86.67326850000002,
                34.72415560000001
              ],
              [
                -86.6732673,
                34.72419989999999
              ],
              [
                -86.67321479999998,
                34.72421449999998
              ],
              [
                -86.673173,
                34.72425179999998
              ],
              [
                -86.67316560000002,
                34.7243094
              ],
              [
                -86.67318419999998,
                34.7244149
              ],
              [
                -86.6732266,
                34.72444559999998
              ],
              [
                -86.67329139999998,
                34.7244521
              ],
              [
                -86.673303,
                34.72450229999997
              ],
              [
                -86.67370739999998,
                34.724475099999964
              ],
              [
                -86.6737625,
                34.7249594
              ],
              [
                -86.67382189999998,
                34.725241
              ],
              [
                -86.67299160000002,
                34.72528529999998
              ],
              [
                -86.6729541,
                34.7252337
              ],
              [
                -86.6728468,
                34.724687
              ],
              [
                -86.6724928,
                34.7240697
              ],
              [
                -86.6723855,
                34.72349649999999
              ],
              [
                -86.6721454,
                34.7227782
              ]
            ]
          ],
          [
            [
              [
                -86.6985727,
                34.72472169999999
              ],
              [
                -86.6994237,
                34.72545849999998
              ],
              [
                -86.6988847,
                34.725879
              ],
              [
                -86.69803369999998,
                34.7251422
              ],
              [
                -86.6985727,
                34.72472169999999
              ]
            ]
          ],
          [
            [
              [
                -86.6358051,
                34.722993899999985
              ],
              [
                -86.63574258184737,
                34.72298771247497
              ],
              [
                -86.6349614,
                34.7229769
              ],
              [
                -86.6350237,
                34.7212186
              ],
              [
                -86.6352764,
                34.72090849999998
              ],
              [
                -86.63567109999998,
                34.720615499999965
              ],
              [
                -86.63604140000001,
                34.7205244
              ],
              [
                -86.6366264,
                34.720137500000014
              ],
              [
                -86.6374157,
                34.720109
              ],
              [
                -86.63775139999998,
                34.72022
              ],
              [
                -86.63766739999998,
                34.7203701
              ],
              [
                -86.63756379999998,
                34.720901
              ],
              [
                -86.6375354,
                34.7214045
              ],
              [
                -86.63696459999998,
                34.7214436
              ],
              [
                -86.6369103,
                34.7223279
              ],
              [
                -86.6366498,
                34.7223241
              ],
              [
                -86.6366091,
                34.7229997
              ],
              [
                -86.6360003077042,
                34.722991278558915
              ],
              [
                -86.6359607,
                34.72299389999998
              ],
              [
                -86.6358909,
                34.722995
              ],
              [
                -86.6358051,
                34.722993899999985
              ]
            ]
          ],
          [
            [
              [
                -86.63487112431837,
                34.72330444641957
              ],
              [
                -86.63346266476755,
                34.72330638750622
              ],
              [
                -86.6335043322237,
                34.72027584761888
              ],
              [
                -86.63493066735035,
                34.72029574946729
              ],
              [
                -86.63487112431837,
                34.72330444641957
              ]
            ]
          ],
          [
            [
              [
                -86.6687462,
                34.722224799999985
              ],
              [
                -86.6687596,
                34.72221529999999
              ],
              [
                -86.66872710000001,
                34.7217032
              ],
              [
                -86.669902,
                34.72169250000002
              ],
              [
                -86.6698458,
                34.72272929999998
              ],
              [
                -86.6693336,
                34.72276369999999
              ],
              [
                -86.6686023,
                34.722581399999974
              ],
              [
                -86.6687462,
                34.722224799999985
              ]
            ]
          ],
          [
            [
              [
                -86.61931289999998,
                34.72388919999999
              ],
              [
                -86.6193715,
                34.723912
              ],
              [
                -86.6195235,
                34.72402369999998
              ],
              [
                -86.6195229,
                34.72417929999998
              ],
              [
                -86.6193153,
                34.724510899999984
              ],
              [
                -86.6191308,
                34.72473309999997
              ],
              [
                -86.6189032,
                34.7249262
              ],
              [
                -86.618082,
                34.7243388
              ],
              [
                -86.61813629999999,
                34.7241851
              ],
              [
                -86.6182694,
                34.72401859999999
              ],
              [
                -86.61856479999999,
                34.7238953
              ],
              [
                -86.61895479999998,
                34.723826400000014
              ],
              [
                -86.61931289999998,
                34.72388919999999
              ]
            ]
          ],
          [
            [
              [
                -86.63697059999998,
                34.72687829999999
              ],
              [
                -86.63697079999999,
                34.72686939999998
              ],
              [
                -86.6367662,
                34.72686619999998
              ],
              [
                -86.636766,
                34.726875599999985
              ],
              [
                -86.6367112,
                34.72687469999999
              ],
              [
                -86.6367114,
                34.72686659999998
              ],
              [
                -86.6366839,
                34.72686619999998
              ],
              [
                -86.6366837,
                34.7268737
              ],
              [
                -86.6366729,
                34.7268735
              ],
              [
                -86.636674,
                34.7268269
              ],
              [
                -86.6359353,
                34.7268155
              ],
              [
                -86.6359443,
                34.72642069999998
              ],
              [
                -86.6366435,
                34.72643149999998
              ],
              [
                -86.6366464,
                34.7263098
              ],
              [
                -86.63668379999999,
                34.7263104
              ],
              [
                -86.6366853,
                34.7262426
              ],
              [
                -86.636692,
                34.726242699999986
              ],
              [
                -86.6366935,
                34.7261777
              ],
              [
                -86.6366865,
                34.726177600000014
              ],
              [
                -86.63668989999998,
                34.726028099999986
              ],
              [
                -86.6367909,
                34.7260297
              ],
              [
                -86.6367892,
                34.7261033
              ],
              [
                -86.6369907,
                34.72610649999998
              ],
              [
                -86.6369843,
                34.7263834
              ],
              [
                -86.6370595,
                34.72638459999999
              ],
              [
                -86.6370557,
                34.726549
              ],
              [
                -86.6370484,
                34.7265489
              ],
              [
                -86.6370479,
                34.7265673
              ],
              [
                -86.6370552,
                34.72656739999997
              ],
              [
                -86.63705459999998,
                34.72659629999998
              ],
              [
                -86.6370966,
                34.72659689999997
              ],
              [
                -86.6370949,
                34.7266691
              ],
              [
                -86.63705290000001,
                34.7266685
              ],
              [
                -86.6370522,
                34.7266978
              ],
              [
                -86.6370449,
                34.7266977
              ],
              [
                -86.63704449999999,
                34.7267134
              ],
              [
                -86.6370506,
                34.7267135
              ],
              [
                -86.6370469,
                34.7268799
              ],
              [
                -86.6370392,
                34.7268797
              ],
              [
                -86.6370394,
                34.72687130000002
              ],
              [
                -86.63701059999998,
                34.7268708
              ],
              [
                -86.6370104,
                34.726879
              ],
              [
                -86.63697059999998,
                34.72687829999999
              ]
            ]
          ],
          [
            [
              [
                -86.6514935,
                34.7288066
              ],
              [
                -86.65131839999998,
                34.7287433
              ],
              [
                -86.6511432,
                34.72865119999999
              ],
              [
                -86.65102059999998,
                34.728544599999985
              ],
              [
                -86.6516897,
                34.7279601
              ],
              [
                -86.65183339999999,
                34.727963
              ],
              [
                -86.65252350000002,
                34.72857049999998
              ],
              [
                -86.65243239999998,
                34.728654
              ],
              [
                -86.6522958,
                34.72873459999998
              ],
              [
                -86.6521171,
                34.728798
              ],
              [
                -86.65189989999999,
                34.728846899999986
              ],
              [
                -86.6517002,
                34.7288469
              ],
              [
                -86.6514935,
                34.7288066
              ]
            ]
          ],
          [
            [
              [
                -86.6371612,
                34.72914069999999
              ],
              [
                -86.63627789999998,
                34.72914739999998
              ],
              [
                -86.6362743,
                34.7288295
              ],
              [
                -86.63627279999999,
                34.7280181
              ],
              [
                -86.6370886,
                34.728017
              ],
              [
                -86.6371498,
                34.72801669999996
              ],
              [
                -86.6371532,
                34.72842830000001
              ],
              [
                -86.6371612,
                34.72914069999999
              ]
            ]
          ],
          [
            [
              [
                -86.66281919999999,
                34.730134499999984
              ],
              [
                -86.6629017,
                34.730419199999986
              ],
              [
                -86.66201349999999,
                34.730478
              ],
              [
                -86.6619502,
                34.73046669999998
              ],
              [
                -86.6619007,
                34.7304283
              ],
              [
                -86.66187870000002,
                34.73028810000001
              ],
              [
                -86.6617852,
                34.7297028
              ],
              [
                -86.6619282,
                34.7296734
              ],
              [
                -86.66209319999999,
                34.7296666
              ],
              [
                -86.6623792,
                34.72974350000001
              ],
              [
                -86.66261570000002,
                34.72987909999998
              ],
              [
                -86.66281919999999,
                34.730134499999984
              ]
            ]
          ],
          [
            [
              [
                -86.70051039999998,
                34.7250821
              ],
              [
                -86.7009858,
                34.726021
              ],
              [
                -86.70046449999998,
                34.726199299999976
              ],
              [
                -86.6999891,
                34.7252605
              ],
              [
                -86.70051039999998,
                34.7250821
              ]
            ]
          ],
          [
            [
              [
                -86.69792309999998,
                34.7269061
              ],
              [
                -86.6977827,
                34.72684189999998
              ],
              [
                -86.69763559999998,
                34.7267362
              ],
              [
                -86.69755639999998,
                34.726652499999986
              ],
              [
                -86.6974887,
                34.7265508
              ],
              [
                -86.6974447,
                34.72644789999998
              ],
              [
                -86.69742519999998,
                34.72637039999998
              ],
              [
                -86.69821469999998,
                34.7257709
              ],
              [
                -86.69837479999998,
                34.7257761
              ],
              [
                -86.6990862,
                34.72642549999996
              ],
              [
                -86.69904619999998,
                34.7265296
              ],
              [
                -86.69899919999999,
                34.72661
              ],
              [
                -86.6989178,
                34.72670819999998
              ],
              [
                -86.6988417,
                34.72677539999999
              ],
              [
                -86.69871219999999,
                34.726857699999975
              ],
              [
                -86.6985664,
                34.7269178
              ],
              [
                -86.69838869999998,
                34.7269565
              ],
              [
                -86.69825789999999,
                34.7269643
              ],
              [
                -86.69808719999999,
                34.72694929999998
              ],
              [
                -86.69792309999998,
                34.7269061
              ]
            ]
          ],
          [
            [
              [
                -86.6902961,
                34.72677039999998
              ],
              [
                -86.6903304,
                34.7268533
              ],
              [
                -86.6903408,
                34.726908
              ],
              [
                -86.6903367,
                34.7272089
              ],
              [
                -86.69032809999999,
                34.727511499999984
              ],
              [
                -86.69032029999998,
                34.7279676
              ],
              [
                -86.690314,
                34.72825650000002
              ],
              [
                -86.6903063,
                34.72863249999998
              ],
              [
                -86.69029719999999,
                34.7289897
              ],
              [
                -86.6902936,
                34.7291743
              ],
              [
                -86.69029,
                34.7295255
              ],
              [
                -86.69029,
                34.729727899999986
              ],
              [
                -86.6903171,
                34.73014909999997
              ],
              [
                -86.69035159999999,
                34.7304288
              ],
              [
                -86.6904113,
                34.73097350000001
              ],
              [
                -86.6904642,
                34.7314731
              ],
              [
                -86.6904841,
                34.7317648
              ],
              [
                -86.6905022,
                34.7320624
              ],
              [
                -86.6905222,
                34.73227820000001
              ],
              [
                -86.690562,
                34.73259519999997
              ],
              [
                -86.6906221,
                34.73295909999999
              ],
              [
                -86.69071949999999,
                34.7335286
              ],
              [
                -86.69080849999999,
                34.73407639999998
              ],
              [
                -86.6908263,
                34.7343098
              ],
              [
                -86.690818,
                34.73454580000002
              ],
              [
                -86.6908067,
                34.734686699999976
              ],
              [
                -86.69078919999998,
                34.734731899999986
              ],
              [
                -86.690757,
                34.734806
              ],
              [
                -86.6907041,
                34.73486639999998
              ],
              [
                -86.6906103,
                34.734892
              ],
              [
                -86.69054629999998,
                34.7348741
              ],
              [
                -86.6905005,
                34.73483009999998
              ],
              [
                -86.6904643,
                34.73474969999999
              ],
              [
                -86.69045169999998,
                34.734694
              ],
              [
                -86.6904501,
                34.7345658
              ],
              [
                -86.69045639999999,
                34.73431829999998
              ],
              [
                -86.6904233,
                34.733966
              ],
              [
                -86.6903161,
                34.733331100000015
              ],
              [
                -86.69022619999998,
                34.73281809999999
              ],
              [
                -86.69015529999999,
                34.7323219
              ],
              [
                -86.6901285,
                34.731960499999985
              ],
              [
                -86.6900828,
                34.731332099999975
              ],
              [
                -86.6900591,
                34.73113390000002
              ],
              [
                -86.68997869999998,
                34.7304239
              ],
              [
                -86.6899299,
                34.7298876
              ],
              [
                -86.689922,
                34.7295144
              ],
              [
                -86.6899267,
                34.72901169999997
              ],
              [
                -86.6899409,
                34.7284222
              ],
              [
                -86.68994659999998,
                34.728063699999986
              ],
              [
                -86.689956,
                34.727597
              ],
              [
                -86.6899695,
                34.727102899999984
              ],
              [
                -86.68997779999998,
                34.7268747
              ],
              [
                -86.6900018,
                34.72680029999998
              ],
              [
                -86.6900288,
                34.7267635
              ],
              [
                -86.6900972,
                34.72666179999998
              ],
              [
                -86.6901287,
                34.726625100000014
              ],
              [
                -86.69016089999998,
                34.726616899999975
              ],
              [
                -86.69019409999999,
                34.72662609999998
              ],
              [
                -86.6902327,
                34.72667889999999
              ],
              [
                -86.6902961,
                34.72677039999998
              ]
            ]
          ],
          [
            [
              [
                -86.6965044,
                34.7410305
              ],
              [
                -86.6963072,
                34.7409647
              ],
              [
                -86.6961593,
                34.74083049999997
              ],
              [
                -86.6960761,
                34.740747
              ],
              [
                -86.69593129999998,
                34.7407369
              ],
              [
                -86.69495149999999,
                34.74091409999996
              ],
              [
                -86.6945812,
                34.741196
              ],
              [
                -86.69390939999998,
                34.741489
              ],
              [
                -86.6935499,
                34.74147139999998
              ],
              [
                -86.6932764,
                34.74142289999997
              ],
              [
                -86.69309929999999,
                34.7412995
              ],
              [
                -86.6928756,
                34.74109769999998
              ],
              [
                -86.6945053,
                34.73997189999998
              ],
              [
                -86.694679,
                34.74001559999998
              ],
              [
                -86.69481539999998,
                34.739894499999984
              ],
              [
                -86.6956165,
                34.7400027
              ],
              [
                -86.69600149999998,
                34.74022829999998
              ],
              [
                -86.6970487,
                34.7404058
              ],
              [
                -86.697518,
                34.7404761
              ],
              [
                -86.69753650000001,
                34.7407622
              ],
              [
                -86.69750569999998,
                34.7409141
              ],
              [
                -86.6974164,
                34.74100780000001
              ],
              [
                -86.6971391,
                34.741071099999985
              ],
              [
                -86.69686489999998,
                34.74108879999998
              ],
              [
                -86.6965044,
                34.7410305
              ]
            ]
          ],
          [
            [
              [
                -86.6082911779234,
                34.743027556371096
              ],
              [
                -86.6083100368294,
                34.742266117803055
              ],
              [
                -86.60833932131644,
                34.741269648879545
              ],
              [
                -86.61150877526818,
                34.741323275135116
              ],
              [
                -86.61148517321595,
                34.74226786275543
              ],
              [
                -86.61144897583016,
                34.74303790235646
              ],
              [
                -86.6082911779234,
                34.743027556371096
              ]
            ]
          ],
          [
            [
              [
                -86.61958679068694,
                34.752402120365936
              ],
              [
                -86.61958780041114,
                34.75222359348045
              ],
              [
                -86.61967102258541,
                34.75222349226445
              ],
              [
                -86.61967000926975,
                34.75240244206786
              ],
              [
                -86.61948501707228,
                34.752656009571275
              ],
              [
                -86.61951674894769,
                34.75267127888799
              ],
              [
                -86.61847075017685,
                34.75405258013774
              ],
              [
                -86.61822788816367,
                34.754379147320876
              ],
              [
                -86.61772535530737,
                34.75506796557106
              ],
              [
                -86.61772696109047,
                34.754786309226816
              ],
              [
                -86.61768664961622,
                34.75478498109181
              ],
              [
                -86.61769384789257,
                34.75443208108108
              ],
              [
                -86.61814524994212,
                34.75435668053246
              ],
              [
                -86.6181834674275,
                34.75353866461034
              ],
              [
                -86.618188749562,
                34.752609935346506
              ],
              [
                -86.61819211706873,
                34.75260994503744
              ],
              [
                -86.61819234135993,
                34.752584480474226
              ],
              [
                -86.61911695370286,
                34.752624759573514
              ],
              [
                -86.61937459512515,
                34.752629749753666
              ],
              [
                -86.61958679068694,
                34.752402120365936
              ]
            ]
          ],
          [
            [
              [
                -86.6562884745821,
                34.758866132499
              ],
              [
                -86.65615837360458,
                34.758800032687795
              ],
              [
                -86.65604297259924,
                34.758709732867054
              ],
              [
                -86.65596387176166,
                34.75861383300259
              ],
              [
                -86.65589417077703,
                34.75847283314305
              ],
              [
                -86.65587267025903,
                34.75838023320474
              ],
              [
                -86.65586596965166,
                34.75824913326225
              ],
              [
                -86.65665457378658,
                34.75823703227855
              ],
              [
                -86.65669877422741,
                34.75828443220503
              ],
              [
                -86.65670147702485,
                34.75892453195651
              ],
              [
                -86.65658347640438,
                34.75892563210476
              ],
              [
                -86.6564466756125,
                34.75891023228296
              ],
              [
                -86.6562884745821,
                34.758866132499
              ]
            ]
          ],
          [
            [
              [
                -86.65721508076184,
                34.75915853121854
              ],
              [
                -86.65720077673438,
                34.75824793158985
              ],
              [
                -86.65790358043388,
                34.758240430712036
              ],
              [
                -86.65791788445075,
                34.75915103033433
              ],
              [
                -86.65721508076184,
                34.75915853121854
              ]
            ]
          ],
          [
            [
              [
                -86.5889837,
                34.7221702
              ],
              [
                -86.58915709999998,
                34.7225285
              ],
              [
                -86.58911019999998,
                34.7229562
              ],
              [
                -86.58780659999998,
                34.7228211
              ],
              [
                -86.5879072,
                34.7226451
              ],
              [
                -86.5884415,
                34.7218375
              ],
              [
                -86.588975,
                34.721838
              ],
              [
                -86.5891363,
                34.7218758
              ],
              [
                -86.5889837,
                34.7221702
              ]
            ]
          ],
          [
            [
              [
                -86.58367039999999,
                34.72468489999998
              ],
              [
                -86.58345429999999,
                34.72433629999998
              ],
              [
                -86.5835574,
                34.7242515
              ],
              [
                -86.5849723,
                34.72422559999998
              ],
              [
                -86.58567979999998,
                34.7243363
              ],
              [
                -86.58596319999998,
                34.7243486
              ],
              [
                -86.5848535,
                34.72556319999999
              ],
              [
                -86.58411019999998,
                34.72508959999998
              ],
              [
                -86.583841,
                34.7248848
              ],
              [
                -86.58367039999999,
                34.72468489999998
              ]
            ]
          ],
          [
            [
              [
                -86.5890401,
                34.725916
              ],
              [
                -86.5890312,
                34.725849400000016
              ],
              [
                -86.589094,
                34.7257609
              ],
              [
                -86.5891772,
                34.725669299999986
              ],
              [
                -86.5892256,
                34.725579900000014
              ],
              [
                -86.58926630000002,
                34.7254925
              ],
              [
                -86.5892887,
                34.72540819999998
              ],
              [
                -86.589295,
                34.725333
              ],
              [
                -86.5893108,
                34.725309500000016
              ],
              [
                -86.5895333,
                34.7254312
              ],
              [
                -86.5896914840728,
                34.72551170655926
              ],
              [
                -86.58978854296413,
                34.72543526472362
              ],
              [
                -86.58987806991605,
                34.72537409027088
              ],
              [
                -86.58982579999999,
                34.7253475
              ],
              [
                -86.589842,
                34.7253259
              ],
              [
                -86.589863,
                34.7253477
              ],
              [
                -86.58995,
                34.7252912
              ],
              [
                -86.5899672,
                34.7253092
              ],
              [
                -86.59045337877716,
                34.72499377741077
              ],
              [
                -86.59072520291487,
                34.72481613384313
              ],
              [
                -86.5907245,
                34.7248154
              ],
              [
                -86.5907677,
                34.72478750000001
              ],
              [
                -86.5911535,
                34.724504
              ],
              [
                -86.59115460000001,
                34.72442549999999
              ],
              [
                -86.5914462,
                34.7242966
              ],
              [
                -86.5915333,
                34.72424749999996
              ],
              [
                -86.5915704,
                34.724240899999984
              ],
              [
                -86.5915914,
                34.7242621
              ],
              [
                -86.5915882,
                34.7243045
              ],
              [
                -86.5915736,
                34.72437880000002
              ],
              [
                -86.59154234426254,
                34.724460417646696
              ],
              [
                -86.59155354834279,
                34.72447657978016
              ],
              [
                -86.59155362040637,
                34.72447681553615
              ],
              [
                -86.5915562,
                34.72448
              ],
              [
                -86.5915705,
                34.72449759999997
              ],
              [
                -86.5916011,
                34.7245327
              ],
              [
                -86.5915927,
                34.72456609999998
              ],
              [
                -86.5916087,
                34.7246416
              ],
              [
                -86.59160064009004,
                34.72464782924181
              ],
              [
                -86.59159062810275,
                34.72468199585336
              ],
              [
                -86.59146204610092,
                34.72475494402067
              ],
              [
                -86.5914141,
                34.724792
              ],
              [
                -86.59137125808246,
                34.72480645060374
              ],
              [
                -86.591120005217,
                34.72494899338424
              ],
              [
                -86.59037963891265,
                34.72541662072891
              ],
              [
                -86.59017499999598,
                34.725551735698
              ],
              [
                -86.5899539887733,
                34.72576901115474
              ],
              [
                -86.5899755,
                34.72594
              ],
              [
                -86.5899611,
                34.7259946
              ],
              [
                -86.589929,
                34.7260268
              ],
              [
                -86.5899104,
                34.7260456
              ],
              [
                -86.5896669,
                34.7262747
              ],
              [
                -86.5895409,
                34.72643369999999
              ],
              [
                -86.5894392,
                34.7266584
              ],
              [
                -86.58938059999998,
                34.7267136
              ],
              [
                -86.589256,
                34.72673049999999
              ],
              [
                -86.5892739,
                34.72662849999998
              ],
              [
                -86.589282,
                34.726557
              ],
              [
                -86.5892748,
                34.7264003
              ],
              [
                -86.5892539,
                34.72629989999999
              ],
              [
                -86.58922529999998,
                34.7262065
              ],
              [
                -86.5891616,
                34.726082
              ],
              [
                -86.5890811,
                34.725971499999986
              ],
              [
                -86.5890401,
                34.725916
              ]
            ]
          ],
          [
            [
              [
                -86.60712401302644,
                34.72937715472634
              ],
              [
                -86.60715324600243,
                34.728837058886405
              ],
              [
                -86.60714847954154,
                34.72854511824923
              ],
              [
                -86.60713861334476,
                34.72794061773215
              ],
              [
                -86.60739142352023,
                34.72816988461721
              ],
              [
                -86.60766420953267,
                34.72847489948729
              ],
              [
                -86.6085487913727,
                34.729275172044105
              ],
              [
                -86.60834292895063,
                34.72930167271411
              ],
              [
                -86.6080668146801,
                34.729335089607574
              ],
              [
                -86.60779761384391,
                34.72936569437011
              ],
              [
                -86.60761079480756,
                34.729383737988954
              ],
              [
                -86.60757120425633,
                34.72938756229062
              ],
              [
                -86.60728771841056,
                34.72941654281358
              ],
              [
                -86.60712102163654,
                34.72943236124014
              ],
              [
                -86.60712401302644,
                34.72937715472634
              ]
            ]
          ],
          [
            [
              [
                -86.58354389999998,
                34.71527809999997
              ],
              [
                -86.5842758,
                34.7152826
              ],
              [
                -86.58428129999999,
                34.716205399999986
              ],
              [
                -86.5835494,
                34.7162008
              ],
              [
                -86.58354389999998,
                34.71527809999997
              ]
            ]
          ],
          [
            [
              [
                -86.5791421,
                34.720164299999986
              ],
              [
                -86.5792126,
                34.720185
              ],
              [
                -86.5792705,
                34.720234199999986
              ],
              [
                -86.57931619999998,
                34.72031879999999
              ],
              [
                -86.5793633,
                34.72040709999998
              ],
              [
                -86.579366,
                34.720429
              ],
              [
                -86.57945379999998,
                34.7205738
              ],
              [
                -86.5793757,
                34.7205744
              ],
              [
                -86.579368,
                34.72057449999998
              ],
              [
                -86.5788561,
                34.7205799
              ],
              [
                -86.5787743,
                34.720623199999984
              ],
              [
                -86.5781797,
                34.72062829999998
              ],
              [
                -86.5779455,
                34.720625699999985
              ],
              [
                -86.577883,
                34.72058389999998
              ],
              [
                -86.57786989999998,
                34.7205256
              ],
              [
                -86.5776666,
                34.7205249
              ],
              [
                -86.57720969999998,
                34.72053809999998
              ],
              [
                -86.5770506,
                34.72055879999998
              ],
              [
                -86.57704379999998,
                34.7205132
              ],
              [
                -86.5769714,
                34.7203775
              ],
              [
                -86.5769267,
                34.7202725
              ],
              [
                -86.5769409,
                34.720234799999986
              ],
              [
                -86.5769866,
                34.7201943
              ],
              [
                -86.57705310000001,
                34.7201824
              ],
              [
                -86.5780919,
                34.72021140000002
              ],
              [
                -86.5784987,
                34.7202143
              ],
              [
                -86.5787163,
                34.72019959999998
              ],
              [
                -86.5788965,
                34.720181199999985
              ],
              [
                -86.5790971,
                34.720163
              ],
              [
                -86.5791421,
                34.720164299999986
              ]
            ]
          ],
          [
            [
              [
                -86.5746221,
                34.724159
              ],
              [
                -86.5752316,
                34.72413509999998
              ],
              [
                -86.5759865,
                34.7241402
              ],
              [
                -86.576181,
                34.72437909999998
              ],
              [
                -86.57525,
                34.7248976
              ],
              [
                -86.57512288320022,
                34.7249683386375
              ],
              [
                -86.57527436500223,
                34.72516115800449
              ],
              [
                -86.57538252575571,
                34.72530341367097
              ],
              [
                -86.5753567310401,
                34.725316162907255
              ],
              [
                -86.5753922,
                34.7253642
              ],
              [
                -86.5745478,
                34.725411
              ],
              [
                -86.57433269999999,
                34.7254162
              ],
              [
                -86.5742681,
                34.725394
              ],
              [
                -86.57420629999999,
                34.72535959999998
              ],
              [
                -86.57414939999997,
                34.725281099999975
              ],
              [
                -86.57411319999999,
                34.7249341
              ],
              [
                -86.57406059999998,
                34.724710599999966
              ],
              [
                -86.57404089999999,
                34.7244708
              ],
              [
                -86.5740177,
                34.72416169999999
              ],
              [
                -86.5746221,
                34.724159
              ]
            ]
          ],
          [
            [
              [
                -86.58103978479402,
                34.7408186448616
              ],
              [
                -86.58103888502393,
                34.74087084474397
              ],
              [
                -86.57934087541027,
                34.74084004682996
              ],
              [
                -86.57934117518568,
                34.740790046943424
              ],
              [
                -86.57934607145505,
                34.739959648828425
              ],
              [
                -86.57934637122231,
                34.73990784894606
              ],
              [
                -86.58105508090892,
                34.739936446849576
              ],
              [
                -86.58105418114154,
                34.73998924673058
              ],
              [
                -86.5810473828786,
                34.740383645841774
              ],
              [
                -86.58103978479402,
                34.7408186448616
              ]
            ]
          ],
          [
            [
              [
                -86.58486439999999,
                34.7291562
              ],
              [
                -86.58398519999999,
                34.729611
              ],
              [
                -86.5837331,
                34.72928189999997
              ],
              [
                -86.58404919999998,
                34.729128199999984
              ],
              [
                -86.5842527,
                34.7290193
              ],
              [
                -86.5843615,
                34.7289686
              ],
              [
                -86.5845843,
                34.7288608
              ],
              [
                -86.5846195,
                34.72884240000001
              ],
              [
                -86.58486439999999,
                34.7291562
              ]
            ]
          ],
          [
            [
              [
                -86.5920693,
                34.73124189999998
              ],
              [
                -86.5920427,
                34.731022399999986
              ],
              [
                -86.5920483,
                34.730988
              ],
              [
                -86.5920683,
                34.730956399999975
              ],
              [
                -86.59209929999999,
                34.73093279999998
              ],
              [
                -86.59212809999998,
                34.7309239
              ],
              [
                -86.5924307,
                34.730858
              ],
              [
                -86.5926288,
                34.730819899999986
              ],
              [
                -86.5926859,
                34.7308343
              ],
              [
                -86.5927188,
                34.73085959999999
              ],
              [
                -86.59273409999999,
                34.7308948
              ],
              [
                -86.5927394,
                34.73093579999998
              ],
              [
                -86.59268919999998,
                34.73106770000001
              ],
              [
                -86.59253560000002,
                34.731368799999984
              ],
              [
                -86.59236620000001,
                34.7316869
              ],
              [
                -86.5922734,
                34.73182709999998
              ],
              [
                -86.5921173,
                34.73202029999998
              ],
              [
                -86.59175649999999,
                34.73231589999997
              ],
              [
                -86.591694,
                34.73226920000002
              ],
              [
                -86.5918285,
                34.732001199999964
              ],
              [
                -86.5918924,
                34.73180119999998
              ],
              [
                -86.5919841,
                34.73151959999998
              ],
              [
                -86.5920193,
                34.731448
              ],
              [
                -86.59207309999998,
                34.7313688
              ],
              [
                -86.5920693,
                34.73124189999998
              ]
            ]
          ],
          [
            [
              [
                -86.5890437,
                34.7344042
              ],
              [
                -86.5889382,
                34.7342459
              ],
              [
                -86.5888346,
                34.73404109999997
              ],
              [
                -86.58882889999998,
                34.733956299999974
              ],
              [
                -86.5888498,
                34.7338926
              ],
              [
                -86.5888936,
                34.733835
              ],
              [
                -86.5890934,
                34.7337117
              ],
              [
                -86.5895219,
                34.7334991
              ],
              [
                -86.58976709999999,
                34.7333699
              ],
              [
                -86.5899056,
                34.73334029999998
              ],
              [
                -86.5900045,
                34.7333443
              ],
              [
                -86.59009250000001,
                34.7333623
              ],
              [
                -86.5901434,
                34.733382200000015
              ],
              [
                -86.5902116,
                34.7334138
              ],
              [
                -86.59024779999999,
                34.73344560000001
              ],
              [
                -86.5907672,
                34.7341736
              ],
              [
                -86.5909818,
                34.734526799999976
              ],
              [
                -86.590547,
                34.734874799999986
              ],
              [
                -86.5898372,
                34.735459
              ],
              [
                -86.58948479999998,
                34.7357367
              ],
              [
                -86.5893667,
                34.7353542
              ],
              [
                -86.5892765,
                34.735062799999966
              ],
              [
                -86.5891389,
                34.73464689999997
              ],
              [
                -86.5890437,
                34.7344042
              ]
            ]
          ],
          [
            [
              [
                -86.5892882,
                34.735745
              ],
              [
                -86.5891122,
                34.735945299999976
              ],
              [
                -86.58900379999999,
                34.7360579
              ],
              [
                -86.5882498,
                34.7351666
              ],
              [
                -86.5881689,
                34.73508359999999
              ],
              [
                -86.5879465,
                34.73485539999998
              ],
              [
                -86.58768820000002,
                34.73450979999997
              ],
              [
                -86.58767010000001,
                34.73447310000001
              ],
              [
                -86.5876728,
                34.7344335
              ],
              [
                -86.5876781,
                34.73442719999998
              ],
              [
                -86.5877307,
                34.7343646
              ],
              [
                -86.587784,
                34.7343322
              ],
              [
                -86.587996,
                34.734232
              ],
              [
                -86.5884938,
                34.73399689999997
              ],
              [
                -86.5885006,
                34.7339935
              ],
              [
                -86.5885767,
                34.73397749999997
              ],
              [
                -86.5886389,
                34.734011
              ],
              [
                -86.5887667,
                34.7342192
              ],
              [
                -86.5888581,
                34.7343845
              ],
              [
                -86.5889487,
                34.7345762
              ],
              [
                -86.58900289999998,
                34.73474909999999
              ],
              [
                -86.5892063,
                34.7354553
              ],
              [
                -86.5892882,
                34.735745
              ]
            ]
          ],
          [
            [
              [
                -86.57975991002185,
                34.74145158351859
              ],
              [
                -86.57962477568958,
                34.74144911227653
              ],
              [
                -86.579358423694,
                34.741442496349904
              ],
              [
                -86.57935878565519,
                34.74142950155357
              ],
              [
                -86.57930407786854,
                34.74142854553356
              ],
              [
                -86.57931587587994,
                34.740974646553106
              ],
              [
                -86.57962537763082,
                34.74098004617347
              ],
              [
                -86.57986617899299,
                34.74098424587808
              ],
              [
                -86.58048958252986,
                34.74099744510807
              ],
              [
                -86.58048008666749,
                34.74192684300493
              ],
              [
                -86.58015008480511,
                34.74192104340928
              ],
              [
                -86.57991478349534,
                34.74192094368844
              ],
              [
                -86.5799171831758,
                34.74184724385334
              ],
              [
                -86.57991726142603,
                34.74184423293382
              ],
              [
                -86.57988415937082,
                34.741843720460274
              ],
              [
                -86.57989302043656,
                34.74145364360076
              ],
              [
                -86.57975991002185,
                34.74145158351859
              ]
            ]
          ],
          [
            [
              [
                -86.57557632441434,
                34.754929632476
              ],
              [
                -86.57615612890224,
                34.7551720318701
              ],
              [
                -86.57560863099631,
                34.756055832914875
              ],
              [
                -86.5750289265153,
                34.755813433524374
              ],
              [
                -86.57557632441434,
                34.754929632476
              ]
            ]
          ],
          [
            [
              [
                -86.57915338514228,
                34.78006133789778
              ],
              [
                -86.57898998675645,
                34.78049133830621
              ],
              [
                -86.57906548807652,
                34.78065943826048
              ],
              [
                -86.57896158913552,
                34.78093843852306
              ],
              [
                -86.57874348857464,
                34.78102983888164
              ],
              [
                -86.57828918566454,
                34.78091133950691
              ],
              [
                -86.57820448447963,
                34.78077553957806
              ],
              [
                -86.57773428148292,
                34.78065614022464
              ],
              [
                -86.57778248052165,
                34.78044404006799
              ],
              [
                -86.57777528003938,
                34.78036504004676
              ],
              [
                -86.577775579796,
                34.78032174002885
              ],
              [
                -86.5777917795425,
                34.78026273998121
              ],
              [
                -86.5778380791801,
                34.780158139870935
              ],
              [
                -86.57799687896214,
                34.77998053956605
              ],
              [
                -86.57832267976481,
                34.77983703903017
              ],
              [
                -86.57870708157728,
                34.77982083845938
              ],
              [
                -86.57882238298382,
                34.7799690383483
              ],
              [
                -86.57915338514228,
                34.78006133789778
              ]
            ]
          ],
          [
            [
              [
                -86.57808888869566,
                34.78162284008776
              ],
              [
                -86.5780570882295,
                34.78156804011311
              ],
              [
                -86.57803598786906,
                34.78152264012626
              ],
              [
                -86.5780187875069,
                34.78147354013213
              ],
              [
                -86.5780069871849,
                34.7814268401309
              ],
              [
                -86.57800208690874,
                34.78138224012033
              ],
              [
                -86.57800038658618,
                34.78132664010056
              ],
              [
                -86.5780029863984,
                34.78129114008248
              ],
              [
                -86.57800948618969,
                34.78124854005575
              ],
              [
                -86.57802238597077,
                34.7811985400166
              ],
              [
                -86.57806118554451,
                34.78108923991536
              ],
              [
                -86.57877549010708,
                34.78127363893016
              ],
              [
                -86.57880869056277,
                34.78132543890129
              ],
              [
                -86.57858019272729,
                34.78190873947063
              ],
              [
                -86.57848639214629,
                34.7818875396019
              ],
              [
                -86.57841609168648,
                34.78186733969855
              ],
              [
                -86.57835649125613,
                34.781843039777605
              ],
              [
                -86.5782936907671,
                34.7818111398584
              ],
              [
                -86.57824419034115,
                34.78177883991914
              ],
              [
                -86.57820008992765,
                34.7817440399709
              ],
              [
                -86.57815988951855,
                34.78170664001572
              ],
              [
                -86.57812678916582,
                34.781673040051544
              ],
              [
                -86.57808888869566,
                34.78162284008776
              ]
            ]
          ],
          [
            [
              [
                -86.70978626276623,
                34.7602071639004
              ],
              [
                -86.71012126376813,
                34.75998596367641
              ],
              [
                -86.71100966853665,
                34.7600081625271
              ],
              [
                -86.71128787062375,
                34.76018756200733
              ],
              [
                -86.71158717261063,
                34.760305961516366
              ],
              [
                -86.71169167330399,
                34.76034726134486
              ],
              [
                -86.71165577343571,
                34.76044066130369
              ],
              [
                -86.71136857202264,
                34.76047016164254
              ],
              [
                -86.71119507133614,
                34.76053646180243
              ],
              [
                -86.71101267081525,
                34.76066426191715
              ],
              [
                -86.71092287071497,
                34.76077236193206
              ],
              [
                -86.7108720706085,
                34.76081906195392
              ],
              [
                -86.70973536457818,
                34.76080676341883
              ],
              [
                -86.70978626276623,
                34.7602071639004
              ]
            ]
          ],
          [
            [
              [
                -86.67500078063354,
                34.76056660797124
              ],
              [
                -86.67554358351724,
                34.76057210727531
              ],
              [
                -86.67552128739206,
                34.76156120673958
              ],
              [
                -86.67498068454377,
                34.761559407435946
              ],
              [
                -86.67500078063354,
                34.76056660797124
              ]
            ]
          ],
          [
            [
              [
                -86.67768479585027,
                34.76083340438755
              ],
              [
                -86.67781279652448,
                34.760833404223845
              ],
              [
                -86.67815019941487,
                34.76111220362599
              ],
              [
                -86.67847020263618,
                34.76149770298462
              ],
              [
                -86.6784469026852,
                34.76154070298877
              ],
              [
                -86.67840620269385,
                34.76159650300768
              ],
              [
                -86.67836160266293,
                34.761647503034524
              ],
              [
                -86.67829370251572,
                34.76170000309052
              ],
              [
                -86.6782123023428,
                34.76176380315724
              ],
              [
                -86.67813860216538,
                34.76181630322086
              ],
              [
                -86.67807460196947,
                34.76185140328245
              ],
              [
                -86.6779641015036,
                34.761880003407896
              ],
              [
                -86.67787870111921,
                34.761896003508475
              ],
              [
                -86.67779340074779,
                34.76191510360719
              ],
              [
                -86.67770230024394,
                34.76190870372846
              ],
              [
                -86.67763049984782,
                34.761903903823885
              ],
              [
                -86.67754519932356,
                34.761884803945186
              ],
              [
                -86.67745789876956,
                34.76186090407185
              ],
              [
                -86.67736679817027,
                34.76183070420711
              ],
              [
                -86.67727759752317,
                34.761786104348296
              ],
              [
                -86.67719229681303,
                34.76172070449658
              ],
              [
                -86.6771030959551,
                34.761623604668394
              ],
              [
                -86.67701579499777,
                34.761499304853494
              ],
              [
                -86.67726209505365,
                34.76119020471851
              ],
              [
                -86.6776038324143,
                34.760901745737804
              ],
              [
                -86.6776038324143,
                34.76090174535296
              ],
              [
                -86.67768479585027,
                34.76083340438755
              ]
            ]
          ],
          [
            [
              [
                -86.67684449234143,
                34.761061905329
              ],
              [
                -86.67683309552326,
                34.76186940487242
              ],
              [
                -86.67615989196311,
                34.76186300574412
              ],
              [
                -86.67617098877108,
                34.761055606195555
              ],
              [
                -86.67684449234143,
                34.761061905329
              ]
            ]
          ],
          [
            [
              [
                -86.61079905945704,
                34.75842303475253
              ],
              [
                -86.61079702106278,
                34.75846865197199
              ],
              [
                -86.61087333186775,
                34.7584706896665
              ],
              [
                -86.61084313670742,
                34.75944968977663
              ],
              [
                -86.61112624237332,
                34.7602665894764
              ],
              [
                -86.61120454382252,
                34.760469689390966
              ],
              [
                -86.6110510435061,
                34.76056628959365
              ],
              [
                -86.61044674281946,
                34.76105499040294
              ],
              [
                -86.61003093925699,
                34.760786690913704
              ],
              [
                -86.60959363918847,
                34.76122259151041
              ],
              [
                -86.60957543920708,
                34.761244891535675
              ],
              [
                -86.6090699547643,
                34.76090324824649
              ],
              [
                -86.60904342168709,
                34.76093186233414
              ],
              [
                -86.60889370053297,
                34.7607841227696
              ],
              [
                -86.60888803320316,
                34.76078029237436
              ],
              [
                -86.60889437381618,
                34.760649514101665
              ],
              [
                -86.60891027471065,
                34.75922658506047
              ],
              [
                -86.60895801518079,
                34.7592257620709
              ],
              [
                -86.60895772543167,
                34.75919639213866
              ],
              [
                -86.60972077600681,
                34.759196789528886
              ],
              [
                -86.60972360471204,
                34.759150443330945
              ],
              [
                -86.6097186255825,
                34.758439891113575
              ],
              [
                -86.61001962492648,
                34.758447914706736
              ],
              [
                -86.61079905945704,
                34.75842303475253
              ]
            ]
          ],
          [
            [
              [
                -86.62005964899483,
                34.761996635674954
              ],
              [
                -86.62004577866325,
                34.76162483605801
              ],
              [
                -86.61999830786363,
                34.76152899097335
              ],
              [
                -86.62000281640906,
                34.761322964658284
              ],
              [
                -86.62000421687091,
                34.76125895482392
              ],
              [
                -86.61994369159564,
                34.76081037823942
              ],
              [
                -86.62001436398617,
                34.76081022303428
              ],
              [
                -86.6200150129267,
                34.7607845381342
              ],
              [
                -86.62012122131009,
                34.76078612027385
              ],
              [
                -86.62037087074935,
                34.76078984022067
              ],
              [
                -86.62062051749363,
                34.76079356238126
              ],
              [
                -86.62089679673333,
                34.76079768007639
              ],
              [
                -86.62117307776965,
                34.760801794819294
              ],
              [
                -86.6214227236155,
                34.760805513289284
              ],
              [
                -86.62151737666001,
                34.76080692223588
              ],
              [
                -86.62158390021801,
                34.760806776142076
              ],
              [
                -86.6215731068086,
                34.76215527611124
              ],
              [
                -86.62006479879481,
                34.762134678060626
              ],
              [
                -86.62006366402339,
                34.7621042600725
              ],
              [
                -86.62005729530327,
                34.76210416518942
              ],
              [
                -86.62005964899483,
                34.761996635674954
              ]
            ]
          ],
          [
            [
              [
                -86.61121107261508,
                34.7857110911525
              ],
              [
                -86.611082671737,
                34.785661191344985
              ],
              [
                -86.61095417076069,
                34.785592191536075
              ],
              [
                -86.61086546997697,
                34.78552309166634
              ],
              [
                -86.61076276887054,
                34.78540419181405
              ],
              [
                -86.61069966786847,
                34.78526809189998
              ],
              [
                -86.61066236694201,
                34.785122291945704
              ],
              [
                -86.6106693662019,
                34.78497079192365
              ],
              [
                -86.61071136574009,
                34.784840391850054
              ],
              [
                -86.61077436551817,
                34.784736891746704
              ],
              [
                -86.61082806539774,
                34.7846620916597
              ],
              [
                -86.61091916543013,
                34.784581491515695
              ],
              [
                -86.61100326551691,
                34.784518191383675
              ],
              [
                -86.61103826557017,
                34.78449519132897
              ],
              [
                -86.61200497212779,
                34.78485768988727
              ],
              [
                -86.61204927281153,
                34.78494968982573
              ],
              [
                -86.6116079747083,
                34.78574369054866
              ],
              [
                -86.61146787406686,
                34.78575129076315
              ],
              [
                -86.61133247334118,
                34.785737890969024
              ],
              [
                -86.61121107261508,
                34.7857110911525
              ]
            ]
          ],
          [
            [
              [
                -86.61373238711869,
                34.7861580873231
              ],
              [
                -86.61324078935338,
                34.787069388121324
              ],
              [
                -86.61274908606947,
                34.786890588868886
              ],
              [
                -86.61324078382881,
                34.785979188066925
              ],
              [
                -86.61373238711869,
                34.7861580873231
              ]
            ]
          ]
        ]
      }
    }
  ]
}